House Number,Street Name,Community,Zip Code,Unit Type,Unit,Floor Type,Floor,Building Type,Building,DA/PSA,OVALS Address ID,Primary_Term_Address,FAC_ADDR,Working TN Status
79,HIGHWAY 82 E,TUSCALOOSA,35405,UNIT,RLA,,,,,350202,00000KO38I,RLA F 4200 BEARMONT RD,79 HIGHWAY 82 E UNIT RLA,
3200,BEAR CREEK RD E,DUNCANVILLE,35456,,,,,,,350202,00000KOA13,P 15W2N1 BEARMONT RD,3200 BEAR CREEK RD E,
3201,ARGONNE FOREST LN,DUNCANVILLE,35456,,,,,,,350202,00000KO9SS,P 15W2N10W2 BEARMONT RD,3201 ARGONNE FOREST LN,
3210,ARGONNE FOREST LN,DUNCANVILLE,35456,,,,,,,350202,00000KO7YJ,P 15W2N8W2 BEARMONT RD,3210 ARGONNE FOREST LN,
3211,ARGONNE FOREST LN,DUNCANVILLE,35456,,,,,,,350202,00000KO8J9,P 15W2N8W2 BEARMONT RD,3211 ARGONNE FOREST LN,
3230,ARGONNE FOREST LN,DUNCANVILLE,35456,,,,,,,350202,00000KO6TF,P 15W2N8W2 BEARMONT RD,3230 ARGONNE FOREST LN,
3231,ARGONNE FOREST LN,DUNCANVILLE,35456,,,,,,,350202,00000KO5IG,P 15W2N8W2 BEARMONT RD,3231 ARGONNE FOREST LN,
3251,ARGONNE FOREST LN,DUNCANVILLE,35456,,,,,,,350202,00000KO8IX,P 15W2N8II BEARMONT RD,3251 ARGONNE FOREST LN,
3315,ARGONNE FOREST LN,DUNCANVILLE,35456,,,,,,,350202,00000KO5XU,P 15W2N8II BEARMONT RD,3315 ARGONNE FOREST LN,
3335,ARGONNE FOREST LN,DUNCANVILLE,35456,,,,,,,350202,00000KO7BK,P 15W2N8E1I 1-2 BEARMONT RD,3335 ARGONNE FOREST LN,
3351,ARGONNE FOREST LN,DUNCANVILLE,35456,,,,,,,350202,00000KO5SG,P 15W2N8E2II BREARMONT RD,3351 ARGONNE FOREST LN,
3400,ARGONNE FOREST LN,DUNCANVILLE,35456,,,,,,,350202,00000KOAC7,P 15W2N8E2I BRADLEY RD,3400 ARGONNE FOREST LN,
3401,BEARMONT LN,DUNCANVILLE,35456,,,,,,,350202,000014K3XO,PED 12W3 BEARMONT RD,3401 BEARMONT LN,
3401,BEARMONT RD,DUNCANVILLE,35456,,,,,,,350202,00000KO4TQ,PED 12W3 BEARMONT RD,3401 BEARMONT RD,
3404,BEAR CREEK RD E,DUNCANVILLE,35456,,,,,,,350202,00000KO7K7,P 15E1 BEARMONT RD,3404 BEAR CREEK RD E,
3406,ARGONNE RD,DUNCANVILLE,35456,,,,,,,350202,00000KO48G,P 15W2N10W4 BEARMONT RD,3406 ARGONNE RD,
3407,ARGONNE RD,DUNCANVILLE,35456,,,,,,,350202,00000KO49I,P 15W2N10W4 BEARMONT RD,3407 ARGONNE RD,
3410,BEARMONT LN,DUNCANVILLE,35456,,,,,,,350202,00000KO7HA,PED 12W2 BEARMONT RD,3410 BEARMONT LN,
3411,ARGONNE FOREST LN,DUNCANVILLE,35456,,,,,,,350202,00000KO6H0,P 15W2N8E2I 1-2 BEARMONT RD,3411 ARGONNE FOREST LN,
3411,BEARMONT LN,DUNCANVILLE,35456,,,,,,,350202,00000KO9KM,PED 12W3 BEARMONT RD,3411 BEARMONT LN,
3415,BEARMONT LN,DUNCANVILLE,35456,,,,,,,350202,00000KO91Z,PED 12W3 BEARMONT RD,3415 BEARMONT LN,
3420,BEARMONT RD,DUNCANVILLE,35456,,,,,,,350202,00000KO4AX,P 14 BEARMONT RD,3420 BEARMONT RD,
3423,ARGONNE FOREST LN,DUNCANVILLE,35456,,,,,,,350202,00000KO5X7,P 15W2N8E3II BEARMONT RD,3423 ARGONNE FOREST LN,
3424,ARGONNE RD,DUNCANVILLE,35456,,,,,,,350202,00000KO7TI,P 15W2N10W4 BEARMONT RD,3424 ARGONNE RD,
3425,ARGONNE RD,DUNCANVILLE,35456,,,,,,,350202,00000KO5XB,P 15W2N10W4 BEARMONT RD,3425 ARGONNE RD,
3434,ARGONNE FOREST LN,DUNCANVILLE,35456,,,,,,,350202,00000KO7LD,P 15W2N8E3II BEARMONT RD,3434 ARGONNE FOREST LN,
3435,ARGONNE FOREST LN,DUNCANVILLE,35456,,,,,,,350202,00000KO4JO,P 15W2N8E3I BRADLEY RD,3435 ARGONNE FOREST LN,
3440,ARGONNE RD,DUNCANVILLE,35456,,,,,,,350202,00000KO8TL,P 15W2N10W4 BEARMONT RD,3440 ARGONNE RD,
3440,BEARMONT LN,DUNCANVILLE,35456,,,,,,,350202,0000P8SF9Q,PED 12W3 BEARMONT RD,3440 BEARMONT LN,
3440,BEARMONT RD,DUNCANVILLE,35456,,,,,,,350202,00000KO5IL,PED 12W3 BEARMONT RD,3440 BEARMONT RD,DUPLIca
3445,BEARMONT LN,DUNCANVILLE,35456,,,,,,,350202,00000KO3O0,PED 12W3 BEARMONT RD,3445 BEARMONT LN,
3460,ARGONNE RD,DUNCANVILLE,35456,,,,,,,350202,00000KO4IH,P 15W2N10W2 BEARMONT RD,3460 ARGONNE RD,
3471,BEARMONT LN,DUNCANVILLE,35456,,,,,,,350202,00000KO6FZ,PED 12W2 BEARMONT RD,3471 BEARMONT LN,
3475,BEAR CREEK RD E,DUNCANVILLE,35456,,,,,,,350202,00000KO52E,P 15E1 BEARMONT RD,3475 BEAR CREEK RD E,
3475,BEARMONT LN,DUNCANVILLE,35456,,,,,,,350202,00000KO62A,PED 12W2 BEARMONT RD,3475 BEARMONT LN,
3500,BEARMONT RD,DUNCANVILLE,35456,,,,,,,350202,00000KOA07,P 13 BEARMONT RD,3500 BEARMONT RD,
3501,BEARMONT LN,DUNCANVILLE,35456,,,,,,,350202,00000KO8L6,PED 12W2 BEARMONT RD,3501 BEARMONT LN,
3502,ARGONNE RD,DUNCANVILLE,35456,,,,,,,350202,00000KO4GF,P 15W2N10 BEARMONT RD,3502 ARGONNE RD,
3505,ARGONNE FOREST LN,DUNCANVILLE,35456,,,,,,,350202,00000KO8B8,P 15W2N8E4 BEARMONT RD,3505 ARGONNE FOREST LN,
3510,ARGONNE FOREST LN,DUNCANVILLE,35456,,,,,,,350202,00000KO7H5,P 15W2N8E5 BEARMONT RD,3510 ARGONNE FOREST LN,
3510,BEARMONT RD,DUNCANVILLE,35456,,,,,,,350202,00000KO3UE,P 13 BEARMONT RD,3510 BEARMONT RD,
3515,BEARMONT RD,DUNCANVILLE,35456,,,,,,,350202,00000KO8K7,P 12 BEARMONT RD,3515 BEARMONT RD,
3521,ARGONNE FOREST LN,DUNCANVILLE,35456,,,,,,,350202,00000KO456,P 15W2N8E5 BEARMONT RD,3521 ARGONNE FOREST LN,
3522,ARGONNE RD,DUNCANVILLE,35456,,,,,,,350202,00000KO9SB,P 15W2N10 BEARMONT RD,3522 ARGONNE RD,
3524,BEARMONT RD,DUNCANVILLE,35456,,,,,,,350202,00000KO6TL,PED 12W1 BEARMONT RD,3524 BEARMONT RD,
3530,BEARMONT RD,DUNCANVILLE,35456,,,,,,,350202,00000KO5XK,PED 12W1 BEARMONT RD,3530 BEARMONT RD,
3538,ARGONNE FOREST LN,DUNCANVILLE,35456,,,,,,,350202,00000KO51K,P 15W2N8E6 BEARMONT RD,3538 ARGONNE FOREST LN,
3540,ARGONNE FOREST LN,DUNCANVILLE,35456,,,,,,,350202,00000KO3U5,P 15W2N8E6 BEARMONT RD,3540 ARGONNE FOREST LN,
3541,ARGONNE FOREST LN,DUNCANVILLE,35456,,,,,,,350202,00000KO4I7,P 15W2N8E6 BEARMONT RD,3541 ARGONNE FOREST LN,
3541,BEARMONT RD,DUNCANVILLE,35456,,,,,,,350202,00000KO3UB,P 11 1-3 BEARMONT RD,3541 BEARMONT RD,
3550,ARGONNE FOREST LN,DUNCANVILLE,35456,,,,,,,350202,00000KO81E,P 15W2N8E6 BEARMONT RD,3550 ARGONNE FOREST LN,
3551,BEARMONT RD,DUNCANVILLE,35456,,,,,,,350202,00000KO4JV,P 11 BEARMONT RD,3551 BEARMONT RD,
3552,BEARMONT RD,DUNCANVILLE,35456,,,,,,,350202,00000KO9JZ,P 11 1-2 BEARMONT RD,3552 BEARMONT RD,
3561,BEARMONT RD,DUNCANVILLE,35456,,,,,,,350202,00000KO8Y5,P 10 BEARMONT RD,3561 BEARMONT RD,
3580,BEARMONT RD,DUNCANVILLE,35456,UNIT,HOUSE,,,,,350202,00000KO7TY,P 11 BEARMONT RD,3580 BEARMONT RD UNIT HOUSE,
3580,BEARMONT RD,DUNCANVILLE,35456,,,,,,,350202,00000KO8AZ,P 11 BEARMONT RD,3580 BEARMONT RD,
3600,BEARMONT RD,DUNCANVILLE,35456,,,,,,,350202,00000KOA12,P 10 BEARMONT RD,3600 BEARMONT RD,
3601,BEARMONT RD,DUNCANVILLE,35456,,,,,,,350202,00000KO49H,P 10 BEARMONT RD,3601 BEARMONT RD,
3610,BEARMONT RD,DUNCANVILLE,35456,,,,,,,350202,00000KO6TR,P 10 BEARMONT RD,3610 BEARMONT RD,
3611,BEARMONT RD,DUNCANVILLE,35456,,,,,,,350202,00000KO41N,P 10 BEARMONT RD,3611 BEARMONT RD,
3615,BEARMONT RD,DUNCANVILLE,35456,,,,,,,350202,00000KO7K8,P 9 BEARMONT RD,3615 BEARMONT RD,
3617,BEARMONT RD,DUNCANVILLE,35456,,,,,,,350202,00000KO59F,P 9 BEARMONT RD,3617 BEARMONT RD,
3617,SOUTHRIDGE RD,DUNCANVILLE,35456,,,,,,,350202,00000KO523,PED 8W7 1-2 BEARMONT RD,9020 SOUTHRIDGE RD,
3620,BEAR CREEK RD E,DUNCANVILLE,35456,UNIT,TRAILER,,,,,350202,00000KO3S7,P 15E5 BEARMONT RD,3620 BEAR CREEK RD E UNIT TRAILER,
3620,BEAR CREEK RD E,DUNCANVILLE,35456,,,,,,,350202,00000KO8J1,P 15E5 BEARMONT RD,3620 BEAR CREEK RD E,
3620,BEARMONT RD,DUNCANVILLE,35456,,,,,,,350202,00000KO5A1,P 10 BEARMONT RD,3620 BEARMONT RD,
3621,BEARMONT RD,DUNCANVILLE,35456,,,,,,,350202,00000KO4U5,P 10 BEARMONT RD,3621 BEARMONT RD,
3701,BEARMONT RD,DUNCANVILLE,35456,,,,,,,350202,00000KO7HL,AHN-2 BEARMONT RD LOT 1,3701 BEARMONT RD,
3730,BEARMONT RD,DUNCANVILLE,35456,,,,,,,350202,00000KO8YM,P 6 1-2 BEARMONT RD,3730 BEARMONT RD,
3731,BEARMONT RD,DUNCANVILLE,35456,,,,,,,350202,00000KO3U7,AHN-2 BEARMONT RD LOT 1,3731 BEARMONT RD,
3810,BEARMONT RD,DUNCANVILLE,35456,,,,,,,350202,00000KO6YZ,P 6 1-2 BEARMONT RD,3810 BEARMONT RD,
3812,BEARMONT RD,DUNCANVILLE,35456,,,,,,,350202,00010IZI4C,P 6 BEARMONT RD,3812 BEARMONT RD,
3826,BEARMONT RD,DUNCANVILLE,35456,,,,,,,350202,00000KO8G5,P 6 BEARMONT RD,3826 BEARMONT RD,
3829,BEARMONT RD,DUNCANVILLE,35456,,,,,,,350202,00000KOA0E,AHN-2 BEARMONT RD LOT 3,3829 BEARMONT RD,
3840,BEARMONT RD,DUNCANVILLE,35456,,,,,,,350202,00000KO5SL,P 4 1-2 BEARMONT RD,3840 BEARMONT RD,
3912,BEARMONT RD,DUNCANVILLE,35456,,,,,,,350202,00000KO5XA,P 4 BEARMONT RD,3912 BEARMONT RD,
3912,BEARMONT RD,DUNCANVILLE,35456,,,,,,,350202,00000KO83C,P 3E2 BRADLEY RD,4011 BEARMONT RD,
3932,BEARMONT RD,DUNCANVILLE,35456,,,,,,,350202,00000KO7TA,P 3 BEARMONT RD,3932 BEARMONT RD,
3935,BEARMONT RD,DUNCANVILLE,35456,,,,,,,350202,00000KO8XW,P 3E2 BRADLEY RD,3935 BEARMONT RD,
3939,BEARMONT RD,DUNCANVILLE,35456,,,,,,,350202,0000SARXW6,P 3E2 BRADLEY RD,3939 BEARMONT RD,
3950,BEARMONT RD,DUNCANVILLE,35456,,,,,,,350202,00000KO8IY,P 3E2 BRADLEY RD,3950 BEARMONT RD,
4000,BEARMONT RD,DUNCANVILLE,35456,,,,,,,350202,00000KO7TH,P 3E2 BRADLEY RD,4000 BEARMONT RD,
4010,BEARMONT RD,DUNCANVILLE,35456,,,,,,,350202,00000KO6AR,P 3E4 1-2 BRADLEY RD,4010 BEARMONT RD,
4030,BEARMONT RD,DUNCANVILLE,35456,,,,,,,350202,00000KO7C9,P 3E3 BRADLEY RD,4030 BEARMONT RD,
4050,BEARMONT RD,DUNCANVILLE,35456,,,,,,,350202,00000KO81N,P 3E3 BRADLEY RD,4050 BEARMONT RD,
4053,BEARMONT RD,DUNCANVILLE,35456,,,,,,,350202,00010WQ2MJ,P 3E4 BRADLEY RD,4053 BEARMONT RD,
4053,BEARMONT RD,DUNCANVILLE,35456,,,,,,,350202,00010WQ2MJ,,4053 BEARMONT RD,
4061,BEARMONT RD,DUNCANVILLE,35456,,,,,,,350202,00000KO6U0,P 3E4 BRADLEY RD,4061 BEARMONT RD,
4071,BEARMONT RD,DUNCANVILLE,35456,,,,,,,350202,00000KO9IC,P 3E5S2 BRADLEY RD,4071 BEARMONT RD,
4075,BEARMONT RD,DUNCANVILLE,35456,,,,,,,350202,00000KO3O4,P 3E5S3 BRADLEY RD,4075 BEARMONT RD,
4083,BEARMONT RD,DUNCANVILLE,35456,,,,,,,350202,00000KOA1Y,P 3E5S1 BRADLEY RD,4083 BEARMONT RD,
4085,BEARMONT RD,DUNCANVILLE,35456,,,,,,,350202,00000KO9IY,P 3E5S2 BRADLEY RD,4085 BEARMONT RD,
4089,BEARMONT RD,DUNCANVILLE,35456,,,,,,,350202,00000KO7YI,P 3E5S2 BRADLEY RD,4089 BEARMONT RD,
4093,BEARMONT RD,DUNCANVILLE,35456,,,,,,,350202,00000KO9RM,PED 80 HIGHWAY 82 E,4093 BEARMONT RD,
4101,BEARMONT RD,DUNCANVILLE,35456,,,,,,,350202,00000KO6JN,PED 80 HIGHWAY 82 E,4101 BEARMONT RD,
4200,BEARMONT RD,DUNCANVILLE,35456,,,,,,,350202,00000KO3O1,P 3E5S2 BRADLEY RD,4200 BEARMONT RD,
4303,SHERWOOD FOREST,DUNCANVILLE,35456,,,,,,,350202,00000KO8KC,P 77E3 1-2 S1 BRADLEY RD,4303 SHERWOOD FOREST,
4311,SHERWOOD FOREST,DUNCANVILLE,35456,,,,,,,350202,00000KO7LL,F 7 SHERWOOD FOREST,4311 SHERWOOD FOREST,
4312,SHERWOOD FOREST,DUNCANVILLE,35456,,,,,,,350202,00000KO923,F 11 SHERWOOD FOREST,4312 SHERWOOD FOREST,
4314,SHERWOOD FOREST,DUNCANVILLE,35456,,,,,,,350202,00000KO6G3,F 11 SHERWOOD FOREST,4314 SHERWOOD FOREST,
4315,BEARMONT RD,DUNCANVILLE,35456,,,,,,,350202,00000KO91R,P 3E3 BRADLEY RD,4315 BEARMONT RD,
4316,SHERWOOD FOREST,DUNCANVILLE,35456,,,,,,,350202,00000KO4KB,F 15 SHERWOOD FOREST,4316 SHERWOOD FOREST,
4322,SHERWOOD FOREST,DUNCANVILLE,35456,,,,,,,350202,00000KO90S,F 19 SHERWOOD FOREST,4322 SHERWOOD FOREST,
4324,SHERWOOD FOREST,DUNCANVILLE,35456,,,,,,,350202,00000KO90N,F 19 SHERWOOD FOREST,4324 SHERWOOD FOREST,
4326,SHERWOOD FOREST,DUNCANVILLE,35456,,,,,,,350202,00000KO8AS,F 19 SHERWOOD FOREST,4326 SHERWOOD FOREST,
4328,SHERWOOD FOREST,DUNCANVILLE,35456,,,,,,,350202,00000KO49R,F 15 SHERWOOD FOREST,4328 SHERWOOD FOREST,
4330,SHERWOOD FOREST,DUNCANVILLE,35456,,,,,,,350202,00000KO8TK,F 15 SHERWOOD FOREST,4330 SHERWOOD FOREST,
4333,SHERWOOD FOREST,DUNCANVILLE,35456,,,,,,,350202,00000KO6Z8,F 7 SHERWOOD FOREST,4333 SHERWOOD FOREST,
4334,SHERWOOD FOREST,DUNCANVILLE,35456,,,,,,,350202,00000KO7BP,P 77E3 1-2 S3 BRADLEY RD,4334 SHERWOOD FOREST,
4335,SHERWOOD FOREST,DUNCANVILLE,35456,,,,,,,350202,00000KO8XO,P 77E3 1-2 S2 BRADLEY RD,4335 SHERWOOD FOREST,
4336,SHERWOOD FOREST,DUNCANVILLE,35456,,,,,,,350202,00000KO9RX,P 77E3 1-2 S2 BRADLEY RD,4336 SHERWOOD FOREST,
4338,SHERWOOD FOREST,DUNCANVILLE,35456,,,,,,,350202,00000KO72B,P 77E3 1-2 S2 BRADLEY RD,4338 SHERWOOD FOREST,
4340,SHERWOOD FOREST,DUNCANVILLE,35456,,,,,,,350202,00000KO7JN,P 77E3 1-2 S1 BRADLEY RD,4340 SHERWOOD FOREST,
7508,BRADLEY RD,DUNCANVILLE,35456,,,,,,,350202,00000KO7HF,PED 77E9 HIGHWAY 82 E,7508 BRADLEY RD,
7511,BRADLEY RD,DUNCANVILLE,35456,,,,,,,350202,00000KO6U4,PED 77E10 HIGHWAY 82 E,7511 BRADLEY RD,
7516,BRADLEY RD,DUNCANVILLE,35456,,,,,,,350202,00000KO8K6,PED 77E9 HIGHWAY 82 E,7516 BRADLEY RD,
7520,BRADLEY RD,DUNCANVILLE,35456,,,,,,,350202,00000KO5HZ,PED 77E10 HIGHWAY 82 E,7520 BRADLEY RD,
7525,BRADLEY RD,DUNCANVILLE,35456,,,,,,,350202,00000KO44R,PED 77E10 HIGHWAY 82 E,7525 BRADLEY RD,
7526,BRADLEY RD,DUNCANVILLE,35456,,,,,,,350202,00000KO7BA,PED 77E10 HIGHWAY 82 E,7526 BRADLEY RD,
7530,BRADLEY RD,DUNCANVILLE,35456,,,,,,,350202,00000KO5X0,PED 77E8 HIGHWAY 82 E,7530 BRADLEY RD,
7555,BRADLEY RD,DUNCANVILLE,35456,,,,,,,350202,00000KOAD0,PED 77E10 HIGHWAY 82 E,7555 BRADLEY RD,
7558,BRADLEY RD,DUNCANVILLE,35456,,,,,,,350202,00000KO4T9,PED 77E8 HIGHWAY 82 E,7558 BRADLEY RD,
7611,BRADLEY RD,DUNCANVILLE,35456,,,,,,,350202,00000KO91V,PED 77E8 HIGHWAY 82 E,7611 BRADLEY RD,
7621,BRADLEY RD,DUNCANVILLE,35456,,,,,,,350202,00000KO81J,PED 77E8 HIGHWAY 82 E,7621 BRADLEY RD,
7703,BRADLEY RD,DUNCANVILLE,35456,,,,,,,350202,00000KO4JB,PED 77E7 HIGHWAY 82 E,7703 BRADLEY RD,
7710,BRADLEY RD,DUNCANVILLE,35456,,,,,,,350202,00000KO59V,PED 77E8 HIGHWAY 82 E,7710 BRADLEY RD,
7801,BRADLEY RD,DUNCANVILLE,35456,,,,,,,350202,00000KO4FS,PED 77E7 HIGHWAY 82 E,7801 BRADLEY RD,
7830,BRADLEY RD,DUNCANVILLE,35456,,,,,,,350202,00000KO913,PED 77E6 HIGHWAY 82 E,7830 BRADLEY RD,
7920,BRADLEY RD,DUNCANVILLE,35456,,,,,,,350202,00000KO5SI,PED 77E5 HIGHWAY 82 E,7920 BRADLEY RD,
7925,BRADLEY RD,DUNCANVILLE,35456,,,,,,,350202,00000KO8SK,PED 77E5 HIGHWAY 82 E,7925 BRADLEY RD,
8001,BRADLEY RD,DUNCANVILLE,35456,,,,,,,350202,00000KO81H,PED 77E4 HIGHWAY 82 E,8001 BRADLEY RD,
8211,BRADLEY RD,DUNCANVILLE,35456,,,,,,,350202,00000KO7KB,PED 77E3 HIGHWAY 82 E,8211 BRADLEY RD,Y
8235,BRADLEY RD,DUNCANVILLE,35456,,,,,,,350202,00000KO82O,P 77E1S5 HIGHWAY 82 E,8235 BRADLEY RD,
8265,BRADLEY RD,DUNCANVILLE,35456,,,,,,,350202,00000KO4KI,P 77E1S5 HIGHWAY 82 E,8265 BRADLEY RD,
8301,BRADLEY RD,DUNCANVILLE,35456,,,,,,,350202,00000KO8AW,PED 77E2 HIGHWAY 82 E,8301 BRADLEY RD,
8318,BRADLEY RD,DUNCANVILLE,35456,,,,,,,350202,00000KO3UG,PED 77E2 HIGHWAY 82 E,8318 BRADLEY RD,
8330,BRADLEY RD,DUNCANVILLE,35456,,,,,,,350202,00000KO8XY,PED 77E1 HIGHWAY 82 E,8330 BRADLEY RD,
8331,BRADLEY RD,DUNCANVILLE,35456,,,,,,,350202,00000KO3OR,P 77E1S4 HIGHWAY 82 E,8331 BRADLEY RD,
8341,BRADLEY RD,DUNCANVILLE,35456,,,,,,,350202,00000KOA00,P 77E1S3 HIGHWAY 82 E,8341 BRADLEY RD,
8400,ARGONNE FOREST DR,DUNCANVILLE,35456,,,,,,,350202,00000KO6GN,P 15W2N10 BEARMONT RD,8400 ARGONNE FOREST DR,
8402,ARGONNE FOREST DR,DUNCANVILLE,35456,,,,,,,350202,00000KO9JQ,P 15W2N10W3 BEARMONT RD,8402 ARGONNE FOREST DR,
8402,BRADLEY RD,DUNCANVILLE,35456,,,,,,,350202,00000KO82J,P 77E1S2 HIGHWAY 82 E,8402 BRADLEY RD,
8404,ARGONNE FOREST DR,DUNCANVILLE,35456,,,,,,,350202,00000KO4GI,P 15W2N10W3 BEARMONT RD,8404 ARGONNE FOREST DR,
8405,BRADLEY RD,DUNCANVILLE,35456,,,,,,,350202,00000KO7T3,P 77E1S5 HIGHWAY 82 E,8405 BRADLEY RD,
8419,BRADLEY RD,DUNCANVILLE,35456,,,,,,,350202,00000KO41V,P 77E1S3 HIGHWAY 82 E,8419 BRADLEY RD,
8420,BRADLEY RD,DUNCANVILLE,35456,,,,,,,350202,00000KO8JX,P 77E1S2 HIGHWAY 82 E,8420 BRADLEY RD,
8421,ARGONNE FOREST DR,DUNCANVILLE,35456,,,,,,,350202,00000KO7CD,P 15W2N10 BEARMONT RD,8421 ARGONNE FOREST DR,
8430,ARGONNE FOREST DR,DUNCANVILLE,35456,,,,,,,350202,00000KOA9Z,P 15W2N9 1-2 BEARMONT RD,8430 ARGONNE FOREST DR,
8431,ARGONNE FOREST DR,DUNCANVILLE,35456,,,,,,,350202,00000KO9IK,P 15W2N9 1-2 BEARMONT RD,8431 ARGONNE FOREST DR,
8501,BRADLEY RD,DUNCANVILLE,35456,,,,,,,350202,00000KO9K7,P 77E1S4 HIGHWAY 82 E,8501 BRADLEY RD,
8515,BRADLEY RD,DUNCANVILLE,35456,,,,,,,350202,00000KO9WP,PED 80 HIGHWAY 82 E,8515 BRADLEY RD,
8531,ARGONNE FOREST DR,DUNCANVILLE,35456,,,,,,,350202,00000KO6GE,PED 8W8 BEARMONT RD,8531 ARGONNE FOREST DR,
8532,ARGONNE FOREST DR,DUNCANVILLE,35456,,,,,,,350202,00000KO4B2,P 15W2N7 BEARMONT RD,8532 ARGONNE FOREST DR,
8601,ARGONNE FOREST DR,DUNCANVILLE,35456,,,,,,,350202,00000KO9J9,P 15W2N6 BEARMONT RD,8601 ARGONNE FOREST DR,
8602,ARGONNE FOREST DR,DUNCANVILLE,35456,,,,,,,350202,00000KO8HA,P 15W2N6 BEARMONT RD,8602 ARGONNE FOREST DR,
8619,ARGONNE FOREST DR,DUNCANVILLE,35456,,,,,,,350202,00000KO4IA,P 15W2N6 BEARMONT RD,8619 ARGONNE FOREST DR,
8620,ARGONNE FOREST DR,DUNCANVILLE,35456,,,,,,,350202,00000KO6GU,P 15W2N6 BEARMONT RD,8620 ARGONNE FOREST DR,
8646,SOUTHRIDGE RD,DUNCANVILLE,35456,,,,,,,350202,00000KO3OP,PED 8W5 BEARMONT RD,8646 SOUTHRIDGE RD,
8700,SOUTHRIDGE RD,DUNCANVILLE,35456,,,,,,,350202,00000KOACZ,PED 8W5 BEARMONT RD,8700 SOUTHRIDGE RD,
8701,ARGONNE FOREST DR,DUNCANVILLE,35456,,,,,,,350202,00000KO421,P 15W2N5 1-2 BEARMONT RD,8701 ARGONNE FOREST DR,
8704,ARGONNE FOREST DR,DUNCANVILLE,35456,,,,,,,350202,00000KO6JO,P 15W2N5 1-2 BEARMONT RD,8704 ARGONNE FOREST DR,
8705,ARGONNE FOREST DR,DUNCANVILLE,35456,,,,,,,350202,00000KO6ZD,P 15W2N5 1-2 BEARMONT RD,8705 ARGONNE FOREST DR,
8709,ARGONNE FOREST DR,DUNCANVILLE,35456,,,,,,,350202,00000KO3O6,P 15W2N5 1-2 BEARMONT RD,8709 ARGONNE FOREST DR,
8719,SOUTHRIDGE RD,DUNCANVILLE,35456,,,,,,,350202,00000KO5I2,PED 8W6 BEARMONT RD LOT 6,8719 SOUTHRIDGE RD,
8726,ARGONNE FOREST DR,DUNCANVILLE,35456,,,,,,,350202,00000KO629,P 15N2N5 BEARMONT RD,8726 ARGONNE FOREST DR,
8726,SOUTHRIDGE RD,DUNCANVILLE,35456,,,,,,,350202,00000KO8L7,PED 8W6 BEARMONT RD LOT 6,8726 SOUTHRIDGE RD,
8734,ARGONNE FOREST DR,DUNCANVILLE,35456,,,,,,,350202,00000KO44O,P 15N2N5 BEARMONT RD,8734 ARGONNE FOREST DR,
8787,SOUTHRIDGE RD,DUNCANVILLE,35456,,,,,,,350202,00000KOACB,PED 8W6 BEARMONT RD LOT 6,8787 SOUTHRIDGE RD,
8800,SOUTHRIDGE RD,DUNCANVILLE,35456,,,,,,,350202,00000KO4TR,PED 8W6 BEARMONT RD LOT 6,8800 SOUTHRIDGE RD,
8805,SOUTHRIDGE RD,DUNCANVILLE,35456,,,,,,,350202,00000KO8AP,PED 8W7 BEARMONT RD,8805 SOUTHRIDGE RD,
8809,SOUTHRIDGE RD,DUNCANVILLE,35456,,,,,,,350202,00000KOA9B,PED 8W7 BEARMONT RD,8809 SOUTHRIDGE RD,
8811,SOUTHRIDGE RD,DUNCANVILLE,35456,,,,,,,350202,00000KO9RU,PED 8W7 BEARMONT RD,8811 SOUTHRIDGE RD,
8821,SOUTHRIDGE RD,DUNCANVILLE,35456,,,,,,,350202,00000KO42Q,PED 8W7 BEARMONT RD,8821 SOUTHRIDGE RD,
8830,SOUTHRIDGE RD,DUNCANVILLE,35456,,,,,,,350202,00000KO8KL,PED 8W7 BEARMONT RD,8830 SOUTHRIDGE RD,
8831,SOUTHRIDGE RD,DUNCANVILLE,35456,,,,,,,350202,00000KOA06,PED 8W7 BEARMONT RD,8831 SOUTHRIDGE RD,
8841,SOUTHRIDGE RD,DUNCANVILLE,35456,,,,,,,350202,00000KO8GY,PED 8W7 BEARMONT RD,8841 SOUTHRIDGE RD,
8915,ARGONNE FOREST DR,DUNCANVILLE,35456,,,,,,,350202,00000KO44U,P 15W2N1 BEARMONT RD,8915 ARGONNE FOREST DR,
8916,ARGONNE FOREST DR,DUNCANVILLE,35456,,,,,,,350202,00000KO819,P 15W2N2 BEARMONT RD,8916 ARGONNE FOREST DR,
8921,SOUTHRIDGE RD,DUNCANVILLE,35456,,,,,,,350202,00000KO91O,PED 8W7 1-2 BEARMONT RD,8921 SOUTHRIDGE RD,
8925,SOUTHRIDGE RD,DUNCANVILLE,35456,,,,,,,350202,00000KO49N,PED 8W7 1-2 BEARMONT RD,8925 SOUTHRIDGE RD,
8970,SOUTHRIDGE RD,DUNCANVILLE,35456,,,,,,,350202,00000KO4A4,PED 8W7 1-2 BEARMONT RD,8970 SOUTHRIDGE RD,
9025,SOUTHRIDGE RD,DUNCANVILLE,35456,LOT,E,,,,,350202,00000KO8SG,PED 8W8 BEARMONT RD,9025 SOUTHRIDGE RD LOT E,
9025,SOUTHRIDGE RD,DUNCANVILLE,35456,UNIT,F,,,,,350202,00000KO4TG,PED 8W8 BEARMONT RD,9025 SOUTHRIDGE RD UNIT F,
9026,SOUTHRIDGE RD,DUNCANVILLE,35456,,,,,,,350202,00000KO4TD,PED 8W8 BEARMONT RD,9026 SOUTHRIDGE RD,
9030,SOUTHRIDGE RD,DUNCANVILLE,35456,,,,,,,350202,00000KO7Z0,PED 8W8 BEARMONT RD,9030 SOUTHRIDGE RD,
9041,SOUTHRIDGE RD,DUNCANVILLE,35456,,,,,,,350202,00000KO9AP,PED 8W8 BEARMONT RD,9041 SOUTHRIDGE RD,
9109,SOUTHRIDGE RD,DUNCANVILLE,35456,,,,,,,350202,00000KO82F,P 15E3 BEARMONT RD,9109 SOUTHRIDGE RD,
9121,SOUTHRIDGE RD,DUNCANVILLE,35456,,,,,,,350202,00000KO9B5,P 15E3 BEARMONT RD,9121 SOUTHRIDGE RD,
9122,SOUTHRIDGE RD,DUNCANVILLE,35456,UNIT,B,,,,,350202,00000KO49V,PED 8W8 BEARMONT RD,9122 SOUTHRIDGE RD UNIT B,
9122,SOUTHRIDGE RD,DUNCANVILLE,35456,,,,,,,350202,00000KO44J,P 15E3 BEARMONT RD,9122 SOUTHRIDGE RD,
9145,SOUTHRIDGE RD,DUNCANVILLE,35456,,,,,,,350202,00000KOA0V,P 15E3 BEARMONT RD,9145 SOUTHRIDGE RD,
9410,HIGHWAY 82 E,DUNCANVILLE,35456,,,,,,,350202,00000KO4IF,PED 78 HIGHWAY 82 E,9410 HIGHWAY 82 E,
9504,HIGHWAY 82 E,DUNCANVILLE,35456,APT,1,,,,,350202,00000KO8JR,PED 78 HIGHWAY 82 E,9504 HIGHWAY 82 E APT 1,
9504,HIGHWAY 82 E,DUNCANVILLE,35456,APT,2,,,,,350202,00000KO6JG,PED 78 HIGHWAY 82 E,9504 HIGHWAY 82 E APT 2,
10290,HIGHWAY 82 E,DUNCANVILLE,35456,,,,,,,350202,00000KO6B2,P 82E1 HIGHWAY 82 E,10290 HIGHWAY 82 E,
10474,HIGHWAY 82 E,DUNCANVILLE,35456,,,,,,,350202,00000KOA24,P 82E1 HIGHWAY 82 E,10474 HIGHWAY 82 E,
10855,HIGHWAY 82 E,DUNCANVILLE,35456,RM,TELCO,FLR,1,BLDG,MAIN,350202,000105BKKU,I 10855.1.1 HIGHWAY 82 E,10855 HIGHWAY 82 E RM TELCO FLR 1 BLDG MAIN,
10855,HIGHWAY 82 E,DUNCANVILLE,35456,,,,,,,350202,00000KOAA7,I 10855.1.1 HIGHWAY 82 E,10855 HIGHWAY 82 E,Y
11169,HIGHWAY 82 E,DUNCANVILLE,35456,,,,,,,350202,00000KO9SJ,P 2 BEARMONT RD,11169 HIGHWAY 82 E,
11175,HIGHWAY 82 E,DUNCANVILLE,35456,,,,,,,350202,00000KO5XJ,P 2 BEARMONT RD,11175 HIGHWAY 82 E,
11330,DOMINION DR,DUNCANVILLE,35456,,,,,,,350202,00011BIUFX,I 10855.1.1 HIGHWAY 82 E,11330 DOMINION DR,Y
11433,AARON LUKE RD,DUNCANVILLE,35456,,,,,,,350202,00000KOA0Z,P 82E4 HIGHWAY 82 E,11433 AARON LUKE RD,
11443,AARON LUKE RD,DUNCANVILLE,35456,,,,,,,350202,00000KO8IS,P 82E8 HIGHWAY 82 E,11443 AARON LUKE RD,
11446,AARON LUKE RD,DUNCANVILLE,35456,,,,,,,350202,00000KO81B,P 82E5 HIGHWAY 82 E,11446 AARON LUKE RD,
11453,AARON LUKE RD,DUNCANVILLE,35456,,,,,,,350202,00000KO8BV,P 82E8 HIGHWAY 82 E,11453 AARON LUKE RD,
11456,AARON LUKE RD,DUNCANVILLE,35456,,,,,,,350202,00000KO7JG,P 82E8 HIGHWAY 82 E,11456 AARON LUKE RD,
11460,AARON LUKE RD,DUNCANVILLE,35456,,,,,,,350202,00000KO7CE,P 82E7 HIGHWAY 82 E,11460 AARON LUKE RD,
11462,AARON LUKE RD,DUNCANVILLE,35456,,,,,,,350202,00000KO9IF,P 82E7 HIGHWAY 82 E,11462 AARON LUKE RD,
11464,AARON LUKE RD,DUNCANVILLE,35456,,,,,,,350202,00000KO81M,P 82E7 HIGHWAY 82 E,11464 AARON LUKE RD,
11466,AARON LUKE RD,DUNCANVILLE,35456,,,,,,,350202,00000KO44W,P 82E8 HIGHWAY 82 E,11466 AARON LUKE RD,
11476,AARON LUKE RD,DUNCANVILLE,35456,,,,,,,350202,00010C9LRU,P 82E8 HIGHWAY 82 E,11476 AARON LUKE RD,
11490,AARON LUKE RD,DUNCANVILLE,35456,,,,,,,350202,00010A1KYB,P 77E1S5 HIGHWAY 82 E,11490 AARON LUKE RD,
