House Number,Street Name,Community,Zip Code,Unit Type,Unit,Floor Type,Floor,Building Type,Building,DA/PSA,OVALS Address ID,Primary_Term_Address,FAC_ADDR,Working TN Status
1300,HIATUS RD,DAVIE,33330,UNIT,CEV,,,,,420405,00000HJVQ2,RLA 1300 SW 112TH AV,1300 HIATUS RD UNIT CEV,Y
1300,HIATUS RD,DAVIE,33330,UNIT,MCU,,,,,420405,00000HJXY8,RLA 1300 SW 112TH AV,1300 HIATUS RD UNIT MCU,
1300,HIATUS RD,DAVIE,33330,UNIT,MUX,,,,,420405,00000HJV87,MUX 1300 SW 112TH AV,1300 HIATUS RD UNIT MUX,
1300,HIATUS RD,DAVIE,33330,UNIT,RLA,,,,,420405,00000HJV61,RLA 1300 SW 112TH AV,1300 HIATUS RD UNIT RLA,
1300,SW 112TH AV,PLTN,33323,UNIT,RLA,,,,,420405,Not SAG Valid,RLA 1300 SW 112TH AV,1300 SW 112TH AV UNIT RLA,
1400,SW 110TH WAY,DAVIE,33324,,,,,,,420405,00000HIZHT,R 1404 SW 110TH WAY,1400 SW 110TH WAY,
1401,SW 110TH WAY,DAVIE,33324,,,,,,,420405,00000HIS33,11000 N HARMONY LAKE CIR,1401 SW 110TH WAY,
1402,SW 110TH WAY,DAVIE,33324,,,,,,,420405,00000HIYSU,R 1404 SW 110TH WAY,1402 SW 110TH WAY,
1403,SW 110TH WAY,DAVIE,33324,,,,,,,420405,00000HIYSC,11000 N HARMONY LAKE CIR,1403 SW 110TH WAY,
1404,SW 110TH WAY,DAVIE,33324,,,,,,,420405,00000HIVQU,R 1404 SW 110TH WAY,1404 SW 110TH WAY,
1405,SW 110TH WAY,DAVIE,33324,,,,,,,420405,00000HITS1,R 1407 SW 110TH WAY,1405 SW 110TH WAY,
1406,SW 110TH WAY,DAVIE,33324,,,,,,,420405,00000HJ6XT,R 1404 SW 110TH WAY,1406 SW 110TH WAY,
1407,SW 110TH WAY,DAVIE,33324,,,,,,,420405,00000HIVIZ,R 1407 SW 110TH WAY,1407 SW 110TH WAY,
1410,SW 109TH WAY,DAVIE,33324,UNIT,OUTSIDE,,,,,420405,00000HIZ6D,R 1500 W HARMONY LAKE CIR,1410 SW 109TH WAY UNIT OUTSIDE,
1410,SW 110TH WAY,DAVIE,33324,,,,,,,420405,00000HJ00Q,R 1410 SW 110TH WAY,1410 SW 110TH WAY,
1411,SW 109TH WAY,DAVIE,33324,,,,,,,420405,00000HIXNN,R 1413 SW 109TH WAY,1411 SW 109TH WAY,
1411,SW 110TH WAY,DAVIE,33324,,,,,,,420405,00000HJ4TE,R 1407 SW 110TH WAY,1411 SW 110TH WAY,
1412,SW 110TH WAY,DAVIE,33324,,,,,,,420405,00000HIRZ8,R 1410 SW 110TH WAY,1412 SW 110TH WAY,
1413,SW 109TH WAY,DAVIE,33324,,,,,,,420405,00000HIZWG,R 1413 SW 109TH WAY,1413 SW 109TH WAY,
1413,SW 110TH WAY,DAVIE,33324,,,,,,,420405,00000HIXHI,R 1407 SW 110TH WAY,1413 SW 110TH WAY,
1414,SW 110TH WAY,DAVIE,33324,,,,,,,420405,00000HJ089,R 1414 SW 110TH WAY,1414 SW 110TH WAY,
1415,SW 109TH WAY,DAVIE,33324,,,,,,,420405,00000HIUTG,R 1413 SW 109TH WAY,1415 SW 109TH WAY,
1415,SW 110TH WAY,DAVIE,33324,,,,,,,420405,00000HIUB8,R 1415 SW 110TH WAY,1415 SW 110TH WAY,
1416,SW 110TH WAY,DAVIE,33324,,,,,,,420405,00000HIUK8,R 1414 SW 110TH WAY,1416 SW 110TH WAY,
1417,SW 109TH WAY,DAVIE,33324,,,,,,,420405,00000HIUJZ,R 1413 SW 109TH WAY,1417 SW 109TH WAY,
1417,SW 110TH WAY,DAVIE,33324,,,,,,,420405,00000HJ4TP,R 1415 SW 110TH WAY,1417 SW 110TH WAY,
1420,SW 109TH WAY,DAVIE,33324,,,,,,,420405,00000HIZHN,R 1420 SW 109TH WAY,1420 SW 109TH WAY,
1420,SW 110TH WAY,DAVIE,33324,,,,,,,420405,00000HISJG,R 1420 SW 110TH WAY,1420 SW 110TH WAY,
1420,W HARMONY LAKE CIR,DAVIE,33324,,,,,,,420405,00000HIUV2,R 11120 N HARMONY LAKE CIR,1420 W HARMONY LAKE CIR,
1421,SW 109TH WAY,DAVIE,33324,,,,,,,420405,00000HJ5R8,R 1413 SW 109TH WAY,1421 SW 109TH WAY,
1421,SW 110TH WAY,DAVIE,33324,,,,,,,420405,00000HIWF3,R 1421 SW 110TH WAY,1421 SW 110TH WAY,
1422,SW 109TH WAY,DAVIE,33324,,,,,,,420405,00000HIYZW,R 1420 SW 109TH WAY,1422 SW 109TH WAY,
1422,SW 110TH WAY,DAVIE,33324,,,,,,,420405,00000HIYN9,R 1420 SW 110TH WAY,1422 SW 110TH WAY,
1422,W HARMONY LAKE CIR,DAVIE,33324,,,,,,,420405,00000HIZ0L,R 11120 N HARMONY LAKE CIR,1422 W HARMONY LAKE CIR,
1423,SW 109TH WAY,DAVIE,33324,,,,,,,420405,00000HJ0FS,R 1413 SW 109TH WAY,1423 SW 109TH WAY,
1423,SW 110TH WAY,DAVIE,33324,,,,,,,420405,00000HITZG,R 1421 SW 110TH WAY,1423 SW 110TH WAY,
1424,SW 109TH WAY,DAVIE,33324,,,,,,,420405,00000HITAE,R 1424 SW 109TH WAY,1424 SW 109TH WAY,
1424,SW 110TH WAY,DAVIE,33324,,,,,,,420405,00000HIUNE,R 1424 SW 110TH WAY,1424 SW 110TH WAY,
1424,W HARMONY LAKE CIR,DAVIE,33324,,,,,,,420405,00000HJ1ED,R 1424 W HARMONY LAKE CIR,1424 W HARMONY LAKE CIR,
1425,SW 109TH WAY,DAVIE,33324,,,,,,,420405,00000HJ582,R 1425.1 SW 109TH WAY,1425 SW 109TH WAY,
1425,SW 110TH WAY,DAVIE,33324,,,,,,,420405,00000HJ03R,R 1425 SW 110TH WAY,1425 SW 110TH WAY,
1426,SW 109TH WAY,DAVIE,33324,,,,,,,420405,00000HIRU4,R 1424 SW 109TH WAY,1426 SW 109TH WAY,
1426,SW 110TH WAY,DAVIE,33324,,,,,,,420405,00000HISQZ,R 1424 SW 110TH WAY,1426 SW 110TH WAY,
1426,W HARMONY LAKE CIR,DAVIE,33324,,,,,,,420405,00000HIULV,R 1424 W HARMONY LAKE CIR,1426 W HARMONY LAKE CIR,
1427,SW 109TH WAY,DAVIE,33324,,,,,,,420405,00000HJ0JH,R 1425.1 SW 109TH WAY,1427 SW 109TH WAY,
1427,SW 110TH WAY,DAVIE,33324,,,,,,,420405,00000HIRR4,R 1425 SW 110TH WAY,1427 SW 110TH WAY,
1430,SW 109TH WAY,DAVIE,33324,,,,,,,420405,00000HIULI,R 1430 SW 109TH WAY,1430 SW 109TH WAY,
1432,SW 109TH WAY,DAVIE,33324,,,,,,,420405,00000HJ1DK,R 1430 SW 109TH WAY,1432 SW 109TH WAY,
1434,SW 109TH WAY,DAVIE,33324,,,,,,,420405,00000HIW47,R 1434 SW 109TH WAY,1434 SW 109TH WAY,
1436,SW 109TH WAY,DAVIE,33324,,,,,,,420405,00000HISN4,R 1434 SW 109TH WAY,1436 SW 109TH WAY,
1500,SW 110TH WAY,DAVIE,33324,,,,,,,420405,00000HIY8W,R 1424 SW 110TH WAY,1500 SW 110TH WAY,
1500,W HARMONY LAKE CIR,DAVIE,33324,,,,,,,420405,00000HITMX,R 1500 W HARMONY LAKE CIR,1500 W HARMONY LAKE CIR,
1501,SW 110TH WAY,DAVIE,33324,,,,,,,420405,00000HIYKZ,R 1501 SW 110TH WAY,1501 SW 110TH WAY,
1502,SW 110TH WAY,DAVIE,33324,,,,,,,420405,00000HJ0PJ,R 1424 SW 110TH WAY,1502 SW 110TH WAY,
1502,W HARMONY LAKE CIR,DAVIE,33324,,,,,,,420405,00000HIS3X,R 1500 W HARMONY LAKE CIR,1502 W HARMONY LAKE CIR,
1503,SW 110TH WAY,DAVIE,33324,,,,,,,420405,00000HJ05L,R 1501 SW 110TH WAY,1503 SW 110TH WAY,
1504,SW 110TH WAY,DAVIE,33324,,,,,,,420405,00000HJ063,R 1504 SW 110TH WAY,1504 SW 110TH WAY,
1504,W HARMONY LAKE CIR,DAVIE,33324,,,,,,,420405,00000HIY5M,R 1504 W HARMONY LAKE CIR,1504 W HARMONY LAKE CIR,
1505,SW 110TH WAY,DAVIE,33324,,,,,,,420405,00000HJ0O5,R 1505 SW 110TH WAY,1505 SW 110TH WAY,
1506,SW 110TH WAY,DAVIE,33324,,,,,,,420405,00000HIUX1,R 1504 SW 110TH WAY,1506 SW 110TH WAY,
1506,W HARMONY LAKE CIR,DAVIE,33324,,,,,,,420405,00000HJ0GF,R 1504 W HARMONY LAKE CIR,1506 W HARMONY LAKE CIR,
1507,SW 110TH WAY,DAVIE,33324,,,,,,,420405,00000HIWZ5,R 1505 SW 110TH WAY,1507 SW 110TH WAY,
1510,SW 110TH WAY,DAVIE,33324,,,,,,,420405,00000HJ6N2,R 1510 SW 110TH WAY,1510 SW 110TH WAY,
1511,W HARMONY LAKE CIR,DAVIE,33324,,,,,,,420405,00000HJ0RP,R 1513 W HARMONY LAKE CIR,1511 W HARMONY LAKE CIR,
1512,SW 110TH WAY,DAVIE,33324,,,,,,,420405,00000HIZKN,R 1510 SW 110TH WAY,1512 SW 110TH WAY,
1513,W HARMONY LAKE CIR,DAVIE,33324,,,,,,,420405,00000HIWPG,R 1513 W HARMONY LAKE CIR,1513 W HARMONY LAKE CIR,
1514,SW 110TH WAY,DAVIE,33324,,,,,,,420405,00000HIT8I,R 1514 SW 110TH WAY,1514 SW 110TH WAY,
1515,W HARMONY LAKE CIR,DAVIE,33324,,,,,,,420405,00000HIYRH,R 1523 W HARMONY LAKE CIR,1515 W HARMONY LAKE CIR,
1516,SW 110TH WAY,DAVIE,33324,,,,,,,420405,00000HIRRH,R 1514 SW 110TH WAY,1516 SW 110TH WAY,
1517,W HARMONY LAKE CIR,DAVIE,33324,,,,,,,420405,00000HIUIV,R 1523 W HARMONY LAKE CIR,1517 W HARMONY LAKE CIR,
1521,W HARMONY LAKE CIR,DAVIE,33324,,,,,,,420405,00000HIU2N,R 1523 W HARMONY LAKE CIR,1521 W HARMONY LAKE CIR,
1523,W HARMONY LAKE CIR,DAVIE,33324,,,,,,,420405,00000HJ0SU,R 1523 W HARMONY LAKE CIR,1523 W HARMONY LAKE CIR,
1525,W HARMONY LAKE CIR,DAVIE,33324,,,,,,,420405,00000HIU02,R 1533 W HARMONY LAKE CIR,1525 W HARMONY LAKE CIR,
1527,W HARMONY LAKE CIR,DAVIE,33324,,,,,,,420405,00000HIUWS,R 1533 W HARMONY LAKE CIR,1527 W HARMONY LAKE CIR,
1530,W HARMONY LAKE CIR,DAVIE,33324,,,,,,,420405,00000HJ01W,R 1532 W HARMONY LAKE CIR,1530 W HARMONY LAKE CIR,
1531,W HARMONY LAKE CIR,DAVIE,33324,,,,,,,420405,00000HISTL,R 1533 W HARMONY LAKE CIR,1531 W HARMONY LAKE CIR,
1532,W HARMONY LAKE CIR,DAVIE,33324,,,,,,,420405,00000HIUP2,R 1532 W HARMONY LAKE CIR,1532 W HARMONY LAKE CIR,
1533,W HARMONY LAKE CIR,DAVIE,33324,,,,,,,420405,00000HITX4,R 1533 W HARMONY LAKE CIR,1533 W HARMONY LAKE CIR,
1534,W HARMONY LAKE CIR,DAVIE,33324,,,,,,,420405,00000HIWT7,R 1534 W HARMONY LAKE CIR,1534 W HARMONY LAKE CIR,
1535,W HARMONY LAKE CIR,DAVIE,33324,,,,,,,420405,00000HIY0J,R 1603 W HARMONY LAKE CIR,1535 W HARMONY LAKE CIR,
1536,W HARMONY LAKE CIR,DAVIE,33324,,,,,,,420405,00000HJ1FO,R 1534 W HARMONY LAKE CIR,1536 W HARMONY LAKE CIR,
1537,W HARMONY LAKE CIR,DAVIE,33324,,,,,,,420405,00000HIYVW,R 1603 W HARMONY LAKE CIR,1537 W HARMONY LAKE CIR,
1600,W HARMONY LAKE CIR,DAVIE,33324,,,,,,,420405,00000HJ4U0,R 1600 W HARMONY LAKE CIR,1600 W HARMONY LAKE CIR,
1601,W HARMONY LAKE CIR,DAVIE,33324,,,,,,,420405,00000HIV8M,R 1603 W HARMONY LAKE CIR,1601 W HARMONY LAKE CIR,
1602,W HARMONY LAKE CIR,DAVIE,33324,,,,,,,420405,00000HIZIQ,R 1600 W HARMONY LAKE CIR,1602 W HARMONY LAKE CIR,
1603,W HARMONY LAKE CIR,DAVIE,33324,,,,,,,420405,00000HIY00,R 1603 W HARMONY LAKE CIR,1603 W HARMONY LAKE CIR,
1604,W HARMONY LAKE CIR,DAVIE,33324,,,,,,,420405,00000HISI1,R 1604 W HARMONY LAKE CIR,1604 W HARMONY LAKE CIR,
1605,W HARMONY LAKE CIR,DAVIE,33324,,,,,,,420405,00000HISM8,R 1613 W HARMONY LAKE CIR,1605 W HARMONY LAKE CIR,
1606,W HARMONY LAKE CIR,DAVIE,33324,,,,,,,420405,00000HISTX,R 1604 W HARMONY LAKE CIR,1606 W HARMONY LAKE CIR,
1607,W HARMONY LAKE CIR,DAVIE,33324,,,,,,,420405,00000HIYSX,R 1613 W HARMONY LAKE CIR,1607 W HARMONY LAKE CIR,
1610,W HARMONY LAKE CIR,DAVIE,33324,,,,,,,420405,00000HJ00S,R 1612 W HARMONY LAKE CIR,1610 W HARMONY LAKE CIR,
1611,W HARMONY LAKE CIR,DAVIE,33324,,,,,,,420405,00000HJ4UK,R 1613 W HARMONY LAKE CIR,1611 W HARMONY LAKE CIR,
1612,W HARMONY LAKE CIR,DAVIE,33324,,,,,,,420405,00000HJ06M,R 1612 W HARMONY LAKE CIR,1612 W HARMONY LAKE CIR,
1613,W HARMONY LAKE CIR,DAVIE,33324,,,,,,,420405,00000HISQC,R 1613 W HARMONY LAKE CIR,1613 W HARMONY LAKE CIR,
1614,W HARMONY LAKE CIR,DAVIE,33324,,,,,,,420405,00000HJ47W,R 1616 W HARMONY LAKE CIR,1614 W HARMONY LAKE CIR,
1615,W HARMONY LAKE CIR,DAVIE,33324,,,,,,,420405,00000HIZDG,R 1613 W HARMONY LAKE CIR,1615 W HARMONY LAKE CIR,
1616,W HARMONY LAKE CIR,DAVIE,33324,,,,,,,420405,00000HJ581,R 1616 W HARMONY LAKE CIR,1616 W HARMONY LAKE CIR,
1617,W HARMONY LAKE CIR,DAVIE,33324,,,,,,,420405,00000HIYL1,1651 HIATUS RD,1617 W HARMONY LAKE CIR,
1620,HIATUS RD,DAVIE,33330,UNIT,GATEHOUSE,,,,,420405,00000HJVBA,1651 HIATUS RD,1620 HIATUS RD UNIT GATEHOUSE,
1652,SW 109TH TER,DAVIE,33324,,,,,,,420405,00000HITHO,F 1652 SW 109TH TER,1652 SW 109TH TER,
1654,SW 109TH TER,DAVIE,33324,,,,,,,420405,00000HIVKA,F 1654 SW 109TH TER,1654 SW 109TH TER,Y
1656,SW 109TH TER,DAVIE,33324,,,,,,,420405,00000HJ02T,F 1658 SW 109TH TER,1656 SW 109TH TER,
1658,SW 109TH TER,DAVIE,33324,,,,,,,420405,00000HIUP0,F 1658 SW 109TH TER,1658 SW 109TH TER,
1661,SW 109TH TER,DAVIE,33324,,,,,,,420405,00000HJ0US,F 1661 SW 109TH TER,1661 SW 109TH TER,
1663,SW 109TH TER,DAVIE,33324,,,,,,,420405,00000HIT4O,F 1663 SW 109TH TER,1663 SW 109TH TER,
1665,SW 109TH TER,DAVIE,33324,APT,279,,,,,420405,00000HITMW,F 1665 SW 109TH TER,1665 SW 109TH TER APT 279,
1665,SW 109TH TER,DAVIE,33324,,,,,,,420405,00000HIU30,F 1665 SW 109TH TER,1665 SW 109TH TER,
1667,SW 109TH TER,DAVIE,33324,UNIT,279,,,,,420405,00000HIZSK,F 1665 SW 109TH TER,1667 SW 109TH TER UNIT 279,
1667,SW 109TH TER,DAVIE,33324,,,,,,,420405,00000HIY10,F 1665 SW 109TH TER,1667 SW 109TH TER,
1672,SW 109TH TER,DAVIE,33324,,,,,,,420405,00000HITSU,F 1674 SW 109TH TER,1672 SW 109TH TER,
1674,SW 109TH TER,DAVIE,33324,,,,,,,420405,00000HIT5D,F 1674 SW 109TH TER,1674 SW 109TH TER,
1676,SW 109TH TER,DAVIE,33324,,,,,,,420405,00000HIUDL,F 1692 SW 109TH TER,1676 SW 109TH TER,
1681,SW 109TH TER,DAVIE,33324,,,,,,,420405,00000HJ0NE,F 1681 SW 109TH TER,1681 SW 109TH TER,
1683,SW 109TH TER,DAVIE,33324,,,,,,,420405,00000HIUAI,F 1681 SW 109TH TER,1683 SW 109TH TER,
1685,SW 109TH TER,DAVIE,33324,,,,,,,420405,00000HIT2Z,F 1685 SW 109TH TER,1685 SW 109TH TER,
1687,SW 109TH TER,DAVIE,33324,,,,,,,420405,00000HIXMQ,F 1685 SW 109TH TER,1687 SW 109TH TER,
1692,SW 109TH TER,DAVIE,33324,,,,,,,420405,00000HIS8B,F 1692 SW 109TH TER,1692 SW 109TH TER,
1694,SW 109TH TER,DAVIE,33324,,,,,,,420405,00000HIXNU,F 1694 SW 109TH TER,1694 SW 109TH TER,
1696,SW 109TH TER,DAVIE,33324,,,,,,,420405,00000HIY97,F 1712 SW 109TH TER,1696 SW 109TH TER,
1701,SW 109TH TER,DAVIE,33324,,,,,,,420405,00000HIYB9,F 1701 SW 109TH TER,1701 SW 109TH TER,
1701,SW 110TH TER,DAVIE,33324,,,,,,,420405,00000HJ4TM,F 1701 SW 110TH TER,1701 SW 110TH TER,
1703,SW 109TH TER,DAVIE,33324,,,,,,,420405,00000HIY5B,F 1701 SW 109TH TER,1703 SW 109TH TER,
1703,SW 110TH TER,DAVIE,33324,,,,,,,420405,00000HIT2Q,F 1701 SW 110TH TER,1703 SW 110TH TER,
1705,SW 109TH TER,DAVIE,33324,,,,,,,420405,00000HIZ8Q,F 1705 SW 109TH TER,1705 SW 109TH TER,
1705,SW 110TH TER,DAVIE,33324,,,,,,,420405,00000HJ1AH,F 1705 SW 110TH TER,1705 SW 110TH TER,
1707,SW 109TH TER,DAVIE,33324,,,,,,,420405,00000HIWOP,F 1721 SW 109TH TER,1707 SW 109TH TER,
1707,SW 110TH TER,DAVIE,33324,,,,,,,420405,00000HIWY7,F 1705 SW 110TH TER,1707 SW 110TH TER,
1712,SW 109TH TER,DAVIE,33324,,,,,,,420405,00000HIUJP,F 1712 SW 109TH TER,1712 SW 109TH TER,
1714,SW 109TH TER,DAVIE,33324,,,,,,,420405,00000HJ0E6,F 1714 SW 109TH TER,1714 SW 109TH TER,
1716,SW 109TH TER,DAVIE,33324,,,,,,,420405,00000HIW7O,F 1732 SW 109TH TER,1716 SW 109TH TER,
1720,SW 110TH TER,DAVIE,33324,,,,,,,420405,00000HIYL3,F 1722 SW 110TH TER,1720 SW 110TH TER,
1721,SW 109TH TER,DAVIE,33324,,,,,,,420405,00000HIS0E,F 1721 SW 109TH TER,1721 SW 109TH TER,
1722,SW 110TH TER,DAVIE,33324,,,,,,,420405,00000HIVAR,F 1722 SW 110TH TER,1722 SW 110TH TER,
1723,SW 109TH TER,DAVIE,33324,,,,,,,420405,00000HJ1B3,F 1723 SW 109TH TER,1723 SW 109TH TER,
1724,SW 110TH TER,DAVIE,33324,,,,,,,420405,00000HIT87,F 1726 SW 110TH TER,1724 SW 110TH TER,
1725,SW 109TH TER,DAVIE,33324,,,,,,,420405,00000HIYCG,F 1741 SW 109TH TER,1725 SW 109TH TER,
1726,SW 110TH TER,DAVIE,33324,,,,,,,420405,00000HIZLL,F 1726 SW 110TH TER,1726 SW 110TH TER,
1731,SW 110TH TER,DAVIE,33324,,,,,,,420405,00000HISNJ,F 1731 SW 110TH TER,1731 SW 110TH TER,
1732,SW 109TH TER,DAVIE,33324,,,,,,,420405,00000HIWFS,F 1732 SW 109TH TER,1732 SW 109TH TER,
1734,SW 109TH TER,DAVIE,33324,,,,,,,420405,00000HIWXT,F 1736 SW 109TH TER,1734 SW 109TH TER,
1735,SW 110TH TER,DAVIE,33324,,,,,,,420405,00000HIXN4,F 1731 SW 110TH TER,1735 SW 110TH TER,
1736,SW 109TH TER,DAVIE,33324,,,,,,,420405,00000HJ01R,F 1736 SW 109TH TER,1736 SW 109TH TER,
1737,SW 110TH TER,DAVIE,33324,,,,,,,420405,00000HIUNF,F 1737 SW 110TH TER,1737 SW 110TH TER,
1739,SW 110TH TER,DAVIE,33324,,,,,,,420405,00000HIWFA,F 1737 SW 110TH TER,1739 SW 110TH TER,
1740,SW 110TH TER,DAVIE,33324,,,,,,,420405,00000HITZ8,F 1742 SW 110TH TER,1740 SW 110TH TER,
1741,SW 109TH TER,DAVIE,33324,,,,,,,420405,00000HJ6YC,F 1741 SW 109TH TER,1741 SW 109TH TER,
1742,SW 110TH TER,DAVIE,33324,,,,,,,420405,00000HIVWQ,F 1742 SW 110TH TER,1742 SW 110TH TER,
1743,SW 109TH TER,DAVIE,33324,,,,,,,420405,00000HITAC,F 1743 SW 109TH TER,1743 SW 109TH TER,
1744,SW 110TH TER,DAVIE,33324,,,,,,,420405,00000HIXR7,F 1744 SW 110TH TER,1744 SW 110TH TER,
1745,SW 109TH TER,DAVIE,33324,,,,,,,420405,00000HIS4G,F 1743 SW 109TH TER,1745 SW 109TH TER,
1751,SW 110TH TER,DAVIE,33324,,,,,,,420405,00000HJ120,F 1751 SW 110TH TER,1751 SW 110TH TER,
1752,SW 109TH TER,DAVIE,33324,,,,,,,420405,00000HIW8V,F 1754 SW 109TH TER,1752 SW 109TH TER,
1753,SW 110TH TER,DAVIE,33324,,,,,,,420405,00000HJ17L,F 1753 SW 110TH TER,1753 SW 110TH TER,
1754,SW 109TH TER,DAVIE,33324,,,,,,,420405,00000HJ4IL,F 1754 SW 109TH TER,1754 SW 109TH TER,
1755,SW 110TH TER,DAVIE,33324,,,,,,,420405,00000HJ57T,F 1753 SW 110TH TER,1755 SW 110TH TER,
1756,SW 109TH TER,DAVIE,33324,,,,,,,420405,00000HJ0MC,F 1756 SW 109TH TER,1756 SW 109TH TER,
1760,SW 110TH TER,DAVIE,33324,,,,,,,420405,00000HJ0IU,F 1744 SW 110TH TER,1760 SW 110TH TER,
1761,SW 109TH TER,DAVIE,33324,,,,,,,420405,00000HIV9U,F 1761 SW 109TH TER,1761 SW 109TH TER,
1762,SW 110TH TER,DAVIE,33324,,,,,,,420405,00000HJ024,F 1762 SW 110TH TER,1762 SW 110TH TER,
1763,SW 109TH TER,DAVIE,33324,,,,,,,420405,00000HIS1G,F 1763 SW 109TH TER,1763 SW 109TH TER,
1764,SW 110TH TER,DAVIE,33324,,,,,,,420405,00000HIZWS,F 1766 SW 110TH TER,1764 SW 110TH TER,
1765,SW 109TH TER,DAVIE,33324,,,,,,,420405,00000HIW81,F 1763 SW 109TH TER,1765 SW 109TH TER,
1766,SW 110TH TER,DAVIE,33324,,,,,,,420405,00000HITBS,F 1766 SW 110TH TER,1766 SW 110TH TER,
1771,SW 110TH TER,DAVIE,33324,,,,,,,420405,00000HIYXP,F 1771 SW 110TH TER,1771 SW 110TH TER,
1772,SW 109TH TER,DAVIE,33324,,,,,,,420405,00000HIV81,F 1774 SW 109TH TER,1772 SW 109TH TER,
1773,SW 110TH TER,DAVIE,33324,,,,,,,420405,00000HIXYP,F 1771 SW 110TH TER,1773 SW 110TH TER,
1774,SW 109TH TER,DAVIE,33324,,,,,,,420405,00000HIZDW,F 1774 SW 109TH TER,1774 SW 109TH TER,
1775,SW 110TH TER,DAVIE,33324,,,,,,,420405,00000HIU1Q,F 1775 SW 110TH TER,1775 SW 110TH TER,
1776,SW 109TH TER,DAVIE,33324,,,,,,,420405,00000HISOB,F 1778 SW 109TH TER,1776 SW 109TH TER,
1777,SW 110TH TER,DAVIE,33324,,,,,,,420405,00000HITCG,F 1791 SW 110TH TER,1777 SW 110TH TER,
1778,SW 109TH TER,DAVIE,33324,,,,,,,420405,00000HIZV4,F 1778 SW 109TH TER,1778 SW 109TH TER,
1780,SW 110TH TER,DAVIE,33324,,,,,,,420405,00000HITYB,F 1780 SW 110TH TER,1780 SW 110TH TER,
1781,SW 109TH TER,DAVIE,33324,,,,,,,420405,00000HIRRV,F 1781 SW 109TH TER,1781 SW 109TH TER,
1782,SW 110TH TER,DAVIE,33324,,,,,,,420405,00000HIZG6,F 1780 SW 110TH TER,1782 SW 110TH TER,
1783,SW 109TH TER,DAVIE,33324,,,,,,,420405,00000HIXDF,F 1781 SW 109TH TER,1783 SW 109TH TER,
1784,SW 110TH TER,DAVIE,33324,,,,,,,420405,00000HIUV0,F 1784 SW 110TH TER,1784 SW 110TH TER,
1785,SW 109TH TER,DAVIE,33324,,,,,,,420405,00000HIXGZ,F 1785 SW 109TH TER,1785 SW 109TH TER,
1787,SW 109TH TER,DAVIE,33324,,,,,,,420405,00000HITCM,F 1785 SW 109TH TER,1787 SW 109TH TER,
1791,SW 110TH TER,DAVIE,33324,,,,,,,420405,00000HISN3,F 1791 SW 110TH TER,1791 SW 110TH TER,
1793,SW 110TH TER,DAVIE,33324,,,,,,,420405,00000HIRUS,F 1793 SW 110TH TER,1793 SW 110TH TER,
1795,SW 110TH TER,DAVIE,33324,,,,,,,420405,00000HIV9M,F 1793 SW 110TH TER,1795 SW 110TH TER,Y
10765,SW 17TH PL,DAVIE,33324,,,,,,,420405,00000HIV53,F 10765 SW 17TH PL,10765 SW 17TH PL,
10775,SW 17TH PL,DAVIE,33324,,,,,,,420405,00000HISD7,F 10765 SW 17TH PL,10775 SW 17TH PL,
11000,N HARMONY LAKE CIR,DAVIE,33324,,,,,,,420405,00000HJ61N,11000 N HARMONY LAKE CIR,11000 N HARMONY LAKE CIR,
11002,N HARMONY LAKE CIR,DAVIE,33324,,,,,,,420405,00000HIT06,R 11004 N HARMONY LAKE CIR,11002 N HARMONY LAKE CIR,
11004,N HARMONY LAKE CIR,DAVIE,33324,,,,,,,420405,00000HJ1BQ,R 11004 N HARMONY LAKE CIR,11004 N HARMONY LAKE CIR,Y
11006,N HARMONY LAKE CIR,DAVIE,33324,,,,,,,420405,00000HJ0NK,R 11004 N HARMONY LAKE CIR,11006 N HARMONY LAKE CIR,
11010,N HARMONY LAKE CIR,DAVIE,33324,,,,,,,420405,00000HIUHR,R 11004 N HARMONY LAKE CIR,11010 N HARMONY LAKE CIR,
11010,SW 15TH MNR,DAVIE,33324,,,,,,,420405,00000HIS09,R 11010 SW 15 MNR-ENC,11010 SW 15TH MNR,
11011,SW 16TH MNR,DAVIE,33324,,,,,,,420405,00000HIV4Z,F 11030 SW 16TH MNR,11011 SW 16TH MNR,
11012,N HARMONY LAKE CIR,DAVIE,33324,,,,,,,420405,00000HJ1AR,R 11004 N HARMONY LAKE CIR,11012 N HARMONY LAKE CIR,
11012,SW 15TH MNR,DAVIE,33324,,,,,,,420405,00000HITPZ,R 11010 SW 15 MNR-ENC,11012 SW 15TH MNR,
11013,SW 16TH MNR,DAVIE,33324,,,,,,,420405,00000HIS7L,F 11013 SW 16TH MNR,11013 SW 16TH MNR,
11014,N HARMONY LAKE CIR,DAVIE,33324,,,,,,,420405,00000HIV54,R 11014 N HARMONY LAKE CIR,11014 N HARMONY LAKE CIR,
11014,SW 15TH MNR,DAVIE,33324,,,,,,,420405,00000HITXB,F 11014 SW 15TH MNR,11014 SW 15TH MNR,
11015,SW 16TH MNR,DAVIE,33324,,,,,,,420405,00000HITB1,F 11015 SW 16TH MNR,11015 SW 16TH MNR,
11016,N HARMONY LAKE CIR,DAVIE,33324,,,,,,,420405,00000HIUNC,R 11014 N HARMONY LAKE CIR,11016 N HARMONY LAKE CIR,
11016,SW 15TH MNR,DAVIE,33324,,,,,,,420405,00000HIVA6,F 11014 SW 15TH MNR,11016 SW 15TH MNR,
11017,SW 16TH MNR,DAVIE,33324,,,,,,,420405,00000HIWYP,F 11017 SW 16TH MNR,11017 SW 16TH MNR,
11020,N HARMONY LAKE CIR,DAVIE,33324,,,,,,,420405,00000HIWSB,R 11020 N HARMONY LAKE CIR,11020 N HARMONY LAKE CIR,
11020,SW 15TH MNR,DAVIE,33324,,,,,,,420405,00000HJ0LN,S 11020 SW 15TH MNR,11020 SW 15TH MNR,
11021,SW 15TH MNR,DAVIE,33324,,,,,,,420405,00000HIT69,S 11021 SW 15TH MNR,11021 SW 15TH MNR,
11021,SW 16TH MNR,DAVIE,33324,,,,,,,420405,00000HJ1EB,F 11025 SW 16TH MNR,11021 SW 16TH MNR,
11022,N HARMONY LAKE CIR,DAVIE,33324,,,,,,,420405,00000HIX3W,R 11020 N HARMONY LAKE CIR,11022 N HARMONY LAKE CIR,
11022,SW 15TH MNR,DAVIE,33324,,,,,,,420405,00000HIXOV,S 11024 SW 15TH MNR,11022 SW 15TH MNR,
11023,SW 15TH MNR,DAVIE,33324,,,,,,,420405,00000HIY16,S 11021 SW 15TH MNR,11023 SW 15TH MNR,
11023,SW 16TH MNR,DAVIE,33324,,,,,,,420405,00000HIU0W,F 11023 SW 16TH MNR,11023 SW 16TH MNR,
11024,N HARMONY LAKE CIR,DAVIE,33324,,,,,,,420405,00000HIWSK,R 11024 N HARMONY LAKE CIR,11024 N HARMONY LAKE CIR,
11024,SW 15TH MNR,DAVIE,33324,,,,,,,420405,00000HITFY,S 11024 SW 15TH MNR,11024 SW 15TH MNR,
11025,SW 15TH MNR,DAVIE,33324,,,,,,,420405,00000HIXRO,S 11025 SW 15TH MNR,11025 SW 15TH MNR,
11025,SW 16TH MNR,DAVIE,33324,,,,,,,420405,00000HIZE6,F 11025 SW 16TH MNR,11025 SW 16TH MNR,
11026,N HARMONY LAKE CIR,DAVIE,33324,,,,,,,420405,00000HIUKF,R 11024 N HARMONY LAKE CIR,11026 N HARMONY LAKE CIR,
11026,SW 15TH MNR,DAVIE,33324,,,,,,,420405,00000HIZJ5,S 11024 SW 15TH MNR,11026 SW 15TH MNR,
11027,SW 15TH MNR,DAVIE,33324,,,,,,,420405,00000HIWHV,S 11025 SW 15TH MNR,11027 SW 15TH MNR,
11027,SW 16TH MNR,DAVIE,33324,,,,,,,420405,00000HIV3Y,F 11027 SW 16TH MNR,11027 SW 16TH MNR,
11030,SW 15TH MNR,DAVIE,33324,,,,,,,420405,00000HIXPF,R 11030 SW 15TH MNR,11030 SW 15TH MNR,
11030,SW 16TH MNR,DAVIE,33324,,,,,,,420405,00000HIUBX,F 11030 SW 16TH MNR,11030 SW 16TH MNR,
11031,SW 15TH MNR,DAVIE,33324,,,,,,,420405,00000HJ0G3,S 11025 SW 15TH MNR,11031 SW 15TH MNR,
11032,SW 15TH MNR,DAVIE,33324,,,,,,,420405,00000HJ04C,R 11030 SW 15TH MNR,11032 SW 15TH MNR,
11032,SW 16TH MNR,DAVIE,33324,,,,,,,420405,00000HISRU,F 11032 SW 16TH MNR,11032 SW 16TH MNR,
11033,SW 15TH MNR,DAVIE,33324,,,,,,,420405,00000HIS4J,S 11025 SW 15TH MNR,11033 SW 15TH MNR,
11034,SW 15TH MNR,DAVIE,33324,,,,,,,420405,00000HIU2Z,R 11034 SW 15TH MNR,11034 SW 15TH MNR,
11034,SW 16TH MNR,DAVIE,33324,,,,,,,420405,00000HIWGY,F 11036 SW 16TH MNR,11034 SW 16TH MNR,
11035,SW 15TH MNR,DAVIE,33324,,,,,,,420405,00000HITPV,S 11035 SW 15TH MNR,11035 SW 15TH MNR,
11036,SW 15TH MNR,DAVIE,33324,,,,,,,420405,00000HITG9,R 11034 SW 15TH MNR,11036 SW 15TH MNR,
11036,SW 16TH MNR,DAVIE,33324,,,,,,,420405,00000HJ1B8,F 11036 SW 16TH MNR,11036 SW 16TH MNR,
11037,SW 15TH MNR,DAVIE,33324,,,,,,,420405,00000HIWGG,S 11035 SW 15TH MNR,11037 SW 15TH MNR,
11041,SW 15TH MNR,DAVIE,33324,,,,,,,420405,00000HIW4K,R 11041 SW 15TH MNR,11041 SW 15TH MNR,
11041,SW 16TH MNR,DAVIE,33324,,,,,,,420405,00000HIXDJ,F 11027 SW 16TH MNR,11041 SW 16TH MNR,
11043,SW 15TH MNR,DAVIE,33324,,,,,,,420405,00000HITYN,R 11041 SW 15TH MNR,11043 SW 15TH MNR,
11043,SW 16TH MNR,DAVIE,33324,,,,,,,420405,00000HJ19H,F 11043 SW 16TH MNR,11043 SW 16TH MNR,
11045,SW 15TH MNR,DAVIE,33324,,,,,,,420405,00000HIT8F,R 11045 SW 15TH MNR,11045 SW 15TH MNR,
11045,SW 16TH MNR,DAVIE,33324,,,,,,,420405,00000HIRSQ,F 11045 SW 16TH MNR,11045 SW 16TH MNR,
11047,SW 15TH MNR,DAVIE,33324,,,,,,,420405,00000HITPI,R 11045 SW 15TH MNR,11047 SW 15TH MNR,
11047,SW 16TH MNR,DAVIE,33324,,,,,,,420405,00000HIRZ7,F 11047 SW 16TH MNR,11047 SW 16TH MNR,
11050,SW 16TH MNR,DAVIE,33324,,,,,,,420405,00000HITYY,F 11050 SW 16TH MNR,11050 SW 16TH MNR,
11052,SW 16TH MNR,DAVIE,33324,,,,,,,420405,00000HIUIX,F 11052 SW 16TH MNR,11052 SW 16TH MNR,
11054,SW 16TH MNR,DAVIE,33324,,,,,,,420405,00000HIRUJ,F 11054 SW 16TH MNR,11054 SW 16TH MNR,
11061,SW 16TH MNR,DAVIE,33324,,,,,,,420405,00000HIXGI,F 11061 SW 16TH MNR,11061 SW 16TH MNR,
11063,SW 16TH MNR,DAVIE,33324,,,,,,,420405,00000HJ14J,F 11061 SW 16TH MNR,11063 SW 16TH MNR,
11065,SW 16TH MNR,DAVIE,33324,,,,,,,420405,00000HIUL2,F 11081 SW 16TH MNR,11065 SW 16TH MNR,
11070,SW 16TH MNR,DAVIE,33324,,,,,,,420405,00000HIXPM,R 11074 SW 16TH MNR,11070 SW 16TH MNR,
11072,SW 16TH MNR,DAVIE,33324,,,,,,,420405,00000HIY8Z,F 11072 SW 16TH MNR,11072 SW 16TH MNR,
11074,SW 16TH MNR,DAVIE,33324,,,,,,,420405,00000HIX16,R 11074 SW 16TH MNR,11074 SW 16TH MNR,
11081,SW 16TH MNR,DAVIE,33324,,,,,,,420405,00000HJ1CC,F 11081 SW 16TH MNR,11081 SW 16TH MNR,
11083,SW 16TH MNR,DAVIE,33324,,,,,,,420405,00000HIWO7,F 11083 SW 16TH MNR,11083 SW 16TH MNR,
11085,SW 16TH MNR,DAVIE,33324,,,,,,,420405,00000HITNG,F 11085 SW 16TH MNR,11085 SW 16TH MNR,
11087,SW 16TH MNR,DAVIE,33324,,,,,,,420405,00000HJ6NQ,F 11087 SW 16TH MNR,11087 SW 16TH MNR,
11100,N HARMONY LAKE CIR,DAVIE,33324,,,,,,,420405,00000HIVSQ,11100 N HARMONY LAKE CIR,11100 N HARMONY LAKE CIR,
11100,SW 15TH MNR,DAVIE,33324,,,,,,,420405,00000HIVUS,R 11100 SW 15TH MNR,11100 SW 15TH MNR,
11100,SW 17TH MNR,DAVIE,33324,,,,,,,420405,00000HIST1,F 11102 SW 17TH MNR,11100 SW 17TH MNR,
11101,SW 15TH MNR,DAVIE,33324,,,,,,,420405,00000HISEQ,R 11101 SW 15TH MNR,11101 SW 15TH MNR,
11102,N HARMONY LAKE CIR,DAVIE,33324,,,,,,,420405,00000HJ586,11100 N HARMONY LAKE CIR,11102 N HARMONY LAKE CIR,
11102,SW 15TH MNR,DAVIE,33324,,,,,,,420405,00000HIYVM,R 11100 SW 15TH MNR,11102 SW 15TH MNR,
11102,SW 17TH MNR,DAVIE,33324,,,,,,,420405,00000HIS2W,F 11102 SW 17TH MNR,11102 SW 17TH MNR,
11103,SW 15TH MNR,DAVIE,33324,,,,,,,420405,00000HIVVA,R 11115 SW 15TH MNR,11103 SW 15TH MNR,
11104,N HARMONY LAKE CIR,DAVIE,33324,,,,,,,420405,00000HISQN,11104 N HARMONY LAKE CIR,11104 N HARMONY LAKE CIR,
11104,SW 15TH MNR,DAVIE,33324,,,,,,,420405,00000HIS6T,S 11104 SW 15TH MNR,11104 SW 15TH MNR,
11104,SW 17TH MNR,DAVIE,33324,,,,,,,420405,00000HIZBI,F 11104 SW 17TH MNR,11104 SW 17TH MNR,
11105,SW 15TH MNR,DAVIE,33324,,,,,,,420405,00000HIS5B,R 11105 SW 15TH MNR,11105 SW 15TH MNR,
11106,N HARMONY LAKE CIR,DAVIE,33324,,,,,,,420405,00000HIY7Y,11104 N HARMONY LAKE CIR,11106 N HARMONY LAKE CIR,
11106,SW 15TH MNR,DAVIE,33324,,,,,,,420405,00000HIWOQ,S 11104 SW 15TH MNR,11106 SW 15TH MNR,
11106,SW 17TH MNR,DAVIE,33324,,,,,,,420405,00000HIWYR,F 11120 SW 17TH MNR,11106 SW 17TH MNR,
11107,SW 15TH MNR,DAVIE,33324,,,,,,,420405,00000HIUHO,R 11105 SW 15TH MNR,11107 SW 15TH MNR,
11110,N HARMONY LAKE CIR,DAVIE,33324,,,,,,,420405,00000HIZL8,R 11110 N HARMONY LAKE CIR,11110 N HARMONY LAKE CIR,
11110,SW 15TH MNR,DAVIE,33324,,,,,,,420405,00000HIWH2,R 11110 SW 15TH MNR,11110 SW 15TH MNR,
11111,SW 15TH MNR,DAVIE,33324,,,,,,,420405,00000HJ05X,S 11111 SW 15TH MNR,11111 SW 15TH MNR,
11112,N HARMONY LAKE CIR,DAVIE,33324,,,,,,,420405,00000HIRS8,R 11110 N HARMONY LAKE CIR,11112 N HARMONY LAKE CIR,
11112,SW 15TH MNR,DAVIE,33324,,,,,,,420405,00000HIYYV,R 11110.2 SW 15TH MNR,11112 SW 15TH MNR,
11113,SW 15TH MNR,DAVIE,33324,,,,,,,420405,00000HJ191,S 11111 SW 15TH MNR,11113 SW 15TH MNR,
11113,SW 17TH MNR,DAVIE,33324,,,,,,,420405,00000HIVU5,F 11113 SW 17TH MNR,11113 SW 17TH MNR,
11114,N HARMONY LAKE CIR,DAVIE,33324,,,,,,,420405,00000HJ10G,R 11114 N HARMONY LAKE CIR,11114 N HARMONY LAKE CIR,
11114,SW 15TH MNR,DAVIE,33324,,,,,,,420405,00000HJ5R5,R 11114 SW 15TH MNR,11114 SW 15TH MNR,
11115,SW 15TH MNR,DAVIE,33324,,,,,,,420405,00000HIW8E,R 11115 SW 15TH MNR,11115 SW 15TH MNR,Y
11115,SW 17TH MNR,DAVIE,33324,,,,,,,420405,00000HIVQK,F 11113 SW 17TH MNR,11115 SW 17TH MNR,
11116,N HARMONY LAKE CIR,DAVIE,33324,,,,,,,420405,00000HJ1EZ,R 11114 N HARMONY LAKE CIR,11116 N HARMONY LAKE CIR,
11116,SW 15TH MNR,DAVIE,33324,,,,,,,420405,00000HIT2S,R 11114 SW 15TH MNR,11116 SW 15TH MNR,
11117,SW 15TH MNR,DAVIE,33324,,,,,,,420405,00000HJ5FZ,R 11115 SW 15TH MNR,11117 SW 15TH MNR,
11117,SW 17TH MNR,DAVIE,33324,,,,,,,420405,00000HIXYD,F 11117 SW 17TH MNR,11117 SW 17TH MNR,
11119,SW 17TH MNR,DAVIE,33324,,,,,,,420405,00000HIZSS,F 11117 SW 17TH MNR,11119 SW 17TH MNR,
11120,N HARMONY LAKE CIR,DAVIE,33324,,,,,,,420405,00000HISG6,R 11120 N HARMONY LAKE CIR,11120 N HARMONY LAKE CIR,
11120,SW 17TH MNR,DAVIE,33324,,,,,,,420405,00000HITZD,F 11120 SW 17TH MNR,11120 SW 17TH MNR,
11121,SW 15TH MNR,DAVIE,33324,,,,,,,420405,00000HJ0HA,R 11115 SW 15TH MNR,11121 SW 15TH MNR,
11122,N HARMONY LAKE CIR,DAVIE,33324,,,,,,,420405,00000HIV86,R 11120 N HARMONY LAKE CIR,11122 N HARMONY LAKE CIR,
11122,SW 17TH MNR,DAVIE,33324,,,,,,,420405,00000HJ02L,F 11122 SW 17TH MNR,11122 SW 17TH MNR,
11123,SW 15TH MNR,DAVIE,33324,,,,,,,420405,00000HJ4JG,R 11115 SW 15TH MNR,11123 SW 15TH MNR,
11124,N HARMONY LAKE CIR,DAVIE,33324,,,,,,,420405,00000HJ0DL,S 11124.1 N HARMONY LAKE CIR,11124 N HARMONY LAKE CIR,
11124,SW 17TH MNR,DAVIE,33324,,,,,,,420405,00000HIU3S,F 11124 SW 17TH MNR,11124 SW 17TH MNR,
11125,SW 15TH MNR,DAVIE,33324,,,,,,,420405,00000HJ1BK,R 11125 SW 15TH MNR,11125 SW 15TH MNR,
11126,N HARMONY LAKE CIR,DAVIE,33324,UNIT,TALK PAIR,,,,,420405,00000HITYU,S 11126 N HARMONY LAKE CIR,11126 N HARMONY LAKE CIR UNIT TALK PAIR,Y
11126,N HARMONY LAKE CIR,DAVIE,33324,,,,,,,420405,00000HISF6,11126.2 N HARMONY LAKE CIR,11126 N HARMONY LAKE CIR,
11127,SW 15TH MNR,DAVIE,33324,,,,,,,420405,00000HJ045,R 11125 SW 15TH MNR,11127 SW 15TH MNR,
11131,SW 17TH MNR,DAVIE,33324,,,,,,,420405,00000HJ482,F 11131 SW 17TH MNR,11131 SW 17TH MNR,
11133,SW 17TH MNR,DAVIE,33324,,,,,,,420405,00000HIW40,F 11131 SW 17TH MNR,11133 SW 17TH MNR,
11135,SW 17TH MNR,DAVIE,33324,,,,,,,420405,00000HIV6G,F 11135 SW 17TH MNR,11135 SW 17TH MNR,
11140,SW 17TH MNR,DAVIE,33324,,,,,,,420405,00000HIST5,F 11142 SW 17TH MNR,11140 SW 17TH MNR,
11142,SW 17TH MNR,DAVIE,33324,,,,,,,420405,00000HISFT,F 11142 SW 17TH MNR,11142 SW 17TH MNR,
11144,SW 17TH MNR,DAVIE,33324,,,,,,,420405,00000HIZE2,F 11144 SW 17TH MNR,11144 SW 17TH MNR,
11151,SW 17TH MNR,DAVIE,33324,,,,,,,420405,00000HIU3W,F 11151 SW 17TH MNR,11151 SW 17TH MNR,
11153,SW 17TH MNR,DAVIE,33324,,,,,,,420405,00000HIVJ2,F 11151 SW 17TH MNR,11153 SW 17TH MNR,
11155,SW 17TH MNR,DAVIE,33324,,,,,,,420405,00000HITSK,F 11157 SW 17TH MNR,11155 SW 17TH MNR,
11157,SW 17TH MNR,DAVIE,33324,,,,,,,420405,00000HIYLO,F 11157 SW 17TH MNR,11157 SW 17TH MNR,
11160,SW 17TH MNR,DAVIE,33324,,,,,,,420405,00000HIRZ9,F 11144 SW 17TH MNR,11160 SW 17TH MNR,
11162,SW 17TH MNR,DAVIE,33324,,,,,,,420405,00000HJ007,F 11164 SW 17TH MNR,11162 SW 17TH MNR,
11164,SW 17TH MNR,DAVIE,33324,,,,,,,420405,00000HIXNI,F 11164 SW 17TH MNR,11164 SW 17TH MNR,
11171,SW 17TH MNR,DAVIE,33324,,,,,,,420405,00000HIWEF,F 11171 SW 17TH MNR,11171 SW 17TH MNR,
11173,SW 17TH MNR,DAVIE,33324,,,,,,,420405,00000HIZ8A,F 11171 SW 17TH MNR,11173 SW 17TH MNR,
11175,SW 17TH MNR,DAVIE,33324,,,,,,,420405,00000HISEP,F 11175 SW 17TH MNR,11175 SW 17TH MNR,
11177,SW 17TH MNR,DAVIE,33324,,,,,,,420405,00000HIW8A,F 11175 SW 17TH MNR,11177 SW 17TH MNR,
11180,SW 17TH MNR,DAVIE,33324,,,,,,,420405,00000HJ5FD,F 11182 SW 17TH MNR,11180 SW 17TH MNR,
11182,SW 17TH MNR,DAVIE,33324,,,,,,,420405,00000HIWOG,F 11182 SW 17TH MNR,11182 SW 17TH MNR,
11184,SW 17TH MNR,DAVIE,33324,,,,,,,420405,00000HITOW,F 11184 SW 17TH MNR,11184 SW 17TH MNR,
11186,SW 17TH MNR,DAVIE,33324,,,,,,,420405,00000HIUV4,F 11195 SW 17TH MNR,11186 SW 17TH MNR,
11191,SW 17TH MNR,DAVIE,33324,,,,,,,420405,00000HIWQJ,F 11191 SW 17TH MNR,11191 SW 17TH MNR,
11193,SW 17TH MNR,DAVIE,33324,,,,,,,420405,00000HIYV3,F 11193 SW 17TH MNR,11193 SW 17TH MNR,
11195,SW 17TH MNR,DAVIE,33324,,,,,,,420405,00000HIVWP,F 11195 SW 17TH MNR,11195 SW 17TH MNR,
