House Number,Street Name,Community,Zip Code,Unit Type,Unit,Floor Type,Floor,Building Type,Building,DA/PSA,OVALS Address ID,Primary_Term_Address,FAC_ADDR,Working TN Status
"6500","NW 70TH AV","TMRC","33321","","","","","","","310213","=""00000T4CZ0""","6504 NW 70TH AV","6500 NW 70TH AV",""
"6501","NW 70TH AV","TMRC","33321","","","","","","","310213","=""00000T4AWF""","6505 NW 70TH AV","6501 NW 70TH AV",""
"6502","NW 70TH AV","TMRC","33321","","","","","","","310213","=""00000T4CXQ""","6504 NW 70TH AV","6502 NW 70TH AV",""
"6503","NW 70TH AV","TMRC","33321","","","","","","","310213","=""00000T4Q6L""","6505 NW 70TH AV","6503 NW 70TH AV",""
"6504","NW 70TH AV","TMRC","33321","","","","","","","310213","=""00000T4AOX""","6504 NW 70TH AV","6504 NW 70TH AV",""
"6505","NW 70TH AV","TMRC","33321","","","","","","","310213","=""00000T4LX1""","6505 NW 70TH AV","6505 NW 70TH AV",""
"6506","NW 70TH AV","TMRC","33321","","","","","","","310213","=""00000T4E4G""","6504 NW 70TH AV","6506 NW 70TH AV",""
"6507","NW 70TH AV","TMRC","33321","","","","","","","310213","=""00000T4VGA""","6505 NW 70TH AV","6507 NW 70TH AV",""
"6508","NW 70TH AV","TMRC","33321","","","","","","","310213","=""00000T4GDZ""","MR 6508 NW 70TH AV","6508 NW 70TH AV",""
"6509","NW 70TH AV","TMRC","33321","","","","","","","310213","=""00000T4R5V""","6505 NW 70TH AV","6509 NW 70TH AV",""
"6510","NW 70TH AV","TMRC","33321","","","","","","","310213","=""00000T4QE2""","MR 6508 NW 70TH AV","6510 NW 70TH AV",""
"6511","NW 70TH AV","TMRC","33321","","","","","","","310213","=""00000T4JLQ""","6505 NW 70TH AV","6511 NW 70TH AV",""
"6512","NW 70TH AV","TMRC","33321","","","","","","","310213","=""00000T4L6S""","MR 6508 NW 70TH AV","6512 NW 70TH AV",""
"6513","NW 70TH AV","TMRC","33321","","","","","","","310213","=""00000T4TBQ""","6505 NW 70TH AV","6513 NW 70TH AV",""
"6514","NW 70TH AV","TMRC","33321","","","","","","","310213","=""00000T4KGI""","MR 6508 NW 70TH AV","6514 NW 70TH AV",""
"6515","NW 70TH AV","TMRC","33321","","","","","","","310213","=""00000T4Z7N""","6505 NW 70TH AV","6515 NW 70TH AV",""
"6516","NW 70TH AV","TMRC","33321","","","","","","","310213","=""00000T4N4P""","MR 6508 NW 70TH AV","6516 NW 70TH AV",""
"6517","NW 70TH AV","TMRC","33321","","","","","","","310213","=""00000T4NEO""","6505 NW 70TH AV","6517 NW 70TH AV",""
"6518","NW 70TH AV","TMRC","33321","","","","","","","310213","=""00000T4NIC""","MR 6508 NW 70TH AV","6518 NW 70TH AV",""
"6519","NW 70TH AV","TMRC","33321","","","","","","","310213","=""00000T4OCV""","6505 NW 70TH AV","6519 NW 70TH AV",""
"6520","NW 70TH AV","TMRC","33321","","","","","","","310213","=""00000T4KAI""","MR 6508 NW 70TH AV","6520 NW 70TH AV",""
"6521","NW 70TH AV","TMRC","33321","","","","","","","310213","=""00000T4RH3""","6505 NW 70TH AV","6521 NW 70TH AV",""
"6522","NW 70TH AV","TMRC","33321","","","","","","","310213","=""00000T4QZ0""","MR 6508 NW 70TH AV","6522 NW 70TH AV",""
"6523","NW 70TH AV","TMRC","33321","","","","","","","310213","=""00000T4JDV""","6505 NW 70TH AV","6523 NW 70TH AV",""
"6524","NW 70TH AV","TMRC","33321","","","","","","","310213","=""00000T4VO8""","6504 NW 70TH AV","6524 NW 70TH AV",""
"6525","NW 70TH AV","TMRC","33321","","","","","","","310213","=""00000T4RYL""","6505 NW 70TH AV","6525 NW 70TH AV",""
"6526","NW 70TH AV","TMRC","33321","","","","","","","310213","=""00000T4V5V""","6504 NW 70TH AV","6526 NW 70TH AV",""
"6527","NW 70TH AV","TMRC","33321","","","","","","","310213","=""00000T4S0A""","6505 NW 70TH AV","6527 NW 70TH AV",""
"6527","NW 70TH AV","TMRC","33321","","","","","BLDG","CLUBHSE","310213","=""00000T4ELV""","6755 NW 70TH AV","6527 NW 70TH AV     BLDG CLUBHSE",""
"6528","NW 70TH AV","TMRC","33321","","","","","","","310213","=""00000T4YNQ""","6504 NW 70TH AV","6528 NW 70TH AV",""
"6529","NW 70TH AV","TMRC","33321","","","","","","","310213","=""00000T4PNA""","6529 NW 70TH AV","6529 NW 70TH AV",""
"6530","NW 70TH AV","TMRC","33321","","","","","","","310213","=""00000T4V2V""","6504 NW 70TH AV","6530 NW 70TH AV",""
"6531","NW 70TH AV","TMRC","33321","","","","","","","310213","=""00000T4CZD""","6529 NW 70TH AV","6531 NW 70TH AV",""
"6532","NW 70TH AV","TMRC","33321","","","","","","","310213","=""00000T4MUE""","6504 NW 70TH AV","6532 NW 70TH AV",""
"6533","NW 70TH AV","TMRC","33321","","","","","","","310213","=""00000T4VG1""","6529 NW 70TH AV","6533 NW 70TH AV",""
"6534","NW 70TH AV","TMRC","33321","","","","","","","310213","=""00000T4K37""","6504 NW 70TH AV","6534 NW 70TH AV",""
"6535","NW 70TH AV","TMRC","33321","","","","","","","310213","=""00000T4MVY""","6529 NW 70TH AV","6535 NW 70TH AV",""
"6536","NW 70TH AV","TMRC","33321","","","","","","","310213","=""00000T4W7G""","6504 NW 70TH AV","6536 NW 70TH AV",""
"6537","NW 70TH AV","TMRC","33321","","","","","","","310213","=""00000T4RX8""","6529 NW 70TH AV","6537 NW 70TH AV",""
"6538","NW 70TH AV","TMRC","33321","","","","","","","310213","=""00000T4HE2""","6504 NW 70TH AV","6538 NW 70TH AV",""
"6539","NW 70TH AV","TMRC","33321","","","","","","","310213","=""00000T4Y5F""","6529 NW 70TH AV","6539 NW 70TH AV",""
"6540","NW 70TH AV","TMRC","33321","","","","","","","310213","=""00000T4UZX""","6504 NW 70TH AV","6540 NW 70TH AV",""
"6541","NW 70TH AV","TMRC","33321","","","","","","","310213","=""00000T4S56""","6529 NW 70TH AV","6541 NW 70TH AV",""
"6542","NW 70TH AV","TMRC","33321","","","","","","","310213","=""00000T4Z37""","6504 NW 70TH AV","6542 NW 70TH AV",""
"6543","NW 70TH AV","TMRC","33321","","","","","","","310213","=""00000T4C4E""","6529 NW 70TH AV","6543 NW 70TH AV",""
"6544","NW 70TH AV","TMRC","33321","","","","","","","310213","=""00000T4OS9""","6546 NW 70TH AV","6544 NW 70TH AV",""
"6546","NW 70TH AV","TMRC","33321","","","","","","","310213","=""00000T4SB2""","6546 NW 70TH AV","6546 NW 70TH AV",""
"6547","NW 70TH AV","TMRC","33321","","","","","","","310213","=""00000T4LSU""","6529 NW 70TH AV","6547 NW 70TH AV",""
"6548","NW 70TH AV","TMRC","33321","","","","","","","310213","=""00000T4OVW""","6546 NW 70TH AV","6548 NW 70TH AV",""
"6549","NW 70TH AV","TMRC","33321","","","","","","","310213","=""00000T4IKE""","6529 NW 70TH AV","6549 NW 70TH AV",""
"6550","NW 70TH AV","TMRC","33321","","","","","","","310213","=""00000T4M9S""","6546 NW 70TH AV","6550 NW 70TH AV",""
"6551","NW 70TH AV","TMRC","33321","","","","","","","310213","=""00000T4JTX""","6529 NW 70TH AV","6551 NW 70TH AV",""
"6552","NW 70TH AV","TMRC","33321","","","","","","","310213","=""00000T4T2C""","6546 NW 70TH AV","6552 NW 70TH AV",""
"6553","NW 70TH AV","TMRC","33321","","","","","","","310213","=""00000T4YBC""","6529 NW 70TH AV","6553 NW 70TH AV",""
"6554","NW 70TH AV","TMRC","33321","","","","","","","310213","=""00000T4NBK""","6546 NW 70TH AV","6554 NW 70TH AV",""
"6555","NW 70TH AV","TMRC","33321","APT","112","","","","","310213","=""00000T4VP3""","6529 NW 70TH AV","6555 NW 70TH AV APT 112",""
"6556","NW 70TH AV","TMRC","33321","","","","","","","310213","=""00000T4G6S""","6546 NW 70TH AV","6556 NW 70TH AV",""
"6558","NW 70TH AV","TMRC","33321","","","","","","","310213","=""00000T4RMG""","6546 NW 70TH AV","6558 NW 70TH AV",""
"6560","NW 70TH AV","TMRC","33321","","","","","","","310213","=""00000T4MM6""","6546 NW 70TH AV","6560 NW 70TH AV",""
"6562","NW 70TH AV","TMRC","33321","","","","","","","310213","=""00000T4DN9""","6546 NW 70TH AV","6562 NW 70TH AV",""
"6564","NW 70TH AV","TMRC","33321","","","","","","","310213","=""00000T4FNF""","6546 NW 70TH AV","6564 NW 70TH AV",""
"6566","NW 70TH AV","TMRC","33321","","","","","","","310213","=""00000T4N42""","6546 NW 70TH AV","6566 NW 70TH AV",""
"6600","NW 70TH AV","TMRC","33321","","","","","","","310213","=""00000T4VHP""","6600 NW 70TH AV","6600 NW 70TH AV",""
"6601","NW 70TH AV","TMRC","33321","","","","","","","310213","=""00000T4THX""","6601 NW 70TH AV","6601 NW 70TH AV",""
"6602","NW 70TH AV","TMRC","33321","","","","","","","310213","=""00000T4LSE""","6600 NW 70TH AV","6602 NW 70TH AV",""
"6603","NW 70TH AV","TMRC","33321","","","","","","","310213","=""00000T4REZ""","6601 NW 70TH AV","6603 NW 70TH AV",""
"6604","NW 70TH AV","TMRC","33321","","","","","","","310213","=""00000T4GT8""","6600 NW 70TH AV","6604 NW 70TH AV",""
"6605","NW 70TH AV","TMRC","33321","","","","","","","310213","=""00000T4T3T""","6601 NW 70TH AV","6605 NW 70TH AV",""
"6606","NW 70TH AV","TMRC","33321","","","","","","","310213","=""00000T4XWE""","6600 NW 70TH AV","6606 NW 70TH AV",""
"6607","NW 70TH AV","TMRC","33321","","","","","","","310213","=""00000T4O4C""","6601 NW 70TH AV","6607 NW 70TH AV",""
"6608","NW 70TH AV","TMRC","33321","","","","","","","310213","=""00000T4C4J""","6600 NW 70TH AV","6608 NW 70TH AV",""
"6609","NW 70TH AV","TMRC","33321","","","","","","","310213","=""00000T4K78""","6601 NW 70TH AV","6609 NW 70TH AV",""
"6610","NW 70TH AV","TMRC","33321","","","","","","","310213","=""00000T4R2C""","6600 NW 70TH AV","6610 NW 70TH AV",""
"6611","NW 70TH AV","TMRC","33321","","","","","","","310213","=""00000T4OQ0""","6601 NW 70TH AV","6611 NW 70TH AV","Y"
"6612","NW 70TH AV","TMRC","33321","","","","","","","310213","=""00000T4V15""","6600 NW 70TH AV","6612 NW 70TH AV",""
"6613","NW 70TH AV","TMRC","33321","","","","","","","310213","=""00000T4TZQ""","6601 NW 70TH AV","6613 NW 70TH AV",""
"6614","NW 70TH AV","TMRC","33321","","","","","","","310213","=""00000T4H67""","6600 NW 70TH AV","6614 NW 70TH AV",""
"6615","NW 70TH AV","TMRC","33321","","","","","","","310213","=""00000T4GHJ""","6601 NW 70TH AV","6615 NW 70TH AV",""
"6616","NW 70TH AV","TMRC","33321","","","","","","","310213","=""00000T4NHP""","6600 NW 70TH AV","6616 NW 70TH AV",""
"6617","NW 70TH AV","TMRC","33321","","","","","","","310213","=""00000T4QZJ""","6601 NW 70TH AV","6617 NW 70TH AV",""
"6618","NW 70TH AV","TMRC","33321","","","","","","","310213","=""00000T4PG2""","6600 NW 70TH AV","6618 NW 70TH AV",""
"6619","NW 70TH AV","TMRC","33321","","","","","","","310213","=""00000T4OIH""","6601 NW 70TH AV","6619 NW 70TH AV",""
"6620","NW 70TH AV","TMRC","33321","","","","","","","310213","=""00000T4O11""","6600 NW 70TH AV","6620 NW 70TH AV",""
"6621","NW 70TH AV","TMRC","33321","","","","","","","310213","=""00000T4VSS""","6601 NW 70TH AV","6621 NW 70TH AV",""
"6622","NW 70TH AV","TMRC","33321","","","","","","","310213","=""00000T4UII""","6600 NW 70TH AV","6622 NW 70TH AV",""
"6623","NW 70TH AV","TMRC","33321","","","","","","","310213","=""00000T4TO6""","6601 NW 70TH AV","6623 NW 70TH AV",""
"6624","NW 70TH AV","TMRC","33321","","","","","","","310213","=""00000T4V2X""","6624 NW 70TH AV","6624 NW 70TH AV",""
"6625","NW 70TH AV","TMRC","33321","","","","","","","310213","=""00000T4BQT""","6601 NW 70TH AV","6625 NW 70TH AV",""
"6626","NW 70TH AV","TMRC","33321","","","","","","","310213","=""00000T4GR8""","6624 NW 70TH AV","6626 NW 70TH AV",""
"6627","NW 70TH AV","TMRC","33321","","","","","","","310213","=""00000T4ER2""","6601 NW 70TH AV","6627 NW 70TH AV",""
"6628","NW 70TH AV","TMRC","33321","","","","","","","310213","=""00000T4ZEV""","6624 NW 70TH AV","6628 NW 70TH AV",""
"6629","NW 70TH AV","TMRC","33321","","","","","","","310213","=""00000T4TB2""","6629 NW 70TH AV","6629 NW 70TH AV",""
"6630","NW 70TH AV","TMRC","33321","","","","","","","310213","=""00000T4GHT""","6624 NW 70TH AV","6630 NW 70TH AV",""
"6631","NW 70TH AV","TMRC","33321","","","","","","","310213","=""00000T4LIK""","6629 NW 70TH AV","6631 NW 70TH AV",""
"6632","NW 70TH AV","TMRC","33321","","","","","","","310213","=""00000T4UD3""","6624 NW 70TH AV","6632 NW 70TH AV",""
"6633","NW 70TH AV","TMRC","33321","","","","","","","310213","=""00000T4VX5""","6629 NW 70TH AV","6633 NW 70TH AV",""
"6634","NW 70TH AV","TMRC","33321","","","","","","","310213","=""00000T4R36""","6624 NW 70TH AV","6634 NW 70TH AV",""
"6635","NW 70TH AV","TMRC","33321","","","","","","","310213","=""00000T4OPP""","6629 NW 70TH AV","6635 NW 70TH AV",""
"6636","NW 70TH AV","TMRC","33321","","","","","","","310213","=""00000T4QHF""","6624 NW 70TH AV","6636 NW 70TH AV",""
"6637","NW 70TH AV","TMRC","33321","","","","","","","310213","=""00000T4J92""","6629 NW 70TH AV","6637 NW 70TH AV",""
"6638","NW 70TH AV","TMRC","33321","","","","","","","310213","=""00000T4AM5""","6624 NW 70TH AV","6638 NW 70TH AV",""
"6639","NW 70TH AV","TMRC","33321","","","","","","","310213","=""00000T4IWU""","6629 NW 70TH AV","6639 NW 70TH AV",""
"6640","NW 70TH AV","TMRC","33321","","","","","","","310213","=""00000T4F19""","6664 NW 70TH AV","6640 NW 70TH AV",""
"6641","NW 70TH AV","TMRC","33321","","","","","","","310213","=""00000T4EOM""","6629 NW 70TH AV","6641 NW 70TH AV",""
"6642","NW 70TH AV","TMRC","33321","","","","","","","310213","=""00000T4ONH""","6664 NW 70TH AV","6642 NW 70TH AV",""
"6643","NW 70TH AV","TMRC","33321","","","","","","","310213","=""00000T4X3V""","6629 NW 70TH AV","6643 NW 70TH AV",""
"6644","NW 70TH AV","TMRC","33321","","","","","","","310213","=""00000T4KD0""","6664 NW 70TH AV","6644 NW 70TH AV",""
"6645","NW 70TH AV","TMRC","33321","","","","","","","310213","=""00000T4JD8""","6645 NW 70TH AV","6645 NW 70TH AV",""
"6646","NW 70TH AV","TMRC","33321","","","","","","","310213","=""00000T4DZ7""","6664 NW 70TH AV","6646 NW 70TH AV",""
"6647","NW 70TH AV","TMRC","33321","","","","","","","310213","=""00000T4U26""","6645 NW 70TH AV","6647 NW 70TH AV",""
"6648","NW 70TH AV","TMRC","33321","","","","","","","310213","=""00000T4RK3""","6664 NW 70TH AV","6648 NW 70TH AV",""
"6649","NW 70TH AV","TMRC","33321","","","","","","","310213","=""00000T4SR5""","6645 NW 70TH AV","6649 NW 70TH AV",""
"6650","NW 70TH AV","TMRC","33321","","","","","","","310213","=""00000T4Z0W""","6664 NW 70TH AV","6650 NW 70TH AV",""
"6651","NW 70TH AV","TMRC","33321","","","","","","","310213","=""00000T4TF2""","6645 NW 70TH AV","6651 NW 70TH AV",""
"6652","NW 70TH AV","TMRC","33321","","","","","","","310213","=""00000T4S3L""","6664 NW 70TH AV","6652 NW 70TH AV",""
"6653","NW 70TH AV","TMRC","33321","","","","","","","310213","=""00000T4X0G""","6645 NW 70TH AV","6653 NW 70TH AV",""
"6654","NW 70TH AV","TMRC","33321","","","","","","","310213","=""00000T4DB8""","6664 NW 70TH AV","6654 NW 70TH AV",""
"6655","NW 70TH AV","TMRC","33321","","","","","","","310213","=""00000T4PN5""","6645 NW 70TH AV","6655 NW 70TH AV",""
"6656","NW 70TH AV","TMRC","33321","","","","","","","310213","=""00000T4EV8""","6664 NW 70TH AV","6656 NW 70TH AV",""
"6657","NW 70TH AV","TMRC","33321","","","","","","","310213","=""00000T4NP6""","6645 NW 70TH AV","6657 NW 70TH AV",""
"6658","NW 70TH AV","TMRC","33321","","","","","","","310213","=""00000T4S4G""","6664 NW 70TH AV","6658 NW 70TH AV",""
"6659","NW 70TH AV","TMRC","33321","","","","","","","310213","=""00000T4Y79""","6645 NW 70TH AV","6659 NW 70TH AV",""
"6660","NW 70TH AV","TMRC","33321","UNIT","40","","","","","310213","=""00000T4R7S""","6664 NW 70TH AV","6660 NW 70TH AV UNIT 40",""
"6660","NW 70TH AV","TMRC","33321","","","","","","","310213","=""00000T4YLX""","6664 NW 70TH AV","6660 NW 70TH AV",""
"6661","NW 70TH AV","TMRC","33321","","","","","","","310213","=""00000T4TIA""","6645 NW 70TH AV","6661 NW 70TH AV",""
"6662","NW 70TH AV","TMRC","33321","","","","","","","310213","=""00000T4RTQ""","6664 NW 70TH AV","6662 NW 70TH AV",""
"6663","NW 70TH AV","TMRC","33321","","","","","","","310213","=""00000T4Z32""","6645 NW 70TH AV","6663 NW 70TH AV",""
"6664","NW 70TH AV","TMRC","33321","","","","","","","310213","=""00000T4DS2""","6664 NW 70TH AV","6664 NW 70TH AV",""
"6665","NW 70TH AV","TMRC","33321","","","","","","","310213","=""00000T4AIK""","6645 NW 70TH AV","6665 NW 70TH AV",""
"6666","NW 70TH AV","TMRC","33321","","","","","","","310213","=""00000T4L7P""","6664 NW 70TH AV","6666 NW 70TH AV",""
"6667","NW 70TH AV","TMRC","33321","","","","","","","310213","=""00000T4REB""","6645 NW 70TH AV","6667 NW 70TH AV",""
"6668","NW 70TH AV","TMRC","33321","","","","","","","310213","=""00000T4SEZ""","6664 NW 70TH AV","6668 NW 70TH AV",""
"6669","NW 70TH AV","TMRC","33321","","","","","","","310213","=""00000T4OM7""","6645 NW 70TH AV","6669 NW 70TH AV",""
"6670","NW 70TH AV","TMRC","33321","","","","","","","310213","=""00000T4XVO""","6664 NW 70TH AV","6670 NW 70TH AV",""
"6700","NW 70TH AV","TMRC","33321","","","","","","","310213","=""00000T4HDT""","6704 NW 70TH AV","6700 NW 70TH AV",""
"6701","NW 70TH AV","TMRC","33321","","","","","","","310213","=""00000T4LLU""","6701 NW 70TH AV","6701 NW 70TH AV",""
"6702","NW 70TH AV","TMRC","33321","","","","","","","310213","=""00000T4V05""","6704 NW 70TH AV","6702 NW 70TH AV",""
"6703","NW 70TH AV","TMRC","33321","","","","","","","310213","=""00000T4T6C""","6701 NW 70TH AV","6703 NW 70TH AV",""
"6704","NW 70TH AV","TMRC","33321","","","","","","","310213","=""00000T4I5I""","6704 NW 70TH AV","6704 NW 70TH AV",""
"6705","NW 70TH AV","TMRC","33321","","","","","","","310213","=""00000T4OGL""","6701 NW 70TH AV","6705 NW 70TH AV",""
"6706","NW 70TH AV","TMRC","33321","","","","","","","310213","=""00000T4WMW""","6704 NW 70TH AV","6706 NW 70TH AV",""
"6707","NW 70TH AV","TMRC","33321","","","","","","","310213","=""00000T4K6Y""","6701 NW 70TH AV","6707 NW 70TH AV",""
"6708","NW 70TH AV","TMRC","33321","","","","","","","310213","=""00000T4D5H""","6708 NW 70TH AV","6708 NW 70TH AV",""
"6709","NW 70TH AV","TMRC","33321","","","","","","","310213","=""00000T4XK6""","6701 NW 70TH AV","6709 NW 70TH AV",""
"6710","NW 70TH AV","TMRC","33321","","","","","","","310213","=""00000T4P7Q""","6708 NW 70TH AV","6710 NW 70TH AV",""
"6711","NW 70TH AV","TMRC","33321","","","","","","","310213","=""00000T4FE1""","6701 NW 70TH AV","6711 NW 70TH AV",""
"6712","NW 70TH AV","TMRC","33321","","","","","","","310213","=""00000T4FL9""","6708 NW 70TH AV","6712 NW 70TH AV",""
"6713","NW 70TH AV","TMRC","33321","","","","","","","310213","=""00000T4QKE""","6701 NW 70TH AV","6713 NW 70TH AV",""
"6714","NW 70TH AV","TMRC","33321","","","","","","","310213","=""00000T4CMK""","6708 NW 70TH AV","6714 NW 70TH AV",""
"6715","NW 70TH AV","TMRC","33321","","","","","","","310213","=""00000T4U7S""","6701 NW 70TH AV","6715 NW 70TH AV",""
"6716","NW 70TH AV","TMRC","33321","","","","","","","310213","=""00000T4JJY""","6708 NW 70TH AV","6716 NW 70TH AV",""
"6717","NW 70TH AV","TMRC","33321","","","","","","","310213","=""00000T4O7O""","6701 NW 70TH AV","6717 NW 70TH AV",""
"6718","NW 70TH AV","TMRC","33321","","","","","","","310213","=""00000T4SQC""","6708 NW 70TH AV","6718 NW 70TH AV",""
"6719","NW 70TH AV","TMRC","33321","","","","","","","310213","=""00000T4DO0""","6701 NW 70TH AV","6719 NW 70TH AV",""
"6720","NW 70TH AV","TMRC","33321","","","","","","","310213","=""00000T4MAD""","6708 NW 70TH AV","6720 NW 70TH AV",""
"6721","NW 70TH AV","TMRC","33321","","","","","","","310213","=""00000T4N43""","6701 NW 70TH AV","6721 NW 70TH AV",""
"6722","NW 70TH AV","TMRC","33321","","","","","","","310213","=""00000T4E0J""","6708 NW 70TH AV","6722 NW 70TH AV",""
"6723","NW 70TH AV","TMRC","33321","","","","","","","310213","=""00000T4BQS""","6701 NW 70TH AV","6723 NW 70TH AV",""
"6724","NW 70TH AV","TMRC","33321","","","","","","","310213","=""00000T4BJK""","6704 NW 70TH AV","6724 NW 70TH AV",""
"6725","NW 70TH AV","TMRC","33321","","","","","","","310213","=""00000T4Z0M""","6701 NW 70TH AV","6725 NW 70TH AV",""
"6726","NW 70TH AV","TMRC","33321","","","","","","","310213","=""00000T4FM7""","6704 NW 70TH AV","6726 NW 70TH AV",""
"6727","NW 70TH AV","TMRC","33321","","","","","","","310213","=""00000T4KLD""","6727 NW 70TH AV","6727 NW 70TH AV",""
"6728","NW 70TH AV","TMRC","33321","","","","","","","310213","=""00000T4V3V""","6704 NW 70TH AV","6728 NW 70TH AV",""
"6729","NW 70TH AV","TMRC","33321","","","","","","","310213","=""00000T4MFR""","6727 NW 70TH AV","6729 NW 70TH AV",""
"6730","NW 70TH AV","TMRC","33321","","","","","","","310213","=""00000T4P18""","6704 NW 70TH AV","6730 NW 70TH AV",""
"6731","NW 70TH AV","TMRC","33321","","","","","","","310213","=""00000T4ZBZ""","6727 NW 70TH AV","6731 NW 70TH AV",""
"6732","NW 70TH AV","TMRC","33321","","","","","","","310213","=""00000T4X4Q""","6704 NW 70TH AV","6732 NW 70TH AV",""
"6733","NW 70TH AV","TMRC","33321","","","","","","","310213","=""00000T4OAX""","6727 NW 70TH AV","6733 NW 70TH AV",""
"6734","NW 70TH AV","TMRC","33321","","","","","","","310213","=""00000T4B42""","6704 NW 70TH AV","6734 NW 70TH AV",""
"6735","NW 70TH AV","TMRC","33321","","","","","","","310213","=""00000T4AXJ""","6727 NW 70TH AV","6735 NW 70TH AV",""
"6736","NW 70TH AV","TMRC","33321","","","","","","","310213","=""00000T4X5U""","6704 NW 70TH AV","6736 NW 70TH AV",""
"6737","NW 70TH AV","TMRC","33321","","","","","","","310213","=""00000T4FXU""","6727 NW 70TH AV","6737 NW 70TH AV",""
"6738","NW 70TH AV","TMRC","33321","","","","","","","310213","=""00000T4NA8""","6704 NW 70TH AV","6738 NW 70TH AV",""
"6739","NW 70TH AV","TMRC","33321","","","","","","","310213","=""00000T4WA4""","6727 NW 70TH AV","6739 NW 70TH AV",""
"6740","NW 70TH AV","TMRC","33321","","","","","","","310213","=""00000T4QG1""","6704 NW 70TH AV","6740 NW 70TH AV",""
"6741","NW 70TH AV","TMRC","33321","","","","","","","310213","=""00000T4DX2""","6727 NW 70TH AV","6741 NW 70TH AV",""
"6742","NW 70TH AV","TMRC","33321","","","","","","","310213","=""00000T4RPX""","6704 NW 70TH AV","6742 NW 70TH AV",""
"6743","NW 70TH AV","TMRC","33321","","","","","","","310213","=""00000T4JLB""","6727 NW 70TH AV","6743 NW 70TH AV",""
"6744","NW 70TH AV","TMRC","33321","","","","","","","310213","=""00000T4RMP""","6744 NW 70TH AV","6744 NW 70TH AV",""
"6745","NW 70TH AV","TMRC","33321","","","","","","","310213","=""00000T4NWI""","6727 NW 70TH AV","6745 NW 70TH AV",""
"6746","NW 70TH AV","TMRC","33321","","","","","","","310213","=""00000T4V31""","6744 NW 70TH AV","6746 NW 70TH AV",""
"6747","NW 70TH AV","TMRC","33321","","","","","","","310213","=""00000T4K6B""","6727 NW 70TH AV","6747 NW 70TH AV",""
"6748","NW 70TH AV","TMRC","33321","","","","","","","310213","=""00000T4VK4""","6744 NW 70TH AV","6748 NW 70TH AV",""
"6749","NW 70TH AV","TMRC","33321","","","","","","","310213","=""00000T4PB5""","6727 NW 70TH AV","6749 NW 70TH AV",""
"6750","NW 70TH AV","TMRC","33321","","","","","","","310213","=""00000T4B70""","6744 NW 70TH AV","6750 NW 70TH AV",""
"6751","NW 70TH AV","TMRC","33321","","","","","","","310213","=""00000T4O4Z""","6727 NW 70TH AV","6751 NW 70TH AV",""
"6752","NW 70TH AV","TMRC","33321","","","","","","","310213","=""00000T4QFG""","6744 NW 70TH AV","6752 NW 70TH AV",""
"6753","NW 70TH AV","TMRC","33321","","","","","","","310213","=""00000T4VFF""","6727 NW 70TH AV","6753 NW 70TH AV",""
"6754","NW 70TH AV","TMRC","33321","","","","","","","310213","=""00000T4TOT""","6744 NW 70TH AV","6754 NW 70TH AV",""
"6755","NW 70TH AV","TMRC","33321","","","","","","","310213","=""00000T4WNG""","6755 NW 70TH AV","6755 NW 70TH AV",""
"6756","NW 70TH AV","TMRC","33321","","","","","","","310213","=""00000T4W1Q""","6744 NW 70TH AV","6756 NW 70TH AV",""
"6757","NW 70TH AV","TMRC","33321","","","","","","","310213","=""00000T4NAL""","6755 NW 70TH AV","6757 NW 70TH AV",""
"6758","NW 70TH AV","TMRC","33321","","","","","","","310213","=""00000T4SQK""","6744 NW 70TH AV","6758 NW 70TH AV",""
"6759","NW 70TH AV","TMRC","33321","","","","","","","310213","=""00000T4OTC""","6755 NW 70TH AV","6759 NW 70TH AV",""
"6760","NW 70TH AV","TMRC","33321","","","","","","","310213","=""00000T4BQV""","6744 NW 70TH AV","6760 NW 70TH AV",""
"6761","NW 70TH AV","TMRC","33321","","","","","","","310213","=""00000T4JKL""","6755 NW 70TH AV","6761 NW 70TH AV",""
"6762","NW 70TH AV","TMRC","33321","","","","","","","310213","=""00000T4YUU""","6744 NW 70TH AV","6762 NW 70TH AV",""
"6763","NW 70TH AV","TMRC","33321","","","","","","","310213","=""00000T4WM9""","6755 NW 70TH AV","6763 NW 70TH AV",""
"6764","NW 70TH AV","TMRC","33321","","","","","","","310213","=""00000T4Y53""","6744 NW 70TH AV","6764 NW 70TH AV",""
"6765","NW 70TH AV","TMRC","33321","","","","","","","310213","=""00000T4VT0""","6755 NW 70TH AV","6765 NW 70TH AV",""
"6766","NW 70TH AV","TMRC","33321","","","","","","","310213","=""00000T4YJO""","6744 NW 70TH AV","6766 NW 70TH AV",""
"6767","NW 70TH AV","TMRC","33321","","","","","","","310213","=""00000T4R39""","6755 NW 70TH AV","6767 NW 70TH AV",""
"6769","NW 70TH AV","TMRC","33321","","","","","","","310213","=""00000T4BR9""","6755 NW 70TH AV","6769 NW 70TH AV",""
"6820","NW 70TH AV","TMRC","33321","","","","","","","310213","=""00000T4HYD""","6820 NW 70TH AV","6820 NW 70TH AV",""
"6855","NW 70TH AV","TMRC","33321","RM","102","","","","","310213","=""00000T4PJK""","I 6855 NW 70TH AV","6855 NW 70TH AV RM 102",""
"6855","NW 70TH AV","TMRC","33321","RM","103","","","","","310213","=""00002609UX""","I 6855 NW 70TH AV","6855 NW 70TH AV RM 103",""
"6855","NW 70TH AV","TMRC","33321","UNIT","104","","","","","310213","=""00000T4PZG""","I 6855 NW 70TH AV","6855 NW 70TH AV UNIT 104",""
"6855","NW 70TH AV","TMRC","33321","RM","105","","","","","310213","=""00000T4S75""","I 6855 NW 70TH AV","6855 NW 70TH AV RM 105",""
"6855","NW 70TH AV","TMRC","33321","UNIT","107","","","","","310213","=""00000T4KRQ""","I 6855 NW 70TH AV","6855 NW 70TH AV UNIT 107",""
"6855","NW 70TH AV","TMRC","33321","APT","112 A","","","","","310213","=""00000T4KM3""","I 6855 NW 70TH AV","6855 NW 70TH AV APT 112 A",""
"6855","NW 70TH AV","TMRC","33321","APT","112-A","","","","","310213","=""00000T4KM3""","I 6855 NW 70TH AV","6855 NW 70TH AV APT 112-A",""
"6855","NW 70TH AV","TMRC","33321","APT","112A","","","","","310213","=""00000T4KM3""","I 6855 NW 70TH AV","6855 NW 70TH AV APT 112A",""
"6855","NW 70TH AV","TMRC","33321","APT","114","","","","","310213","=""000117W8JA""","I 6855 NW 70TH AV","6855 NW 70TH AV APT 114",""
"6855","NW 70TH AV","TMRC","33321","RM","117","","","","","310213","=""00000T4L0Z""","I 6855 NW 70TH AV","6855 NW 70TH AV RM 117",""
"6855","NW 70TH AV","TMRC","33321","RM","118","","","","","310213","=""00000T4PZJ""","I 6855 NW 70TH AV","6855 NW 70TH AV RM 118",""
"6855","NW 70TH AV","TMRC","33321","RM","119B","","","","","310213","=""000113MPLB""","I 6855 NW 70TH AV","6855 NW 70TH AV RM 119B",""
"6855","NW 70TH AV","TMRC","33321","APT","120","","","","","310213","=""00001QFCW6""","I 6855 NW 70TH AV","6855 NW 70TH AV APT 120",""
"6855","NW 70TH AV","TMRC","33321","RM","122","","","","","310213","=""00000T4PZS""","I 6855 NW 70TH AV","6855 NW 70TH AV RM 122",""
"6855","NW 70TH AV","TMRC","33321","RM","124","","","","","310213","=""00000T4VAR""","I 6855 NW 70TH AV","6855 NW 70TH AV RM 124",""
"6855","NW 70TH AV","TMRC","33321","RM","126","","","","","310213","=""00000T4JW6""","I 6855 NW 70TH AV","6855 NW 70TH AV RM 126",""
"6855","NW 70TH AV","TMRC","33321","RM","128-A","","","","","310213","=""00000T4WJ0""","I 6855 NW 70TH AV","6855 NW 70TH AV RM 128-A",""
"6855","NW 70TH AV","TMRC","33321","RM","128-B","","","","","310213","=""00000T4YLE""","I 6855 NW 70TH AV","6855 NW 70TH AV RM 128-B",""
"6855","NW 70TH AV","TMRC","33321","UNIT","132","","","","","310213","=""00000T4TU0""","I 6855 NW 70TH AV","6855 NW 70TH AV UNIT 132",""
"6855","NW 70TH AV","TMRC","33321","UNIT","133","","","","","310213","=""00000T4YTV""","I 6855 NW 70TH AV","6855 NW 70TH AV UNIT 133",""
"6855","NW 70TH AV","TMRC","33321","RM","134","","","","","310213","=""00000T4ZGZ""","I 6855 NW 70TH AV","6855 NW 70TH AV RM 134",""
"6855","NW 70TH AV","TMRC","33321","RM","135","","","","","310213","=""00000T4TYN""","I 6855 NW 70TH AV","6855 NW 70TH AV RM 135",""
"6855","NW 70TH AV","TMRC","33321","UNIT","136","","","","","310213","=""00000T4XJQ""","I 6855 NW 70TH AV","6855 NW 70TH AV UNIT 136",""
"6855","NW 70TH AV","TMRC","33321","UNIT","138","","","","","310213","=""00000T4TMG""","I 6855 NW 70TH AV","6855 NW 70TH AV UNIT 138",""
"6855","NW 70TH AV","TMRC","33321","UNIT","139","","","","","310213","=""00000T4M6Z""","I 6855 NW 70TH AV","6855 NW 70TH AV UNIT 139",""
"6855","NW 70TH AV","TMRC","33321","RM","19","","","","","310213","=""00000T4Q5J""","I 6855 NW 70TH AV","6855 NW 70TH AV RM 19",""
"6855","NW 70TH AV","TMRC","33321","UNIT","200","","","","","310213","=""00000T4ZH2""","I 6855 NW 70TH AV","6855 NW 70TH AV UNIT 200",""
"6855","NW 70TH AV","TMRC","33321","RM","201","","","","","310213","=""00000T4Z54""","I 6855 NW 70TH AV","6855 NW 70TH AV RM 201",""
"6855","NW 70TH AV","TMRC","33321","UNIT","202","","","","","310213","=""00000T4S02""","I 6855 NW 70TH AV","6855 NW 70TH AV UNIT 202",""
"6855","NW 70TH AV","TMRC","33321","RM","203","","","","","310213","=""00000T4S6R""","I 6855 NW 70TH AV","6855 NW 70TH AV RM 203",""
"6855","NW 70TH AV","TMRC","33321","APT","204","","","","","310213","=""00000T4PZQ""","I 6855 NW 70TH AV","6855 NW 70TH AV APT 204",""
"6855","NW 70TH AV","TMRC","33321","UNIT","205","","","","","310213","=""00000T4K0Q""","I 6855 NW 70TH AV","6855 NW 70TH AV UNIT 205",""
"6855","NW 70TH AV","TMRC","33321","UNIT","206","","","","","310213","=""00000T4S6Q""","I 6855 NW 70TH AV","6855 NW 70TH AV UNIT 206",""
"6855","NW 70TH AV","TMRC","33321","UNIT","208","","","","","310213","=""00000T4VMY""","I 6855 NW 70TH AV","6855 NW 70TH AV UNIT 208",""
"6855","NW 70TH AV","TMRC","33321","RM","212-A","","","","","310213","=""00000T4VZ7""","I 6855 NW 70TH AV","6855 NW 70TH AV RM 212-A",""
"6855","NW 70TH AV","TMRC","33321","UNIT","216","","","","","310213","=""00000T4PZC""","I 6855 NW 70TH AV","6855 NW 70TH AV UNIT 216",""
"6855","NW 70TH AV","TMRC","33321","RM","219-A","","","","","310213","=""00010RH2BL""","I 6855 NW 70TH AV","6855 NW 70TH AV RM 219-A",""
"6855","NW 70TH AV","TMRC","33321","APT","221","","","","","310213","=""00000T4NHA""","I 6855 NW 70TH AV","6855 NW 70TH AV APT 221",""
"6855","NW 70TH AV","TMRC","33321","RM","222","","","","","310213","=""00000T4PQ4""","I 6855 NW 70TH AV","6855 NW 70TH AV RM 222",""
"6855","NW 70TH AV","TMRC","33321","RM","223","","","","","310213","=""000024ZGWW""","I 6855 NW 70TH AV","6855 NW 70TH AV RM 223",""
"6855","NW 70TH AV","TMRC","33321","UNIT","224","","","","","310213","=""00000T4PZI""","I 6855 NW 70TH AV","6855 NW 70TH AV UNIT 224",""
"6855","NW 70TH AV","TMRC","33321","RM","226","","","","","310213","=""00000T4Q14""","I 6855 NW 70TH AV","6855 NW 70TH AV RM 226",""
"6855","NW 70TH AV","TMRC","33321","UNIT","228","","","","","310213","=""00000T4S08""","I 6855 NW 70TH AV","6855 NW 70TH AV UNIT 228",""
"6855","NW 70TH AV","TMRC","33321","RM","23","","","","","310213","=""00000T4JSI""","I 6855 NW 70TH AV","6855 NW 70TH AV RM 23",""
"6855","NW 70TH AV","TMRC","33321","RM","232","","","","","310213","=""000105P4RK""","I 6855 NW 70TH AV","6855 NW 70TH AV RM 232",""
"6855","NW 70TH AV","TMRC","33321","UNIT","234","","","","","310213","=""00000T4S0B""","I 6855 NW 70TH AV","6855 NW 70TH AV UNIT 234",""
"6855","NW 70TH AV","TMRC","33321","UNIT","236","","","","","310213","=""00000T4S6T""","I 6855 NW 70TH AV","6855 NW 70TH AV UNIT 236",""
"6855","NW 70TH AV","TMRC","33321","UNIT","237","","","","","310213","=""00000T4Q12""","I 6855 NW 70TH AV","6855 NW 70TH AV UNIT 237",""
"6855","NW 70TH AV","TMRC","33321","UNIT","300","","","","","310213","=""00000T4UJY""","I 6855 NW 70TH AV","6855 NW 70TH AV UNIT 300",""
"6855","NW 70TH AV","TMRC","33321","APT","301","","","","","310213","=""00010PEJRS""","I 6855 NW 70TH AV","6855 NW 70TH AV APT 301",""
"6855","NW 70TH AV","TMRC","33321","RM","303","","","","","310213","=""00000T4VHE""","I 6855 NW 70TH AV","6855 NW 70TH AV RM 303",""
"6855","NW 70TH AV","TMRC","33321","APT","304","","","","","310213","=""00000T4WLJ""","I 6855 NW 70TH AV","6855 NW 70TH AV APT 304",""
"6855","NW 70TH AV","TMRC","33321","RM","305-A","","","","","310213","=""00000T4W2L""","I 6855 NW 70TH AV","6855 NW 70TH AV RM 305-A",""
"6855","NW 70TH AV","TMRC","33321","RM","307","","","","","310213","=""00010GN203""","I 6855 NW 70TH AV","6855 NW 70TH AV RM 307",""
"6855","NW 70TH AV","TMRC","33321","RM","308","","","","","310213","=""000018OZKF""","I 6855 NW 70TH AV","6855 NW 70TH AV RM 308",""
"6855","NW 70TH AV","TMRC","33321","RM","309","","","","","310213","=""00000T4S77""","I 6855 NW 70TH AV","6855 NW 70TH AV RM 309",""
"6855","NW 70TH AV","TMRC","33321","APT","310","","","","","310213","=""00000T4WIY""","I 6855 NW 70TH AV","6855 NW 70TH AV APT 310",""
"6855","NW 70TH AV","TMRC","33321","RM","311","","","","","310213","=""00000T4UF4""","I 6855 NW 70TH AV","6855 NW 70TH AV RM 311",""
"6855","NW 70TH AV","TMRC","33321","RM","315","","","","","310213","=""00010MJG8B""","I 6855 NW 70TH AV","6855 NW 70TH AV RM 315",""
"6855","NW 70TH AV","TMRC","33321","APT","317","","","","","310213","=""00010P1YDP""","I 6855 NW 70TH AV","6855 NW 70TH AV APT 317",""
"6855","NW 70TH AV","TMRC","33321","RM","318","","","","","310213","=""00000T4YT5""","I 6855 NW 70TH AV","6855 NW 70TH AV RM 318",""
"6855","NW 70TH AV","TMRC","33321","UNIT","321","","","","","310213","=""00000T4S7C""","I 6855 NW 70TH AV","6855 NW 70TH AV UNIT 321",""
"6855","NW 70TH AV","TMRC","33321","UNIT","325","","","","","310213","=""00000T4OO5""","I 6855 NW 70TH AV","6855 NW 70TH AV UNIT 325",""
"6855","NW 70TH AV","TMRC","33321","UNIT","N","","","","","310213","=""00000T4VHJ""","I 6855 NW 70TH AV","6855 NW 70TH AV UNIT N",""
"6855","NW 70TH AV","TMRC","33321","","","","","","","310213","=""00000T4HCL""","I 6855 NW 70TH AV","6855 NW 70TH AV","Y"
"6885","NW 70TH AV","TMRC","33321","UNIT","134","","","","","310213","=""00010K7VFT""","I 6855 NW 70TH AV","6885 NW 70TH AV UNIT 134",""
"6980","W MCNAB RD","TMRC","33321","APT","A","","","","","310213","=""00000T4JD1""","6980 W MCNAB RD","6980 W MCNAB RD APT A",""
"6980","W MCNAB RD","TMRC","33321","APT","B","","","","","310213","=""00000T4IKJ""","6980 W MCNAB RD","6980 W MCNAB RD APT B",""
"6980","W MCNAB RD","TMRC","33321","APT","C","","","","","310213","=""00000T4X3O""","6980 W MCNAB RD","6980 W MCNAB RD APT C",""
"6980","W MCNAB RD","TMRC","33321","APT","D","","","","","310213","=""00000T4V88""","6980 W MCNAB RD","6980 W MCNAB RD APT D",""
"6980","W MCNAB RD","TMRC","33321","SUIT","E","","","","","310213","=""00000T4PDP""","6980 W MCNAB RD","6980 W MCNAB RD SUIT E",""
"6980","W MCNAB RD","TMRC","33321","UNIT","STOP 1","","","","","310213","=""00011IRN4Y""","6980 W MCNAB RD","6980 W MCNAB RD UNIT STOP 1",""
"6980","W MCNAB RD","TMRC","33321","UNIT","STOP 2","","","","","310213","=""00010DSA03""","6980 W MCNAB RD","6980 W MCNAB RD UNIT STOP 2",""
"6980","W MCNAB RD","TMRC","33321","","","","","","","310213","=""00000T4DY0""","6980 W MCNAB RD","6980 W MCNAB RD",""
"7108","W MCNAB RD","TMRC","33321","","","","","","","310213","=""00000T4EDR""","MR 7118.1 W MCNAB RD","7108 W MCNAB RD",""
"7110","W MCNAB RD","TMRC","33321","","","","","","","310213","=""00000T4GJL""","MR 7118.1 W MCNAB RD","7110 W MCNAB RD",""
"7112","W MCNAB RD","TMRC","33321","","","","","","","310213","=""00000T4ORB""","MR 7118.1 W MCNAB RD","7112 W MCNAB RD",""
"7114","W MCNAB RD","TMRC","33321","","","","","","","310213","=""00000T4LY5""","MR 7118.1 W MCNAB RD","7114 W MCNAB RD",""
"7116","W MCNAB RD","TMRC","33321","","","","","","","310213","=""00000T4X7T""","MR 7118.1 W MCNAB RD","7116 W MCNAB RD",""
"7118","W MCNAB RD","TMRC","33321","","","","","","","310213","=""00000T4W4N""","MR 7118.1 W MCNAB RD","7118 W MCNAB RD",""
"7120","W MCNAB RD","N LDLE","33321","","","","","","","310213","=""00000T4C7W""","MR 7118.1 W MCNAB RD","7120 W MCNAB RD",""
"7120","W MCNAB RD","TMRC","33321","","","","","","","310213","=""00000T4C7W""","MR 7118.1 W MCNAB RD","7120 W MCNAB RD",""
"7122","W MCNAB RD","TMRC","33321","","","","","","","310213","=""00000T4IRP""","MR 7118.1 W MCNAB RD","7122 W MCNAB RD",""
"7126","W MCNAB RD","TMRC","33321","","","","","","","310213","=""00000T4X13""","MR 7118.2 W MCNAB RD","7126 W MCNAB RD",""
"7128","W MCNAB RD","TMRC","33321","","","","","","","310213","=""00000T4NH9""","7160 W MCNAB RD","7128 W MCNAB RD",""
"7128","W MCNAB RD","N LDLE","33321","","","","","","","310213","=""00000T4NH9""","7160 W MCNAB RD","7128 W MCNAB RD",""
"7130","W MCNAB RD","N LDLE","33321","","","","","","","310213","=""00000T4C8D""","7160 W MCNAB RD","7130 W MCNAB RD",""
"7130","W MCNAB RD","N LDLE","33321","","","","","","","310213","=""00000T4C8D""","7160 W MCNAB RD","7130 W MCNAB RD",""
"7132","W MCNAB RD","TMRC","33321","RM","OFFICE","FLR","FIRST","BLDG","MAIN","310213","=""00010C3DPN""","7160 W MCNAB RD","7132 W MCNAB RD RM OFFICE FLR FIRST BLDG MAIN",""
"7134","W MCNAB RD","TMRC","33321","","","","","","","310213","=""00000T4MJQ""","7160 W MCNAB RD","7134 W MCNAB RD",""
"7136","W MCNAB RD","TMRC","33321","","","","","","","310213","=""00000T4X5L""","MR 7118.2 W MCNAB RD","7136 W MCNAB RD",""
"7138","W MCNAB RD","TMRC","33321","","","","","","","310213","=""00000T4V33""","6980 W MCNAB RD","7138 W MCNAB RD",""
"7140","W MCNAB RD","TMRC","33321","","","","","","","310213","=""00000T4YI0""","7160 W MCNAB RD","7140 W MCNAB RD","Y"
"7148","W MCNAB RD","TMRC","33321","","","","","","","310213","=""00000T4GDB""","7200 W MCNAB RD","7148 W MCNAB RD",""
"7150","W MCNAB RD","TMRC","33321","","","","","","","310213","=""00000T4B78""","7160 W MCNAB RD","7150 W MCNAB RD","Y"
"7154","W MCNAB RD","TMRC","33321","","","","","","","310213","=""00000T4ONN""","7160 W MCNAB RD","7154 W MCNAB RD",""
"7200","W MCNAB RD","TMRC","33321","SUIT","120","","","","","310213","=""00000T4YQK""","7200 W MCNAB RD","7200 W MCNAB RD SUIT 120",""
"7200","W MCNAB RD","TMRC","33321","SUIT","6167","","","","","310213","=""00000T4OTT""","7200 W MCNAB RD","7200 W MCNAB RD SUIT 6167",""
"7200","W MCNAB RD","TMRC","33321","","","","","","","310213","=""00000T4IGD""","7200 W MCNAB RD","7200 W MCNAB RD",""
