House Number,Street Name,Community,Zip Code,Unit Type,Unit,Floor Type,Floor,Building Type,Building,DA/PSA,OVALS Address ID,Primary_Term_Address,FAC_ADDR,Working TN Status
"1801","CHARRO","FRIENDSWOOD","77546","","","","","","","3327B","=""000013ADG3""","R 1801 CHARRO","1801 CHARRO",""
"1802","CHARRO","FRIENDSWOOD","77546","","","","","","","3327B","=""000013AI4J""","ENC R 1802 CHARRO","1802 CHARRO",""
"1803","CHARRO","FRIENDSWOOD","77546","","","","","","","3327B","=""000013AOT3""","ENC R 1803 CHARRO","1803 CHARRO",""
"1804","CHARRO","FRIENDSWOOD","77546","","","","","","","3327B","=""000013AJ9J""","ENC R 1804 CHARRO","1804 CHARRO",""
"1805","CHARRO","FRIENDSWOOD","77546","","","","","","","3327B","=""000013ACG8""","ENC R 1804 PRESIDEO","1805 CHARRO",""
"1806","CHARRO","FRIENDSWOOD","77546","","","","","","","3327B","=""000013AKNS""","ENC R 1806 CHARRO","1806 CHARRO",""
"1807","CHARRO","FRIENDSWOOD","77546","","","","","","","3327B","=""000013AEQE""","ENC R 1807 CHARRO","1807 CHARRO",""
"1808","CHARRO","FRIENDSWOOD","77546","","","","","","","3327B","=""000013APNU""","ENC R 1808 CHARRO","1808 CHARRO",""
"1809","CHARRO","FRIENDSWOOD","77546","","","","","","","3327B","=""000013AR1Q""","ENC R 1809 CHARRO","1809 CHARRO",""
"1810","CHARRO","FRIENDSWOOD","77546","","","","","","","3327B","=""000013AIC6""","ENC R 1810 CHARRO","1810 CHARRO",""
"1811","CHARRO","FRIENDSWOOD","77546","","","","","","","3327B","=""000013AMAA""","ENC R 1811 CHARRO","1811 CHARRO",""
"1812","CHARRO","FRIENDSWOOD","77546","","","","","","","3327B","=""000013AHJE""","R 1812 CHARRO","1812 CHARRO",""
"1601","COUNTRY CLUB DR","FRIENDSWOOD","77546","","","","","","","3327B","=""000013AP9Z""","R 1602 ORLANDO","1601 COUNTRY CLUB DR",""
"1603","COUNTRY CLUB DR","FRIENDSWOOD","77546","","","","","","","3327B","=""000013AL6H""","R 1602 ORLANDO","1603 COUNTRY CLUB DR",""
"1605","COUNTRY CLUB DR","FRIENDSWOOD","77546","","","","","","","3327B","=""000013ANXV""","R 1606 ORLANDO","1605 COUNTRY CLUB DR",""
"1607","COUNTRY CLUB DR","FRIENDSWOOD","77546","","","","","","","3327B","=""000013AEAA""","R 1606 ORLANDO","1607 COUNTRY CLUB DR",""
"1609","COUNTRY CLUB DR","FRIENDSWOOD","77546","","","","","","","3327B","=""000013AG8R""","R 1610 ORLANDO","1609 COUNTRY CLUB DR",""
"1701","COUNTRY CLUB DR","FRIENDSWOOD","77546","","","","","","","3327B","=""000013AN18""","R 1702 ORLANDO","1701 COUNTRY CLUB DR",""
"1702","COUNTRY CLUB DR","FRIENDSWOOD","77546","","","","","","","3327B","=""000013AQM4""","R 2705 MIAMI CT","1702 COUNTRY CLUB DR",""
"1703","COUNTRY CLUB DR","FRIENDSWOOD","77546","","","","","","","3327B","=""000013AENJ""","R 1702 ORLANDO","1703 COUNTRY CLUB DR",""
"1704","COUNTRY CLUB DR","FRIENDSWOOD","77546","","","","","","","3327B","=""000013ABJ4""","R 1704 COUNTRY CLUB DR","1704 COUNTRY CLUB DR",""
"1705","COUNTRY CLUB DR","FRIENDSWOOD","77546","","","","","","","3327B","=""000013AJE1""","R 1704 ORLANDO","1705 COUNTRY CLUB DR",""
"1706","COUNTRY CLUB DR","FRIENDSWOOD","77546","","","","","","","3327B","=""000013AIAG""","R 1704 COUNTRY CLUB DR","1706 COUNTRY CLUB DR",""
"1707","COUNTRY CLUB DR","FRIENDSWOOD","77546","","","","","","","3327B","=""000013AKRK""","R 1708 ORLANDO","1707 COUNTRY CLUB DR",""
"1708","COUNTRY CLUB DR","FRIENDSWOOD","77546","","","","","","","3327B","=""000013ARPS""","R 1708 COUNTRY CLUB DR","1708 COUNTRY CLUB DR",""
"1709","COUNTRY CLUB DR","FRIENDSWOOD","77546","","","","","","","3327B","=""000013ANB1""","R 1708 ORLANDO","1709 COUNTRY CLUB DR",""
"1710","COUNTRY CLUB DR","FRIENDSWOOD","77546","","","","","","","3327B","=""000013AN7G""","R 1708 COUNTRY CLUB DR","1710 COUNTRY CLUB DR",""
"1711","COUNTRY CLUB DR","FRIENDSWOOD","77546","","","","","","","3327B","=""000013AJEJ""","R 1710 ORLANDO","1711 COUNTRY CLUB DR",""
"2400","DAYTONA CT","FRIENDSWOOD","77546","UNIT","GAR","","","","","3327B","=""000013AGYU""","R 2310 SAN AUGUSTINE LN","2400 DAYTONA CT UNIT GAR",""
"2400","DAYTONA CT","FRIENDSWOOD","77546","","","","","","","3327B","=""000013ARE9""","R 2400 DAYTONA CT","2400 DAYTONA CT",""
"2401","DAYTONA CT","FRIENDSWOOD","77546","","","","","","","3327B","=""000013AHHJ""","R 2406 SAN AUGUSTINE LN","2401 DAYTONA CT",""
"2402","DAYTONA CT","FRIENDSWOOD","77546","","","","","","","3327B","=""000013AI21""","R 2400 DAYTONA CT","2402 DAYTONA CT",""
"2403","DAYTONA CT","FRIENDSWOOD","77546","","","","","","","3327B","=""000013ACU4""","R 2406 SAN AUGUSTINE LN","2403 DAYTONA CT",""
"2404","DAYTONA CT","FRIENDSWOOD","77546","","","","","","","3327B","=""000013APCU""","R 2406 DAYTONA CT","2404 DAYTONA CT",""
"2405","DAYTONA CT","FRIENDSWOOD","77546","","","","","","","3327B","=""000013AP68""","R 2408 SAN AUGUSTINE LN","2405 DAYTONA CT",""
"2406","DAYTONA CT","FRIENDSWOOD","77546","","","","","","","3327B","=""000013AJ9G""","R 2406 DAYTONA CT","2406 DAYTONA CT",""
"2407","DAYTONA CT","FRIENDSWOOD","77546","","","","","","","3327B","=""000013AKK9""","R 2408 SAN AUGUSTINE LN","2407 DAYTONA CT",""
"2408","DAYTONA CT","FRIENDSWOOD","77546","","","","","","","3327B","=""000013AE21""","R 2410 DAYTONA CT","2408 DAYTONA CT",""
"2409","DAYTONA CT","FRIENDSWOOD","77546","","","","","","","3327B","=""000013AO37""","R 2412 SAN AUGUSTINE LN","2409 DAYTONA CT",""
"2410","DAYTONA CT","FRIENDSWOOD","77546","","","","","","","3327B","=""000013AOWI""","R 2410 DAYTONA CT","2410 DAYTONA CT",""
"2411","DAYTONA CT","FRIENDSWOOD","77546","","","","","","","3327B","=""000013ADEX""","R 2412 SAN AUGUSTINE LN","2411 DAYTONA CT",""
"2412","DAYTONA CT","FRIENDSWOOD","77546","","","","","","","3327B","=""000013AKK2""","R 2412 DAYTONA CT","2412 DAYTONA CT",""
"2414","DAYTONA CT","FRIENDSWOOD","77546","","","","","","","3327B","=""000013AI7L""","R 2412 DAYTONA CT","2414 DAYTONA CT",""
"2502","DAYTONA CT","FRIENDSWOOD","77546","","","","","","","3327B","=""000013AKSG""","R 2502 DAYTONA CT","2502 DAYTONA CT",""
"2504","DAYTONA CT","FRIENDSWOOD","77546","","","","","","","3327B","=""000013AQZF""","R 2506 DAYTONA CT","2504 DAYTONA CT",""
"2506","DAYTONA CT","FRIENDSWOOD","77546","","","","","","","3327B","=""000013AJYS""","R 2506 DAYTONA CT","2506 DAYTONA CT",""
"2508","DAYTONA CT","FRIENDSWOOD","77546","","","","","","","3327B","=""000013AKG9""","R 1700 PENSACOLA LN","2508 DAYTONA CT",""
"1701","DESTIN LN","FRIENDSWOOD","77546","","","","","","","3327B","=""000013AD8G""","R 1701 DESTIN LN","1701 DESTIN LN",""
"1703","DESTIN LN","FRIENDSWOOD","77546","","","","","","","3327B","=""000013AM5D""","R 1701 DESTIN LN","1703 DESTIN LN",""
"1705","DESTIN LN","FRIENDSWOOD","77546","","","","","","","3327B","=""000013AMNH""","R 1705 DESTIN LN","1705 DESTIN LN",""
"1707","DESTIN LN","FRIENDSWOOD","77546","","","","","","","3327B","=""000013AH61""","R 1705 DESTIN LN","1707 DESTIN LN",""
"14","EL DORADO DR","FRIENDSWOOD","77546","","","","","","","3327B","=""000013AEOC""","F 14 EL DORADO","14 EL DORADO DR",""
"15","EL DORADO DR","FRIENDSWOOD","77546","","","","","","","3327B","=""000013ARDF""","F 14 EL DORADO","15 EL DORADO DR",""
"19","EL DORADO DR","FRIENDSWOOD","77546","","","","","","","3327B","=""000013ADRV""","F 14 EL DORADO","19 EL DORADO DR",""
"22","EL DORADO DR","FRIENDSWOOD","77546","","","","","","","3327B","=""000013AI23""","F 14 EL DORADO","22 EL DORADO DR",""
"25","EL DORADO DR","FRIENDSWOOD","77546","","","","","","","3327B","=""000013AKA9""","F 26 EL DORADO","25 EL DORADO DR",""
"26","EL DORADO DR","FRIENDSWOOD","77546","","","","","","","3327B","=""000013AOFI""","F 26 EL DORADO","26 EL DORADO DR","Y"
"30","EL DORADO DR","FRIENDSWOOD","77546","","","","","","","3327B","=""000013AFRI""","F 30 EL DORADO","30 EL DORADO DR",""
"31","EL DORADO DR","FRIENDSWOOD","77546","","","","","","","3327B","=""000013ACLK""","F 99 EL DORADO","31 EL DORADO DR",""
"35","EL DORADO DR","FRIENDSWOOD","77546","","","","","","","3327B","=""000013AJJ4""","F 99 EL DORADO","35 EL DORADO DR",""
"39","EL DORADO DR","FRIENDSWOOD","77546","","","","","","","3327B","=""000013AQUS""","F 43 EL DORADO","39 EL DORADO DR",""
"43","EL DORADO DR","FRIENDSWOOD","77546","","","","","","","3327B","=""000013AQ89""","F 43 EL DORADO","43 EL DORADO DR",""
"47","EL DORADO DR","FRIENDSWOOD","77546","","","","","","","3327B","=""000013AOOT""","F 51 EL DORADO","47 EL DORADO DR",""
"51","EL DORADO DR","FRIENDSWOOD","77546","","","","","","","3327B","=""000013AKQ9""","F 51 EL DORADO","51 EL DORADO DR",""
"55","EL DORADO DR","FRIENDSWOOD","77546","","","","","","","3327B","=""000013AH8D""","F 59 EL DORADO","55 EL DORADO DR",""
"58","EL DORADO DR","FRIENDSWOOD","77546","","","","","","","3327B","=""000013AIK6""","F 51 EL DORADO","58 EL DORADO DR","Y"
"59","EL DORADO DR","FRIENDSWOOD","77546","","","","","","","3327B","=""000013ARB8""","F 59 EL DORADO","59 EL DORADO DR",""
"60","EL DORADO DR","FRIENDSWOOD","77546","","","","","","","3327B","=""000013AIN7""","F 63 EL DORADO","60 EL DORADO DR",""
"62","EL DORADO DR","FRIENDSWOOD","77546","","","","","","","3327B","=""000013AGSO""","F 63 EL DORADO","62 EL DORADO DR",""
"63","EL DORADO DR","FRIENDSWOOD","77546","","","","","","","3327B","=""000013AO9Z""","F 63 EL DORADO","63 EL DORADO DR",""
"67","EL DORADO DR","FRIENDSWOOD","77546","","","","","","","3327B","=""000013AMYK""","F 71 EL DORADO","67 EL DORADO DR",""
"68","EL DORADO DR","FRIENDSWOOD","77546","","","","","","","3327B","=""000013AE5X""","F 71 EL DORADO","68 EL DORADO DR",""
"71","EL DORADO DR","FRIENDSWOOD","77546","","","","","","","3327B","=""000013AM1M""","F 71 EL DORADO","71 EL DORADO DR","Y"
"72","EL DORADO DR","FRIENDSWOOD","77546","","","","","","","3327B","=""000013ANC2""","F 79 EL DORADO","72 EL DORADO DR",""
"75","EL DORADO DR","FRIENDSWOOD","77546","","","","","","","3327B","=""000013AJX9""","F 79 EL DORADO","75 EL DORADO DR",""
"79","EL DORADO DR","FRIENDSWOOD","77546","","","","","","","3327B","=""000013ADLW""","F 81 EL DORADO","79 EL DORADO DR",""
"81","EL DORADO DR","FRIENDSWOOD","77546","","","","","","","3327B","=""000013AFR6""","F 81 EL DORADO","81 EL DORADO DR",""
"83","EL DORADO DR","FRIENDSWOOD","77546","","","","","","","3327B","=""000013AK0O""","F 81 EL DORADO","83 EL DORADO DR",""
"86","EL DORADO DR","FRIENDSWOOD","77546","","","","","","","3327B","=""000013AJCC""","F 81 EL DORADO","86 EL DORADO DR","Y"
"87","EL DORADO DR","FRIENDSWOOD","77546","","","","","","","3327B","=""000013AP5Y""","F 94 EL DORADO","87 EL DORADO DR",""
"91","EL DORADO DR","FRIENDSWOOD","77546","","","","","","","3327B","=""000013AH81""","F 91 EL DORADO","91 EL DORADO DR",""
"94","EL DORADO DR","FRIENDSWOOD","77546","","","","","","","3327B","=""000013ACXL""","F 94 EL DORADO","94 EL DORADO DR",""
"96","EL DORADO DR","FRIENDSWOOD","77546","","","","","","","3327B","=""000013AHXD""","F 91 EL DORADO","96 EL DORADO DR",""
"97","EL DORADO DR","FRIENDSWOOD","77546","","","","","","","3327B","=""000013AFMX""","F 94 EL DORADO","97 EL DORADO DR",""
"98","EL DORADO DR","FRIENDSWOOD","77546","UNIT","BARN","","","","","3327B","=""000013AEV8""","F 91 EL DORADO","98 EL DORADO DR UNIT BARN",""
"98","EL DORADO DR","FRIENDSWOOD","77546","UNIT","BARN APT","","","","","3327B","=""00010C1XI8""","F 91 EL DORADO","98 EL DORADO DR UNIT BARN APT",""
"98","EL DORADO DR","FRIENDSWOOD","77546","","","","","","","3327B","=""000013AD33""","F 91 EL DORADO","98 EL DORADO DR",""
"99","EL DORADO DR","FRIENDSWOOD","77546","","","","","","","3327B","=""000013APS2""","F 91 EL DORADO","99 EL DORADO DR",""
"2009","LUNDY LN","FRIENDSWOOD","77546","","","","","","","3327B","=""000013AFV0""","F 832 LUNDYLN","2009 LUNDY LN",""
"2011","LUNDY LN","FRIENDSWOOD","77546","","","","","","","3327B","=""000013ANY6""","F 832 LUNDYLN","2011 LUNDY LN",""
"2013","LUNDY LN","FRIENDSWOOD","77546","","","","","","","3327B","=""000013AGDB""","F 832 LUNDYLN","2013 LUNDY LN",""
"2401","LUNDY LN","LEAGUE CITY","77546","","","","","","","3327B","=""000013AS29""","F 2401 EAST","2401 LUNDY LN",""
"2701","MIAMI CT","FRIENDSWOOD","77546","","","","","","","3327B","=""000013AP8A""","R 2701 MIAMI CT","2701 MIAMI CT",""
"2702","MIAMI CT","FRIENDSWOOD","77546","","","","","","","3327B","=""000013ADQR""","R 2702-2 MIAMI CT","2702 MIAMI CT",""
"2703","MIAMI CT","FRIENDSWOOD","77546","","","","","","","3327B","=""000013AJFM""","R 2705 MIAMI CT","2703 MIAMI CT",""
"2704","MIAMI CT","FRIENDSWOOD","77546","UNIT","REAR","","","","","3327B","=""000013AFRC""","R 2702-2 MIAMI CT","2704 MIAMI CT UNIT REAR",""
"2704","MIAMI CT","FRIENDSWOOD","77546","","","","","","","3327B","=""000013AI7B""","R 2702-2 MIAMI CT","2704 MIAMI CT",""
"2705","MIAMI CT","FRIENDSWOOD","77546","","","","","","","3327B","=""000013AHD7""","R 2705 MIAMI CT","2705 MIAMI CT",""
"2706","MIAMI CT","FRIENDSWOOD","77546","UNIT","REAR","","","","","3327B","=""000013ADHA""","R 2706 MIAMI CT","2706 MIAMI CT UNIT REAR",""
"2706","MIAMI CT","FRIENDSWOOD","77546","","","","","","","3327B","=""000013AQ05""","R 2706 MIAMI CT","2706 MIAMI CT",""
"2300","N MISSION CIR","FRIENDSWOOD","77546","","","","","","","3327B","=""000013AIBX""","F 2302 N MISSION CIR","2300 N MISSION CIR",""
"2302","N MISSION CIR","FRIENDSWOOD","77546","","","","","","","3327B","=""000013AFYO""","F 2302 N MISSION CIR","2302 N MISSION CIR",""
"2304","N MISSION CIR","FRIENDSWOOD","77546","","","","","","","3327B","=""000013AHJ0""","F 2306 N MISSION CIR","2304 N MISSION CIR",""
"2306","N MISSION CIR","FRIENDSWOOD","77546","","","","","","","3327B","=""000013AGQT""","F 2306 N MISSION CIR","2306 N MISSION CIR",""
"2308","N MISSION CIR","FRIENDSWOOD","77546","","","","","","","3327B","=""000013AFDU""","F 2310 N MISSION CIR","2308 N MISSION CIR",""
"2310","N MISSION CIR","FRIENDSWOOD","77546","","","","","","","3327B","=""000013ADG9""","F 2310 N MISSION CIR","2310 N MISSION CIR",""
"2312","N MISSION CIR","FRIENDSWOOD","77546","","","","","","","3327B","=""000013APXU""","F 2402 N MISSION CIR","2312 N MISSION CIR","Y"
"2402","N MISSION CIR","FRIENDSWOOD","77546","","","","","","","3327B","=""000013ABOE""","F 2402 N MISSION CIR","2402 N MISSION CIR",""
"2404","N MISSION CIR","FRIENDSWOOD","77546","","","","","","","3327B","=""000013AI8S""","F 2406 N MISSION CIR","2404 N MISSION CIR",""
"2406","N MISSION CIR","FRIENDSWOOD","77546","","","","","","","3327B","=""000013AGCK""","F 2406 N MISSION CIR","2406 N MISSION CIR",""
"2408","N MISSION CIR","FRIENDSWOOD","77546","","","","","","","3327B","=""000013AFR5""","F 2410 N MISSION CIR","2408 N MISSION CIR",""
"2410","N MISSION CIR","FRIENDSWOOD","77546","","","","","","","3327B","=""000013AMBD""","F 2410 N MISSION CIR","2410 N MISSION CIR",""
"2412","N MISSION CIR","FRIENDSWOOD","77546","","","","","","","3327B","=""000013AN4L""","F 2412 N MISSION CIR","2412 N MISSION CIR",""
"2502","N MISSION CIR","FRIENDSWOOD","77546","","","","","","","3327B","=""000013AQKY""","F 2504 N MISSION CIR","2502 N MISSION CIR",""
"2504","N MISSION CIR","FRIENDSWOOD","77546","","","","","","","3327B","=""000013AGU5""","F 2504 N MISSION CIR","2504 N MISSION CIR",""
"2506","N MISSION CIR","FRIENDSWOOD","77546","","","","","","","3327B","=""000013AOKS""","F 2508 N MISSION CIR","2506 N MISSION CIR",""
"2508","N MISSION CIR","FRIENDSWOOD","77546","","","","","","","3327B","=""000013AIDN""","F 2508 N MISSION CIR","2508 N MISSION CIR",""
"2509","N MISSION CIR","FRIENDSWOOD","77546","","","","","","","3327B","=""000013AF9D""","ENC R 2509 N MISSION CIR","2509 N MISSION CIR",""
"2511","N MISSION CIR","FRIENDSWOOD","77546","","","","","","","3327B","=""000013AJVO""","ENC R 2511 N MISSION CIR","2511 N MISSION CIR",""
"2513","N MISSION CIR","FRIENDSWOOD","77546","","","","","","","3327B","=""000013AFVI""","ENC R 2513 N MISSION CIR","2513 N MISSION CIR",""
"2601","N MISSION CIR","FRIENDSWOOD","77546","","","","","","","3327B","=""000013AOQE""","ENC R 2601 N MISSION CIR","2601 N MISSION CIR",""
"2602","N MISSION CIR","FRIENDSWOOD","77546","","","","","","","3327B","=""000013ACKB""","F 2604 N MISSION CIR","2602 N MISSION CIR",""
"2603","N MISSION CIR","FRIENDSWOOD","77546","","","","","","","3327B","=""000013AMWN""","ENC R 2603 N MISSION CIR","2603 N MISSION CIR",""
"2604","N MISSION CIR","FRIENDSWOOD","77546","","","","","","","3327B","=""000013AN7W""","F 2604 N MISSION CIR","2604 N MISSION CIR",""
"2605","N MISSION CIR","FRIENDSWOOD","77546","","","","","","","3327B","=""000013ABJN""","ENC R 2605 N MISSION CIR","2605 N MISSION CIR",""
"2606","N MISSION CIR","FRIENDSWOOD","77546","","","","","","","3327B","=""000013AJ39""","F 2608 N MISSION CIR","2606 N MISSION CIR",""
"2607","N MISSION CIR","FRIENDSWOOD","77546","","","","","","","3327B","=""000013AIV0""","ENC R 2607 N MISSION CIR","2607 N MISSION CIR",""
"2608","N MISSION CIR","FRIENDSWOOD","77546","","","","","","","3327B","=""000013ALWF""","F 2608 N MISSION CIR","2608 N MISSION CIR",""
"2609","N MISSION CIR","FRIENDSWOOD","77546","","","","","","","3327B","=""000013AGZQ""","R 2609 N MISSION CIR","2609 N MISSION CIR",""
"2610","N MISSION CIR","FRIENDSWOOD","77546","","","","","","","3327B","=""000013AH4B""","F 2612 N MISSION CIR","2610 N MISSION CIR",""
"2611","N MISSION CIR","FRIENDSWOOD","77546","","","","","","","3327B","=""000013ACXE""","R 2611 N MISSION CIR","2611 N MISSION CIR",""
"2612","N MISSION CIR","FRIENDSWOOD","77546","","","","","","","3327B","=""000013AMZR""","F 2614 N MISSION CIR","2612 N MISSION CIR",""
"2614","N MISSION CIR","FRIENDSWOOD","77546","","","","","","","3327B","=""000013ADYN""","F 2614 N MISSION CIR","2614 N MISSION CIR",""
"2616","N MISSION CIR","FRIENDSWOOD","77546","","","","","","","3327B","=""000013AN5E""","ENC R 2616 N MISSION CIR","2616 N MISSION CIR","Y"
"2618","N MISSION CIR","FRIENDSWOOD","77546","","","","","","","3327B","=""000013AJUK""","ENC R 2618 N MISSION CIR","2618 N MISSION CIR",""
"1601","ORLANDO ST","FRIENDSWOOD","77546","","","","","","","3327B","=""000013AFCI""","R 1601 ORLANDO","1601 ORLANDO ST",""
"1602","ORLANDO ST","FRIENDSWOOD","77546","","","","","","","3327B","=""000013AG6Z""","R 1602 ORLANDO","1602 ORLANDO ST",""
"1603","ORLANDO ST","FRIENDSWOOD","77546","","","","","","","3327B","=""000013ACN6""","R 1601 ORLANDO","1603 ORLANDO ST",""
"1604","ORLANDO ST","FRIENDSWOOD","77546","","","","","","","3327B","=""000013AGG9""","R 1602 ORLANDO","1604 ORLANDO ST",""
"1605","ORLANDO ST","FRIENDSWOOD","77546","","","","","","","3327B","=""000013AO1I""","R 1605 ORLANDO","1605 ORLANDO ST",""
"1606","ORLANDO ST","FRIENDSWOOD","77546","","","","","","","3327B","=""000013AF9L""","R 1606 ORLANDO","1606 ORLANDO ST",""
"1607","ORLANDO ST","FRIENDSWOOD","77546","","","","","","","3327B","=""000013APSI""","R 1605 ORLANDO","1607 ORLANDO ST",""
"1608","ORLANDO ST","FRIENDSWOOD","77546","","","","","","","3327B","=""000013ABWX""","R 1606 ORLANDO","1608 ORLANDO ST",""
"1609","ORLANDO ST","FRIENDSWOOD","77546","","","","","","","3327B","=""000013AJ71""","R 1609 ORLANDO","1609 ORLANDO ST",""
"1610","ORLANDO ST","FRIENDSWOOD","77546","","","","","","","3327B","=""000013AOQ2""","R 1610 ORLANDO","1610 ORLANDO ST",""
"1611","ORLANDO ST","FRIENDSWOOD","77546","","","","","","","3327B","=""000013ALR5""","R 1609 ORLANDO","1611 ORLANDO ST",""
"1612","ORLANDO ST","FRIENDSWOOD","77546","","","","","","","3327B","=""000013AN15""","R 1610 ORLANDO","1612 ORLANDO ST",""
"1701","ORLANDO ST","FRIENDSWOOD","77546","","","","","","","3327B","=""000013AJEQ""","R 1701 ORLANDO","1701 ORLANDO ST",""
"1702","ORLANDO ST","FRIENDSWOOD","77546","","","","","","","3327B","=""000013ADZF""","R 1702 ORLANDO","1702 ORLANDO ST",""
"1703","ORLANDO ST","FRIENDSWOOD","77546","","","","","","","3327B","=""000013AN9K""","R 1701 ORLANDO","1703 ORLANDO ST",""
"1704","ORLANDO ST","FRIENDSWOOD","77546","","","","","","","3327B","=""000013APE6""","R 1704 ORLANDO","1704 ORLANDO ST",""
"1705","ORLANDO ST","FRIENDSWOOD","77546","","","","","","","3327B","=""000013ADHZ""","R 1705 ORLANDO","1705 ORLANDO ST",""
"1706","ORLANDO ST","FRIENDSWOOD","77546","","","","","","","3327B","=""000013AIGY""","R 1708 ORLANDO","1706 ORLANDO ST",""
"1708","ORLANDO ST","FRIENDSWOOD","77546","","","","","","","3327B","=""000013AI53""","R 1708 ORLANDO","1708 ORLANDO ST",""
"1709","ORLANDO ST","FRIENDSWOOD","77546","","","","","","","3327B","=""000013AMQ3""","R 1709 ORLANDO","1709 ORLANDO ST",""
"1710","ORLANDO ST","FRIENDSWOOD","77546","","","","","","","3327B","=""000013ARLU""","R 1710 ORLANDO","1710 ORLANDO ST",""
"1711","ORLANDO ST","FRIENDSWOOD","77546","","","","","","","3327B","=""000013AC5U""","R 1709 ORLANDO","1711 ORLANDO ST",""
"1712","ORLANDO ST","FRIENDSWOOD","77546","","","","","","","3327B","=""000013ARZR""","R 1710 ORLANDO","1712 ORLANDO ST",""
"1801","PALO DURO","FRIENDSWOOD","77546","","","","","","","3327B","=""000013AHK6""","ENC R 1801 PALO DURO","1801 PALO DURO",""
"1802","PALO DURO","FRIENDSWOOD","77546","","","","","","","3327B","=""000013AEHS""","ENC R 1802 PALO DURO","1802 PALO DURO",""
"1803","PALO DURO","FRIENDSWOOD","77546","","","","","","","3327B","=""000013AJVU""","ENC R 1803 PALO DURO","1803 PALO DURO",""
"1804","PALO DURO","FRIENDSWOOD","77546","","","","","","","3327B","=""000013AIMB""","ENC R 1804 PALO DURO","1804 PALO DURO",""
"1805","PALO DURO","FRIENDSWOOD","77546","","","","","","","3327B","=""000013AGLF""","R 1805 PALO DURO","1805 PALO DURO","Y"
"1806","PALO DURO","FRIENDSWOOD","77546","","","","","","","3327B","=""000013ADK4""","ENC R 1806 PALO DURO","1806 PALO DURO",""
"1807","PALO DURO","FRIENDSWOOD","77546","","","","","","","3327B","=""000013AIMC""","ENC R 1807 PALO DURO","1807 PALO DURO",""
"1808","PALO DURO","FRIENDSWOOD","77546","","","","","","","3327B","=""000013AR80""","ENC R 1808 PALO DURO","1808 PALO DURO",""
"1809","PALO DURO","FRIENDSWOOD","77546","","","","","","","3327B","=""000013AHXU""","ENC R 1809 PALO DURO","1809 PALO DURO",""
"1810","PALO DURO","FRIENDSWOOD","77546","","","","","","","3327B","=""000013AROG""","ENC R 1810 PALO DURO","1810 PALO DURO",""
"1901","PALO DURO","FRIENDSWOOD","77546","","","","","","","3327B","=""000013APC1""","ENC R 1901 PALO DURO","1901 PALO DURO",""
"1902","PALO DURO","FRIENDSWOOD","77546","","","","","","","3327B","=""000013AFS1""","ENC R 1902 PALO DURO","1902 PALO DURO",""
"1903","PALO DURO","FRIENDSWOOD","77546","","","","","","","3327B","=""000013AMZM""","ENC R 1903 PALO DURO","1903 PALO DURO",""
"1904","PALO DURO","FRIENDSWOOD","77546","","","","","","","3327B","=""000013AJW8""","ENC R 1904 PALO DURO","1904 PALO DURO",""
"1905","PALO DURO","FRIENDSWOOD","77546","","","","","","","3327B","=""000013AD4S""","ENC R 1905 PALO DURO","1905 PALO DURO",""
"1906","PALO DURO","FRIENDSWOOD","77546","","","","","","","3327B","=""000013AEYK""","ENC R 1906 PALO DURO","1906 PALO DURO",""
"1907","PALO DURO","FRIENDSWOOD","77546","","","","","","","3327B","=""000013AFD3""","ENC R 1907 PALO DURO","1907 PALO DURO",""
"1908","PALO DURO","FRIENDSWOOD","77546","","","","","","","3327B","=""000013AFHV""","ENC R 1908 PALO DURO","1908 PALO DURO",""
"1909","PALO DURO","FRIENDSWOOD","77546","","","","","","","3327B","=""Not SAG Valid""","ENC R 1909 PALO DURO","1909 PALO DURO",""
"1699","PENSACOLA LN","FRIENDSWOOD","77546","","","","","","","3327B","=""000013AE8I""","R 1702 SUNMEADOW DR","1699 PENSACOLA LN",""
"1700","PENSACOLA LN","FRIENDSWOOD","77546","","","","","","","3327B","=""000013AKRG""","R 1700 PENSACOLA LN","1700 PENSACOLA LN",""
"1701","PENSACOLA LN","FRIENDSWOOD","77546","","","","","","","3327B","=""000013AEUE""","R 1702 SUNMEADOW DR","1701 PENSACOLA LN",""
"1702","PENSACOLA LN","FRIENDSWOOD","77546","","","","","","","3327B","=""000013AFI7""","R 1702 PENSACOLA LN","1702 PENSACOLA LN",""
"1703","PENSACOLA LN","FRIENDSWOOD","77546","","","","","","","3327B","=""000013AIJQ""","R 1704 SUNMEADOW DR","1703 PENSACOLA LN",""
"1704","PENSACOLA LN","FRIENDSWOOD","77546","","","","","","","3327B","=""000013AOR8""","R 1702 PENSACOLA LN","1704 PENSACOLA LN",""
"1705","PENSACOLA LN","FRIENDSWOOD","77546","","","","","","","3327B","=""000013AI7J""","R 1704 SUNMEADOW DR","1705 PENSACOLA LN",""
"1706","PENSACOLA LN","FRIENDSWOOD","77546","","","","","","","3327B","=""000013AC5B""","R 1704 PENSACOLA LN","1706 PENSACOLA LN",""
"1707","PENSACOLA LN","FRIENDSWOOD","77546","","","","","","","3327B","=""000013AKHL""","R 1708 SUNMEADOW DR","1707 PENSACOLA LN",""
"1708","PENSACOLA LN","FRIENDSWOOD","77546","","","","","","","3327B","=""000013ACN7""","R 1708 PENSACOLA LN","1708 PENSACOLA LN",""
"1709","PENSACOLA LN","FRIENDSWOOD","77546","UNIT","REAR","","","","","3327B","=""000013AOAG""","R 1708 SUNMEADOW DR","1709 PENSACOLA LN UNIT REAR",""
"1709","PENSACOLA LN","FRIENDSWOOD","77546","","","","","","","3327B","=""000013AQT7""","R 1708 SUNMEADOW DR","1709 PENSACOLA LN",""
"1710","PENSACOLA LN","FRIENDSWOOD","77546","","","","","","","3327B","=""000013ANM5""","R 1708 PENSACOLA LN","1710 PENSACOLA LN",""
"1801","PRESIDEO","FRIENDSWOOD","77546","","","","","","","3327B","=""000013AMN5""","ENC R 1801 PRESIDEO","1801 PRESIDEO",""
"1802","PRESIDEO","FRIENDSWOOD","77546","","","","","","","3327B","=""000013AFLV""","ENC R 1802 PRESIDEO","1802 PRESIDEO",""
"1803","PRESIDEO","FRIENDSWOOD","77546","","","","","","","3327B","=""000013AHO7""","R 1804 PALO DURO","1803 PRESIDEO",""
"1804","PRESIDEO","FRIENDSWOOD","77546","","","","","","","3327B","=""000013AMXT""","ENC R 1804 PRESIDEO","1804 PRESIDEO",""
"1805","PRESIDEO","FRIENDSWOOD","77546","","","","","","","3327B","=""000013ACN2""","ENC R 1805 PRESIDEO","1805 PRESIDEO",""
"1806","PRESIDEO","FRIENDSWOOD","77546","","","","","","","3327B","=""000013ABYE""","ENC R 1806 PRESIDEO","1806 PRESIDEO",""
"1807","PRESIDEO","FRIENDSWOOD","77546","","","","","","","3327B","=""000013ACZ4""","ENC R 1807 PRESIDEO","1807 PRESIDEO",""
"1808","PRESIDEO","FRIENDSWOOD","77546","","","","","","","3327B","=""000013ALOJ""","ENC R 1808 PRESIDEO","1808 PRESIDEO",""
"1901","PRESIDEO","FRIENDSWOOD","77546","","","","","","","3327B","=""000013AGWC""","ENC R 1901 PRESIDEO","1901 PRESIDEO",""
"1902","PRESIDEO","FRIENDSWOOD","77546","","","","","","","3327B","=""000013AR41""","R 1902 PRESIDEO","1902 PRESIDEO",""
"1903","PRESIDEO","FRIENDSWOOD","77546","","","","","","","3327B","=""000013AK5J""","ENC R 1903 PRESIDEO","1903 PRESIDEO",""
"1904","PRESIDEO","FRIENDSWOOD","77546","","","","","","","3327B","=""000013AN8C""","ENC R 1904 PRESIDEO","1904 PRESIDEO",""
"1905","PRESIDEO","FRIENDSWOOD","77546","","","","","","","3327B","=""000013AIHD""","ENC R 1905 PRESIDEO","1905 PRESIDEO",""
"1906","PRESIDEO","FRIENDSWOOD","77546","","","","","","","3327B","=""000013ADF0""","ENC R 1906 PRESIDEO","1906 PRESIDEO",""
"1907","PRESIDEO","FRIENDSWOOD","77546","","","","","","","3327B","=""Not SAG Valid""","ENC R 1907 PRESIDEO","1907 PRESIDEO",""
"2301","S MISSION CIR","FRIENDSWOOD","77546","","","","","","","3327B","=""000013AJ09""","R 2301 S MISSION CIR","2301 S MISSION CIR",""
"2303","S MISSION CIR","FRIENDSWOOD","77546","","","","","","","3327B","=""000013AFFL""","ENC R 2303 S MISSION CIR","2303 S MISSION CIR",""
"2305","S MISSION CIR","FRIENDSWOOD","77546","","","","","","","3327B","=""000013AMOZ""","ENC R 2305 S MISSION CIR","2305 S MISSION CIR",""
"2307","S MISSION CIR","FRIENDSWOOD","77546","","","","","","","3327B","=""000013ABTG""","ENC R 2307 S MISSION CIR","2307 S MISSION CIR",""
"2309","S MISSION CIR","FRIENDSWOOD","77546","","","","","","","3327B","=""000013AQXI""","ENC R 2309 S MISSION CIR","2309 S MISSION CIR",""
"2311","S MISSION CIR","FRIENDSWOOD","77546","","","","","","","3327B","=""000013AKE6""","ENC R 2311 S MISSION CIR","2311 S MISSION CIR",""
"2313","S MISSION CIR","FRIENDSWOOD","77546","","","","","","","3327B","=""000013AMLG""","ENC R 2313 S MISSION CIR","2313 S MISSION CIR",""
"2401","S MISSION CIR","FRIENDSWOOD","77546","","","","","","","3327B","=""000013ACUT""","ENC R 2401 S MISSION CIR","2401 S MISSION CIR",""
"2403","S MISSION CIR","FRIENDSWOOD","77546","","","","","","","3327B","=""000013AF9A""","ENC R 2403 S MISSION CIR","2403 S MISSION CIR",""
"2405","S MISSION CIR","FRIENDSWOOD","77546","","","","","","","3327B","=""000013AFC2""","R 2405 S MISSION CIR","2405 S MISSION CIR",""
"2407","S MISSION CIR","FRIENDSWOOD","77546","","","","","","","3327B","=""000013AFLT""","ENC R 2407 S MISSION CIR","2407 S MISSION CIR",""
"2409","S MISSION CIR","FRIENDSWOOD","77546","","","","","","","3327B","=""000013ARE1""","ENC R 2409 S MISSION CIR","2409 S MISSION CIR",""
"2501","S MISSION CIR","FRIENDSWOOD","77546","","","","","","","3327B","=""000013AKPS""","R 2501 S MISSION CIR","2501 S MISSION CIR",""
"2503","S MISSION CIR","FRIENDSWOOD","77546","","","","","","","3327B","=""000013AO3X""","R 2501 S MISSION CIR","2503 S MISSION CIR",""
"2505","S MISSION CIR","FRIENDSWOOD","77546","","","","","","","3327B","=""000013AKIL""","R 2501 S MISSION CIR","2505 S MISSION CIR",""
"2507","S MISSION CIR","FRIENDSWOOD","77546","","","","","","","3327B","=""000013ARNB""","ENC R 2507 S MISSION CIR","2507 S MISSION CIR",""
"2509","S MISSION CIR","FRIENDSWOOD","77546","","","","","","","3327B","=""000013AG9T""","ENC R 2509 S MISSION CIR","2509 S MISSION CIR",""
"2511","S MISSION CIR","FRIENDSWOOD","77546","","","","","","","3327B","=""000013AFW3""","ENC R 2511 S MISSION CIR","2511 S MISSION CIR",""
"2512","S MISSION CIR","FRIENDSWOOD","77546","","","","","","","3327B","=""000013AQQO""","ENC R 2512 S MISSION CIR","2512 S MISSION CIR",""
"2513","S MISSION CIR","FRIENDSWOOD","77546","","","","","","","3327B","=""000013AS05""","ENC R 2513 S MISSION CIR","2513 S MISSION CIR",""
"2514","S MISSION CIR","FRIENDSWOOD","77546","","","","","","","3327B","=""000013AOVA""","ENC R 2514 S MISSION CIR","2514 S MISSION CIR",""
"2515","S MISSION CIR","FRIENDSWOOD","77546","","","","","","","3327B","=""000013AR5V""","ENC R 2515 S MISSION CIR","2515 S MISSION CIR",""
"2516","S MISSION CIR","FRIENDSWOOD","77546","","","","","","","3327B","=""000013AFLN""","R 2511 N MISSION CIR","2516 S MISSION CIR",""
"2517","S MISSION CIR","FRIENDSWOOD","77546","","","","","","","3327B","=""000013AQ25""","ENC R 2517 S MISSION CIR","2517 S MISSION CIR",""
"2518","S MISSION CIR","FRIENDSWOOD","77546","","","","","","","3327B","=""000013AGP3""","ENC R 2518 S MISSION CIR","2518 S MISSION CIR",""
"2601","S MISSION CIR","FRIENDSWOOD","77546","","","","","","","3327B","=""000013ALCO""","ENC R 2601 S MISSION CIR","2601 S MISSION CIR",""
"2603","S MISSION CIR","FRIENDSWOOD","77546","","","","","","","3327B","=""000013AO87""","ENC R 2603 S MISSION CIR","2603 S MISSION CIR",""
"2605","S MISSION CIR","FRIENDSWOOD","77546","","","","","","","3327B","=""000013ALDC""","ENC R 2605 S MISSION CIR","2605 S MISSION CIR",""
"2607","S MISSION CIR","FRIENDSWOOD","77546","","","","","","","3327B","=""000013AEEO""","ENC R 2607 S MISSION CIR","2607 S MISSION CIR",""
"2609","S MISSION CIR","FRIENDSWOOD","77546","","","","","","","3327B","=""000013AONE""","ENC R 2609 S MISSION CIR","2609 S MISSION CIR",""
"2611","S MISSION CIR","FRIENDSWOOD","77546","","","","","","","3327B","=""000013ANSA""","ENC R 2611 S MISSION CIR","2611 S MISSION CIR",""
"2613","S MISSION CIR","FRIENDSWOOD","77546","","","","","","","3327B","=""000013AH12""","ENC R 2613 S MISSION CIR","2613 S MISSION CIR",""
"2615","S MISSION CIR","FRIENDSWOOD","77546","","","","","","","3327B","=""000013AKSB""","ENC R 2615 S MISSION CIR","2615 S MISSION CIR",""
"2302","SAN AUGUSTINE LN","FRIENDSWOOD","77546","","","","","","","3327B","=""000013ARZQ""","R 2304 SAN AUGUSTINE LN","2302 SAN AUGUSTINE LN",""
"2303","SAN AUGUSTINE LN","FRIENDSWOOD","77546","","","","","","","3327B","=""000013AEYC""","R 2308 SARASOTA DR","2303 SAN AUGUSTINE LN",""
"2304","SAN AUGUSTINE LN","FRIENDSWOOD","77546","","","","","","","3327B","=""000013AM93""","R 2304 SAN AUGUSTINE LN","2304 SAN AUGUSTINE LN",""
"2305","SAN AUGUSTINE LN","FRIENDSWOOD","77546","","","","","","","3327B","=""000013AI4U""","R 2310 SARASOTA DR","2305 SAN AUGUSTINE LN",""
"2306","SAN AUGUSTINE LN","FRIENDSWOOD","77546","","","","","","","3327B","=""000013AFTG""","R 2308 SAN AUGUSTINE LN","2306 SAN AUGUSTINE LN",""
"2307","SAN AUGUSTINE LN","FRIENDSWOOD","77546","","","","","","","3327B","=""000013AI9Q""","R 2310 SARASOTA DR","2307 SAN AUGUSTINE LN",""
"2308","SAN AUGUSTINE LN","FRIENDSWOOD","77546","","","","","","","3327B","=""000013AP9S""","R 2308 SAN AUGUSTINE LN","2308 SAN AUGUSTINE LN",""
"2309","SAN AUGUSTINE LN","FRIENDSWOOD","77546","","","","","","","3327B","=""000013AL3O""","R 2402 SARASOTA DR","2309 SAN AUGUSTINE LN",""
"2310","SAN AUGUSTINE LN","FRIENDSWOOD","77546","","","","","","","3327B","=""000013AOT4""","R 2310 SAN AUGUSTINE LN","2310 SAN AUGUSTINE LN",""
"2401","SAN AUGUSTINE LN","FRIENDSWOOD","77546","","","","","","","3327B","=""000013AJLG""","R 2402 SARASOTA DR","2401 SAN AUGUSTINE LN",""
"2402","SAN AUGUSTINE LN","FRIENDSWOOD","77546","","","","","","","3327B","=""000013AMYX""","R 2310 SAN AUGUSTINE LN","2402 SAN AUGUSTINE LN",""
"2403","SAN AUGUSTINE LN","FRIENDSWOOD","77546","","","","","","","3327B","=""000013AQYA""","R 2406 SARASOTA DR","2403 SAN AUGUSTINE LN",""
"2404","SAN AUGUSTINE LN","FRIENDSWOOD","77546","","","","","","","3327B","=""000013ARCT""","R 2406 SAN AUGUSTINE LN","2404 SAN AUGUSTINE LN",""
"2405","SAN AUGUSTINE LN","FRIENDSWOOD","77546","","","","","","","3327B","=""000013AKOA""","R 2406 SARASOTA DR","2405 SAN AUGUSTINE LN",""
"2406","SAN AUGUSTINE LN","FRIENDSWOOD","77546","","","","","","","3327B","=""000013AQGV""","R 2406 SAN AUGUSTINE LN","2406 SAN AUGUSTINE LN",""
"2407","SAN AUGUSTINE LN","FRIENDSWOOD","77546","","","","","","","3327B","=""000013ANX6""","R 2410 SARASOTA DR","2407 SAN AUGUSTINE LN",""
"2408","SAN AUGUSTINE LN","FRIENDSWOOD","77546","","","","","","","3327B","=""000013AO2D""","R 2408 SAN AUGUSTINE LN","2408 SAN AUGUSTINE LN",""
"2409","SAN AUGUSTINE LN","FRIENDSWOOD","77546","","","","","","","3327B","=""000013AGFD""","R 2410 SARASOTA DR","2409 SAN AUGUSTINE LN",""
"2410","SAN AUGUSTINE LN","FRIENDSWOOD","77546","","","","","","","3327B","=""000013ARZL""","R 2408 SAN AUGUSTINE LN","2410 SAN AUGUSTINE LN",""
"2412","SAN AUGUSTINE LN","FRIENDSWOOD","77546","","","","","","","3327B","=""000013AMID""","R 2412 SAN AUGUSTINE LN","2412 SAN AUGUSTINE LN",""
"1802","SAN JOAQUIN PKWY","FRIENDSWOOD","77546","","","","","","","3327B","=""000013AILE""","F 2302 N MISSION CIR","1802 SAN JOAQUIN PKWY",""
"1804","SAN JOAQUIN PKWY","FRIENDSWOOD","77546","","","","","","","3327B","=""000013AJDU""","ENC R 1802 SAN JOAQUIN PKWY","1804 SAN JOAQUIN PKWY",""
"1806","SAN JOAQUIN PKWY","FRIENDSWOOD","77546","","","","","","","3327B","=""000013AI19""","ENC R 1806 SAN JOAQUIN PKWY","1806 SAN JOAQUIN PKWY",""
"1808","SAN JOAQUIN PKWY","FRIENDSWOOD","77546","","","","","","","3327B","=""000013AC5A""","ENC R 1808 SAN JOAQUIN PKWY","1808 SAN JOAQUIN PKWY",""
"1810","SAN JOAQUIN PKWY","FRIENDSWOOD","77546","","","","","","","3327B","=""000013AC5T""","ENC R 1810 SAN JOAQUIN PKWY","1810 SAN JOAQUIN PKWY",""
"1812","SAN JOAQUIN PKWY","FRIENDSWOOD","77546","","","","","","","3327B","=""000013AHQF""","ENC R 1812 SAN JOAQUIN PKWY","1812 SAN JOAQUIN PKWY",""
"1902","SAN JOAQUIN PKWY","FRIENDSWOOD","77546","","","","","","","3327B","=""000013AECR""","ENC R 1902 SAN JOAQUIN PKWY","1902 SAN JOAQUIN PKWY",""
"1904","SAN JOAQUIN PKWY","FRIENDSWOOD","77546","","","","","","","3327B","=""000013ALRH""","ENC R 1904 SAN JOAQUIN PKWY","1904 SAN JOAQUIN PKWY",""
"1906","SAN JOAQUIN PKWY","FRIENDSWOOD","77546","","","","","","","3327B","=""000013AQF9""","ENC R 1906 SAN JOAQUIN PKWY","1906 SAN JOAQUIN PKWY",""
"1908","SAN JOAQUIN PKWY","FRIENDSWOOD","77546","","","","","","","3327B","=""000013AF9R""","ENC R 1908 SAN JOAQUIN PKWY","1908 SAN JOAQUIN PKWY",""
"1910","SAN JOAQUIN PKWY","FRIENDSWOOD","77546","","","","","","","3327B","=""000013ANW8""","ENC R 1910 SAN JOAQUIN PKWY","1910 SAN JOAQUIN PKWY",""
"2002","SAN JOAQUIN PKWY","FRIENDSWOOD","77546","","","","","","","3327B","=""000013AOA9""","ENC R 2002 SAN JOAQUIN PKWY","2002 SAN JOAQUIN PKWY",""
"2005","SAN JOAQUIN PKWY","FRIENDSWOOD","77546","","","","","","","3327B","=""000013AJ8A""","ENC R 2001 SAN JOAQUIN PKWY","2005 SAN JOAQUIN PKWY",""
"2010","SAN JOAQUIN PKWY","FRIENDSWOOD","77546","","","","","","","3327B","=""000013AM1D""","ENC R 2010 SAN JOAQUIN PKWY","2010 SAN JOAQUIN PKWY",""
"2011","SAN JOAQUIN PKWY","FRIENDSWOOD","77546","","","","","","","3327B","=""000013ANU7""","ENC R 2011 SAN JOAQUIN PKWY","2011 SAN JOAQUIN PKWY",""
"2017","SAN JOAQUIN PKWY","FRIENDSWOOD","77546","","","","","","","3327B","=""000013AJZ2""","ENC R 2017 SAN JOAQUIN PKWY","2017 SAN JOAQUIN PKWY",""
"2018","SAN JOAQUIN PKWY","FRIENDSWOOD","77546","","","","","","","3327B","=""000013AGQ8""","ENC R 2018 SAN JOAQUIN PKWY","2018 SAN JOAQUIN PKWY",""
"2112","SAN JOAQUIN PKWY","FRIENDSWOOD","77546","","","","","","","3327B","=""000013AQKZ""","ENC R 2303 SAN MIGUEL DR","2112 SAN JOAQUIN PKWY",""
"2120","SAN JOAQUIN PKWY","FRIENDSWOOD","77546","","","","","","","3327B","=""000013AGQL""","ENC R 2120 SAN JOAQUIN PKWY","2120 SAN JOAQUIN PKWY",""
"2124","SAN JOAQUIN PKWY","FRIENDSWOOD","77546","","","","","","","3327B","=""000013AFO8""","ENC R 2124 SAN JOAQUIN PKWY","2124 SAN JOAQUIN PKWY",""
"2202","SAN JOAQUIN PKWY","FRIENDSWOOD","77546","","","","","","","3327B","=""000013AGGE""","F 2201 SAN JOAQUIN PKWY","2202 SAN JOAQUIN PKWY",""
"2206","SAN JOAQUIN PKWY","FRIENDSWOOD","77546","","","","","","","3327B","=""0000ZIDI1D""","F 2201 SAN JOAQUIN PKWY","2206 SAN JOAQUIN PKWY",""
"2210","SAN JOAQUIN PKWY","FRIENDSWOOD","77546","","","","","","","3327B","=""000109OFY2""","F 2201 SAN JOAQUIN PKWY","2210 SAN JOAQUIN PKWY",""
"1901","SAN MIGUEL DR","FRIENDSWOOD","77546","","","","","","","3327B","=""000013AI00""","ENC R 1901 SAN MIGUEL DR","1901 SAN MIGUEL DR",""
"1905","SAN MIGUEL DR","FRIENDSWOOD","77546","","","","","","","3327B","=""000013APWR""","ENC R 1905 SAN MIGUEL DR","1905 SAN MIGUEL DR",""
"1909","SAN MIGUEL DR","FRIENDSWOOD","77546","","","","","","","3327B","=""000013AEQD""","ENC R 1909 SAN MIGUEL DR","1909 SAN MIGUEL DR",""
"1911","SAN MIGUEL DR","FRIENDSWOOD","77546","","","","","","","3327B","=""000013ARB7""","ENC R 1911 SAN MIGUEL DR","1911 SAN MIGUEL DR",""
"2003","SAN MIGUEL DR","FRIENDSWOOD","77546","","","","","","","3327B","=""000013ADKA""","R 2003 SAN MIGUEL DR","2003 SAN MIGUEL DR",""
"2006","SAN MIGUEL DR","FRIENDSWOOD","77546","","","","","","","3327B","=""000013AL29""","ENC R 2006 SAN MIGUEL DR","2006 SAN MIGUEL DR",""
"2007","SAN MIGUEL DR","FRIENDSWOOD","77546","","","","","","","3327B","=""000013AGUS""","R 2011 SAN MIGUEL DR","2007 SAN MIGUEL DR",""
"2010","SAN MIGUEL DR","FRIENDSWOOD","77546","","","","","","","3327B","=""000013AQQ0""","ENC R 2010 SAN MIGUEL DR","2010 SAN MIGUEL DR",""
"2011","SAN MIGUEL DR","FRIENDSWOOD","77546","","","","","","","3327B","=""000013ALB2""","ENC R 2011 SAN MIGUEL DR","2011 SAN MIGUEL DR",""
"2012","SAN MIGUEL DR","FRIENDSWOOD","77546","","","","","","","3327B","=""000013AEKA""","ENC R 2012 SAN MIGUEL DR","2012 SAN MIGUEL DR",""
"2014","SAN MIGUEL DR","FRIENDSWOOD","77546","","","","","","","3327B","=""000013ANJH""","R 2014 SAN MIGUEL DR","2014 SAN MIGUEL DR",""
"2102","SAN MIGUEL DR","FRIENDSWOOD","77546","","","","","","","3327B","=""000013AHC9""","ENC R 2102 SAN MIGUEL DR","2102 SAN MIGUEL DR",""
"2103","SAN MIGUEL DR","FRIENDSWOOD","77546","","","","","","","3327B","=""000013AE86""","ENC R 2103 SAN MIGUEL DR","2103 SAN MIGUEL DR",""
"2106","SAN MIGUEL DR","FRIENDSWOOD","77546","","","","","","","3327B","=""000013AKG3""","ENC R 2106 SAN MIGUEL DR","2106 SAN MIGUEL DR",""
"2107","SAN MIGUEL DR","FRIENDSWOOD","77546","","","","","","","3327B","=""000013AEJA""","ENC R 2107 SAN MIGUEL DR","2107 SAN MIGUEL DR",""
"2109","SAN MIGUEL DR","FRIENDSWOOD","77546","","","","","","","3327B","=""000013AM3A""","ENC R 2109 SAN MIGUEL DR","2109 SAN MIGUEL DR",""
"2110","SAN MIGUEL DR","FRIENDSWOOD","77546","","","","","","","3327B","=""000013AI40""","ENC R 2110 SAN MIGUEL DR","2110 SAN MIGUEL DR",""
"2111","SAN MIGUEL DR","FRIENDSWOOD","77546","","","","","","","3327B","=""000013ABO2""","R 2205 SAN MIGUEL DR","2111 SAN MIGUEL DR",""
"2114","SAN MIGUEL DR","FRIENDSWOOD","77546","","","","","","","3327B","=""000013AFHT""","ENC R 2114 SAN MIGUEL DR","2114 SAN MIGUEL DR",""
"2115","SAN MIGUEL DR","FRIENDSWOOD","77546","","","","","","","3327B","=""000013ARQQ""","ENC R 2115 SAN MIGUEL DR","2115 SAN MIGUEL DR",""
"2117","SAN MIGUEL DR","FRIENDSWOOD","77546","","","","","","","3327B","=""000013AJCG""","ENC R 2117 SAN MIGUEL DR","2117 SAN MIGUEL DR",""
"2121","SAN MIGUEL DR","FRIENDSWOOD","77546","","","","","","","3327B","=""000013AI5T""","ENC R 2121 SAN MIGUEL DR","2121 SAN MIGUEL DR",""
"2205","SAN MIGUEL DR","FRIENDSWOOD","77546","","","","","","","3327B","=""000013AMNO""","R 2205 SAN MIGUEL DR","2205 SAN MIGUEL DR",""
"2211","SAN MIGUEL DR","FRIENDSWOOD","77546","","","","","","","3327B","=""000013AID9""","R 2205 SAN MIGUEL DR","2211 SAN MIGUEL DR",""
"2303","SAN MIGUEL DR","FRIENDSWOOD","77546","","","","","","","3327B","=""000013AC58""","ENC R 2303 SAN MIGUEL DR","2303 SAN MIGUEL DR","Y"
"2315","SAN MIGUEL DR","FRIENDSWOOD","77546","","","","","","","3327B","=""000013AMPO""","ENC R 2315 SAN MIGUEL DR","2315 SAN MIGUEL DR",""
"2403","SAN MIGUEL DR","FRIENDSWOOD","77546","","","","","","","3327B","=""000013ACEV""","ENC R 2403 SAN MIGUEL DR","2403 SAN MIGUEL DR",""
"2404","SAN MIGUEL DR","FRIENDSWOOD","77546","","","","","","","3327B","=""000013AN29""","R 2404 SAN MIGUEL DR","2404 SAN MIGUEL DR",""
"2413","SAN MIGUEL DR","FRIENDSWOOD","77546","","","","","","","3327B","=""000013AH46""","ENC R 2415 SAN MIGUEL DR","2413 SAN MIGUEL DR",""
"2414","SAN MIGUEL DR","FRIENDSWOOD","77546","","","","","","","3327B","=""000013AGOJ""","ENC R 2414 SAN MIGUEL DR","2414 SAN MIGUEL DR",""
"2504","SAN MIGUEL DR","FRIENDSWOOD","77546","","","","","","","3327B","=""000013AHFW""","ENC R 2504 SAN MIGUEL DR","2504 SAN MIGUEL DR",""
"2505","SAN MIGUEL DR","FRIENDSWOOD","77546","","","","","","","3327B","=""000013AJP1""","ENC R 2505 SAN MIGUEL DR","2505 SAN MIGUEL DR",""
"2511","SAN MIGUEL DR","FRIENDSWOOD","77546","","","","","","","3327B","=""000013AOHV""","R 2511 SAN MIGUEL DR","2511 SAN MIGUEL DR",""
"2514","SAN MIGUEL DR","FRIENDSWOOD","77546","","","","","","","3327B","=""000013AC31""","R 2514 SAN MIGUEL DR","2514 SAN MIGUEL DR",""
"2520","SAN MIGUEL DR","FRIENDSWOOD","77546","","","","","","","3327B","=""000013AQQB""","R 2514 SAN MIGUEL DR","2520 SAN MIGUEL DR",""
"2306","SARASOTA DR","FRIENDSWOOD","77546","","","","","","","3327B","=""000013ACHP""","R 2308 SARASOTA DR","2306 SARASOTA DR",""
"2307","SARASOTA DR","FRIENDSWOOD","77546","","","","","","","3327B","=""000013ACDP""","F 2309 SARASOTA DR","2307 SARASOTA DR",""
"2308","SARASOTA DR","FRIENDSWOOD","77546","","","","","","","3327B","=""000013AKZ7""","R 2308 SARASOTA DR","2308 SARASOTA DR",""
"2309","SARASOTA DR","FRIENDSWOOD","77546","","","","","","","3327B","=""000013AFA3""","F 2309 SARASOTA DR","2309 SARASOTA DR",""
"2310","SARASOTA DR","FRIENDSWOOD","77546","","","","","","","3327B","=""000013AFA9""","R 2310 SARASOTA DR","2310 SARASOTA DR",""
"2401","SARASOTA DR","FRIENDSWOOD","77546","","","","","","","3327B","=""000013ABQ7""","F 2403 SARASOTA DR","2401 SARASOTA DR",""
"2402","SARASOTA DR","FRIENDSWOOD","77546","","","","","","","3327B","=""000013ACBK""","R 2402 SARASOTA DR","2402 SARASOTA DR",""
"2403","SARASOTA DR","FRIENDSWOOD","77546","","","","","","","3327B","=""000013AQK8""","F 2403 SARASOTA DR","2403 SARASOTA DR",""
"2404","SARASOTA DR","FRIENDSWOOD","77546","","","","","","","3327B","=""000013AJLF""","R 2402 SARASOTA DR","2404 SARASOTA DR",""
"2405","SARASOTA DR","FRIENDSWOOD","77546","","","","","","","3327B","=""000013ABSE""","F 2407 SARASOTA DR","2405 SARASOTA DR",""
"2406","SARASOTA DR","FRIENDSWOOD","77546","","","","","","","3327B","=""000013AEW9""","R 2406 SARASOTA DR","2406 SARASOTA DR",""
"2407","SARASOTA DR","FRIENDSWOOD","77546","","","","","","","3327B","=""000013AQ5Y""","F 2407 SARASOTA DR","2407 SARASOTA DR",""
"2408","SARASOTA DR","FRIENDSWOOD","77546","","","","","","","3327B","=""000013AO47""","R 2406 SARASOTA DR","2408 SARASOTA DR",""
"2409","SARASOTA DR","FRIENDSWOOD","77546","","","","","","","3327B","=""000013AC0V""","F 2501 SARASOTA DR","2409 SARASOTA DR",""
"2410","SARASOTA DR","FRIENDSWOOD","77546","","","","","","","3327B","=""000013AP9O""","R 2410 SARASOTA DR","2410 SARASOTA DR",""
"2501","SARASOTA DR","FRIENDSWOOD","77546","","","","","","","3327B","=""000013ANMA""","F 2501 SARASOTA DR","2501 SARASOTA DR",""
"2503","SARASOTA DR","FRIENDSWOOD","77546","","","","","","","3327B","=""000013AQZV""","F 2505 SARASOTA DR","2503 SARASOTA DR",""
"2505","SARASOTA DR","FRIENDSWOOD","77546","","","","","","","3327B","=""000013AMQT""","F 2505 SARASOTA DR","2505 SARASOTA DR",""
"2507","SARASOTA DR","FRIENDSWOOD","77546","","","","","","","3327B","=""000013AGDD""","F 2509 SARASOTA DR","2507 SARASOTA DR",""
"2509","SARASOTA DR","FRIENDSWOOD","77546","","","","","","","3327B","=""000013ALTF""","F 2509 SARASOTA DR","2509 SARASOTA DR",""
"2601","SARASOTA DR","FRIENDSWOOD","77546","","","","","","","3327B","=""000013ACVK""","F 2603 SARASOTA DR","2601 SARASOTA DR",""
"2603","SARASOTA DR","FRIENDSWOOD","77546","","","","","","","3327B","=""000013ARD3""","F 2603 SARASOTA DR","2603 SARASOTA DR",""
"2605","SARASOTA DR","FRIENDSWOOD","77546","","","","","","","3327B","=""000013AGW8""","F 2607 SARASOTA DR","2605 SARASOTA DR",""
"2607","SARASOTA DR","FRIENDSWOOD","77546","","","","","","","3327B","=""000013AE9I""","F 2607 SARASOTA DR","2607 SARASOTA DR",""
"2609","SARASOTA DR","FRIENDSWOOD","77546","","","","","","","3327B","=""000013APUP""","F 2611 SARASOTA DR","2609 SARASOTA DR",""
"2611","SARASOTA DR","FRIENDSWOOD","77546","","","","","","","3327B","=""000013AIBO""","F 2611 SARASOTA DR","2611 SARASOTA DR",""
"2613","SARASOTA DR","FRIENDSWOOD","77546","","","","","","","3327B","=""000013AHNK""","F 2613 SARASOTA DR","2613 SARASOTA DR",""
"1702","SUNMEADOW BLVD","FRIENDSWOOD","77546","","","","","","","3327B","=""Not SAG Valid""","R 1702 SUNMEADOW DR","1702 SUNMEADOW BLVD",""
"1706","SUNMEADOW BLVD","FRIENDSWOOD","77546","","","","","","","3327B","=""Not SAG Valid""","R 1704 SUNMEADOW DR","1706 SUNMEADOW BLVD",""
"1700","SUNMEADOW DR","FRIENDSWOOD","77546","","","","","","","3327B","=""000013AJSX""","R 1702 SUNMEADOW DR","1700 SUNMEADOW DR",""
"1702","SUNMEADOW DR","FRIENDSWOOD","77546","","","","","","","3327B","=""000013AF6X""","R 1702 SUNMEADOW DR","1702 SUNMEADOW DR",""
"1704","SUNMEADOW DR","FRIENDSWOOD","77546","","","","","","","3327B","=""000013AMO0""","R 1702 SUNMEADOW DR","1704 SUNMEADOW DR",""
"1706","SUNMEADOW DR","FRIENDSWOOD","77546","","","","","","","3327B","=""000013AHB5""","R 1704 SUNMEADOW DR","1706 SUNMEADOW DR",""
"1708","SUNMEADOW DR","FRIENDSWOOD","77546","","","","","","","3327B","=""000013AR3E""","R 1708 SUNMEADOW DR","1708 SUNMEADOW DR",""
"1710","SUNMEADOW DR","FRIENDSWOOD","77546","","","","","","","3327B","=""000013ANCS""","R 1708 SUNMEADOW DR","1710 SUNMEADOW DR",""
"2600","TAMPA ST","FRIENDSWOOD","77546","","","","","","","3327B","=""000013AEGI""","R 2602 TAMPA","2600 TAMPA ST",""
"2602","TAMPA ST","FRIENDSWOOD","77546","","","","","","","3327B","=""000013AJBG""","R 2602 TAMPA","2602 TAMPA ST",""
"2604","TAMPA ST","FRIENDSWOOD","77546","","","","","","","3327B","=""000013AK1O""","R 2602 TAMPA","2604 TAMPA ST",""
"2606","TAMPA ST","FRIENDSWOOD","77546","","","","","","","3327B","=""000013AEA6""","R 2606 TAMPA","2606 TAMPA ST",""
"2701","TAMPA ST","FRIENDSWOOD","77546","","","","","","","3327B","=""000013AQ06""","R 2702 MIAMI CT","2701 TAMPA ST",""
"2702","TAMPA ST","FRIENDSWOOD","77546","","","","","","","3327B","=""000013AFCY""","R 2702 TAMPA","2702 TAMPA ST",""
"2703","TAMPA ST","FRIENDSWOOD","77546","","","","","","","3327B","=""000013ACEH""","R 2702 MIAMI CT","2703 TAMPA ST",""
"2704","TAMPA ST","FRIENDSWOOD","77546","","","","","","","3327B","=""000013AQYJ""","R 2704 TAMPA","2704 TAMPA ST",""
"2705","TAMPA ST","FRIENDSWOOD","77546","UNIT","REAR","","","","","3327B","=""000013AD09""","R 2706 MIAMI CT","2705 TAMPA ST UNIT REAR",""
"2705","TAMPA ST","FRIENDSWOOD","77546","","","","","","","3327B","=""000013AH3P""","R 2706 MIAMI CT","2705 TAMPA ST",""
"2706","TAMPA ST","FRIENDSWOOD","77546","","","","","","","3327B","=""000013ACKT""","R 2704 TAMPA","2706 TAMPA ST",""
"1801","VAQUERO","FRIENDSWOOD","77546","","","","","","","3327B","=""000013ALL1""","R 1801 VAQUERO","1801 VAQUERO",""
"1802","VAQUERO","FRIENDSWOOD","77546","","","","","","","3327B","=""000013ADN3""","ENC R 1802 VAQUERO","1802 VAQUERO",""
"1803","VAQUERO","FRIENDSWOOD","77546","","","","","","","3327B","=""000013AEAP""","R 1801 VAQUERO","1803 VAQUERO",""
"1804","VAQUERO","FRIENDSWOOD","77546","","","","","","","3327B","=""000013AJ0I""","ENC R 1804 VAQUERO","1804 VAQUERO",""
"1805","VAQUERO","FRIENDSWOOD","77546","","","","","","","3327B","=""000013AEBW""","ENC R 1805 VAQUERO","1805 VAQUERO",""
"1806","VAQUERO","FRIENDSWOOD","77546","","","","","","","3327B","=""000013APEI""","ENC R 1806 VAQUERO","1806 VAQUERO",""
"1807","VAQUERO","FRIENDSWOOD","77546","","","","","","","3327B","=""000013AET3""","ENC R 1807 VAQUERO","1807 VAQUERO",""
"1808","VAQUERO","FRIENDSWOOD","77546","","","","","","","3327B","=""000013ABU8""","ENC R 1808 VAQUERO","1808 VAQUERO",""
"2111","W PARKWOOD AVE","FRIENDSWOOD","77546","SUIT","101","","","","","3327B","=""00010GMPTR""","I 2111-1-1 W PARKWOOD AVE TELCO ROOM","2111 W PARKWOOD AVE SUIT 101",""
"2111","W PARKWOOD AVE","FRIENDSWOOD","77546","SUIT","115","","","","","3327B","=""00010Q6CX0""","I 2111-1-1 W PARKWOOD AVE TELCO ROOM","2111 W PARKWOOD AVE SUIT 115",""
"2111","W PARKWOOD AVE","FRIENDSWOOD","77546","SUIT","117","","","","","3327B","=""000104AWAA""","I 2111-1-1 W PARKWOOD AVE TELCO ROOM","2111 W PARKWOOD AVE SUIT 117",""
"2111","W PARKWOOD AVE","FRIENDSWOOD","77546","SUIT","201","","","","","3327B","=""0001059T2A""","I 2111-1-1 W PARKWOOD AVE TELCO ROOM","2111 W PARKWOOD AVE SUIT 201",""
"2111","W PARKWOOD AVE","FRIENDSWOOD","77546","","","","","","","3327B","=""00010366GA""","I 2111-1-1 W PARKWOOD AVE TELCO ROOM","2111 W PARKWOOD AVE",""
"2131","W PARKWOOD AVE","FRIENDSWOOD","77546","","","","","","","3327B","=""00010EDHV4""","I 2131-1-1 W PARKWOOD AVE TELCO ROOM","2131 W PARKWOOD AVE",""
"2221","W PARKWOOD AVE","FRIENDSWOOD","77546","","","","","","","3327B","=""000105BDAL""","I 2221-1-1 W PARKWOOD AVE TELCO ROOM","2221 W PARKWOOD AVE",""
"2605","W PARKWOOD AVE","FRIENDSWOOD","77546","","","","","","","3327B","=""000013ALDO""","R 2704 TAMPA","2605 W PARKWOOD AVE",""
